<?xml version="1.0" encoding="UTF-8" standalone="no"?><gpx xmlns="http://www.topografix.com/GPX/1/1" xmlns:xsi="http://www.w3.org/2001/XMLSchema-instance" creator="Sports Tracker" version="1.1" xsi:schemaLocation="http://www.topografix.com/GPX/1/1 http://www.topografix.com/GPX/1/1/gpx.xsd"><metadata><name>ultra des 3 forêts defi 100K (sans Halatte)</name><author><name>malotalibart</name></author></metadata><wpt lat="49.421738" lon="2.823582"><name>Begin</name><desc>Auto-generated</desc><type>Begin</type></wpt><wpt lat="49.421837" lon="2.823456"><type>Left_turn</type></wpt><wpt lat="49.42157" lon="2.822903"><name>Waypoint 1</name><desc>Auto-generated</desc><type>Waypoint</type></wpt><wpt lat="49.421288" lon="2.82229"><type>Left_turn</type></wpt><wpt lat="49.42116" lon="2.822337"><type>Left_turn</type></wpt><wpt lat="49.420612" lon="2.822911"><type>Right_turn</type></wpt><wpt lat="49.4205" lon="2.822803"><type>Left_turn</type></wpt><wpt lat="49.419792" lon="2.823543"><type>Right_at_fork_turn</type></wpt><wpt lat="49.419792" lon="2.823543"><name>Waypoint 2</name><desc>Auto-generated</desc><type>Waypoint</type></wpt><wpt lat="49.419655" lon="2.823776"><type>Left_turn</type></wpt><wpt lat="49.42101" lon="2.826649"><type>Right_turn</type></wpt><wpt lat="49.420967" lon="2.826755"><type>Slight_right_turn</type></wpt><wpt lat="49.41938" lon="2.828517"><name>Waypoint 3</name><desc>Auto-generated</desc><type>Waypoint</type></wpt><wpt lat="49.418846" lon="2.829148"><type>Left_turn</type></wpt><wpt lat="49.420155" lon="2.831702"><type>Slight_left_turn</type></wpt><wpt lat="49.42025" lon="2.8317316"><name>Waypoint 4</name><desc>Auto-generated</desc><type>Waypoint</type></wpt><wpt lat="49.420826" lon="2.83202"><type>Right_turn</type></wpt><wpt lat="49.42121" lon="2.83887"><type>Right_turn</type></wpt><wpt lat="49.421097" lon="2.83892"><type>Left_turn</type></wpt><wpt lat="49.42134" lon="2.840882"><type>Right_turn</type></wpt><wpt lat="49.421535" lon="2.842413"><name>Waypoint 5</name><desc>Auto-generated</desc><type>Waypoint</type></wpt><wpt lat="49.421547" lon="2.842478"><type>Left_at_fork_turn</type></wpt><wpt lat="49.421906" lon="2.845472"><type>Slight_right_turn</type></wpt><wpt lat="49.42271" lon="2.852372"><type>Left_turn</type></wpt><wpt lat="49.42283" lon="2.85243"><type>Sharp_right_turn</type></wpt><wpt lat="49.42032" lon="2.860249"><type>Left_at_fork_turn</type></wpt><wpt lat="49.419323" lon="2.8633704"><name>Waypoint 6</name><desc>Auto-generated</desc><type>Waypoint</type></wpt><wpt lat="49.413445" lon="2.882228"><type>Right_at_fork_turn</type></wpt><wpt lat="49.413197" lon="2.8865564"><name>Waypoint 7</name><desc>Auto-generated</desc><type>Waypoint</type></wpt><wpt lat="49.413788" lon="2.889812"><type>Sharp_right_turn</type></wpt><wpt lat="49.41356" lon="2.889573"><type>Left_turn</type></wpt><wpt lat="49.412415" lon="2.890116"><type>Sharp_left_turn</type></wpt><wpt lat="49.412365" lon="2.890896"><type>Left_turn</type></wpt><wpt lat="49.409027" lon="2.896354"><type>Left_turn</type></wpt><wpt lat="49.408756" lon="2.898037"><type>Right_at_fork_turn</type></wpt><wpt lat="49.404892" lon="2.902573"><name>Waypoint 8</name><desc>Auto-generated</desc><type>Waypoint</type></wpt><wpt lat="49.40258" lon="2.904822"><type>Left_turn</type></wpt><wpt lat="49.401806" lon="2.925004"><type>Right_at_fork_turn</type></wpt><wpt lat="49.400364" lon="2.926388"><name>Waypoint 9</name><desc>Auto-generated</desc><type>Waypoint</type></wpt><wpt lat="49.399784" lon="2.929754"><type>Right_turn</type></wpt><wpt lat="49.39642" lon="2.934258"><type>Right_turn</type></wpt><wpt lat="49.395573" lon="2.934201"><type>Left_turn</type></wpt><wpt lat="49.39562" lon="2.9343684"><name>Waypoint 10</name><desc>Auto-generated</desc><type>Waypoint</type></wpt><wpt lat="49.395493" lon="2.934588"><type>Left_at_fork_turn</type></wpt><wpt lat="49.39567" lon="2.937719"><type>Right_turn</type></wpt><wpt lat="49.390125" lon="2.943981"><type>Right_at_fork_turn</type></wpt><wpt lat="49.389385" lon="2.945122"><type>Slight_left_turn</type></wpt><wpt lat="49.389156" lon="2.945666"><type>Left_turn</type></wpt><wpt lat="49.389202" lon="2.9461"><type>Right_at_fork_turn</type></wpt><wpt lat="49.388515" lon="2.949612"><type>Slight_right_turn</type></wpt><wpt lat="49.38777" lon="2.949651"><type>Left_turn</type></wpt><wpt lat="49.38754" lon="2.9509957"><name>Waypoint 11</name><desc>Auto-generated</desc><type>Waypoint</type></wpt><wpt lat="49.38116" lon="2.969433"><type>Right_turn</type></wpt><wpt lat="49.37669" lon="2.9700284"><name>Waypoint 12</name><desc>Auto-generated</desc><type>Waypoint</type></wpt><wpt lat="49.37021" lon="2.970484"><type>Left_turn</type></wpt><wpt lat="49.37035" lon="2.97388"><type>Right_at_fork_turn</type></wpt><wpt lat="49.362766" lon="2.9747396"><name>Waypoint 13</name><desc>Auto-generated</desc><type>Waypoint</type></wpt><wpt lat="49.361095" lon="2.974553"><type>Sharp_right_turn</type></wpt><wpt lat="49.360928" lon="2.97346"><type>Sharp_left_turn</type></wpt><wpt lat="49.35396" lon="2.983006"><type>Right_at_fork_turn</type></wpt><wpt lat="49.352898" lon="2.983921"><type>Right_turn</type></wpt><wpt lat="49.351902" lon="2.982461"><type>Right_turn</type></wpt><wpt lat="49.351227" lon="2.980749"><type>Left_turn</type></wpt><wpt lat="49.35092" lon="2.981001"><type>Right_at_fork_turn</type></wpt><wpt lat="49.3494" lon="2.978657"><name>Waypoint 14</name><desc>Auto-generated</desc><type>Waypoint</type></wpt><wpt lat="49.3494" lon="2.977851"><type>Left_turn</type></wpt><wpt lat="49.34703" lon="2.977739"><type>Left_turn</type></wpt><wpt lat="49.347023" lon="2.977821"><name>Waypoint 15</name><desc>Auto-generated</desc><type>Waypoint</type></wpt><wpt lat="49.346794" lon="2.978975"><name>Waypoint 16</name><desc>Auto-generated</desc><type>Waypoint</type></wpt><wpt lat="49.34677" lon="2.979033"><type>Right_turn</type></wpt><wpt lat="49.346733" lon="2.9790277"><name>Château de Pierrefonds </name><type>Waypoint</type></wpt><wpt lat="49.34483" lon="2.978532"><name>Waypoint 17</name><desc>Auto-generated</desc><type>Waypoint</type></wpt><wpt lat="49.343616" lon="2.978048"><type>Right_turn</type></wpt><wpt lat="49.342026" lon="2.976414"><name>Waypoint 18</name><desc>Auto-generated</desc><type>Waypoint</type></wpt><wpt lat="49.34047" lon="2.975612"><type>Sharp_right_turn</type></wpt><wpt lat="49.34253" lon="2.972514"><type>Right_turn</type></wpt><wpt lat="49.343052" lon="2.973205"><name>Waypoint 19</name><desc>Auto-generated</desc><type>Waypoint</type></wpt><wpt lat="49.344143" lon="2.974248"><type>Slight_left_turn</type></wpt><wpt lat="49.34496" lon="2.971507"><type>Left_at_fork_turn</type></wpt><wpt lat="49.344234" lon="2.9698389"><name>Waypoint 20</name><desc>Auto-generated</desc><type>Waypoint</type></wpt><wpt lat="49.344418" lon="2.969704"><type>Sharp_left_turn</type></wpt><wpt lat="49.34474" lon="2.968956"><name>Waypoint 21</name><desc>Auto-generated</desc><type>Waypoint</type></wpt><wpt lat="49.345005" lon="2.968669"><type>Left_turn</type></wpt><wpt lat="49.344593" lon="2.967362"><type>Right_turn</type></wpt><wpt lat="49.344986" lon="2.962623"><type>Right_turn</type></wpt><wpt lat="49.346516" lon="2.963556"><type>Left_turn</type></wpt><wpt lat="49.348427" lon="2.962173"><type>Left_turn</type></wpt><wpt lat="49.346767" lon="2.957386"><type>Sharp_right_turn</type></wpt><wpt lat="49.348232" lon="2.956887"><name>Waypoint 22</name><desc>Auto-generated</desc><type>Waypoint</type></wpt><wpt lat="49.351337" lon="2.955798"><name>Waypoint 23</name><desc>Auto-generated</desc><type>Waypoint</type></wpt><wpt lat="49.352154" lon="2.955518"><type>Sharp_left_turn</type></wpt><wpt lat="49.350796" lon="2.951573"><type>Right_turn</type></wpt><wpt lat="49.35161" lon="2.949257"><name>Waypoint 24</name><desc>Auto-generated</desc><type>Waypoint</type></wpt><wpt lat="49.3517" lon="2.948932"><type>Left_turn</type></wpt><wpt lat="49.34967" lon="2.947252"><type>Left_at_fork_turn</type></wpt><wpt lat="49.348812" lon="2.946619"><name>Waypoint 25</name><desc>Auto-generated</desc><type>Waypoint</type></wpt><wpt lat="49.34745" lon="2.94547"><type>Sharp_right_turn</type></wpt><wpt lat="49.348667" lon="2.9447646"><name>Waypoint 26</name><desc>Auto-generated</desc><type>Waypoint</type></wpt><wpt lat="49.34919" lon="2.944169"><type>Slight_right_turn</type></wpt><wpt lat="49.350224" lon="2.943719"><name>Waypoint 27</name><desc>Auto-generated</desc><type>Waypoint</type></wpt><wpt lat="49.354305" lon="2.94226"><type>Sharp_left_turn</type></wpt><wpt lat="49.353657" lon="2.939885"><type>Slight_left_turn</type></wpt><wpt lat="49.35208" lon="2.93751"><name>Waypoint 28</name><desc>Auto-generated</desc><type>Waypoint</type></wpt><wpt lat="49.350376" lon="2.935229"><type>Right_turn</type></wpt><wpt lat="49.349327" lon="2.931415"><type>Left_at_fork_turn</type></wpt><wpt lat="49.346317" lon="2.930671"><type>Right_turn</type></wpt><wpt lat="49.346287" lon="2.926313"><name>Waypoint 29</name><desc>Auto-generated</desc><type>Waypoint</type></wpt><wpt lat="49.34408" lon="2.925257"><type>Left_turn</type></wpt><wpt lat="49.34408" lon="2.925294"><type>Right_turn</type></wpt><wpt lat="49.343952" lon="2.925353"><type>Right_turn</type></wpt><wpt lat="49.34392" lon="2.925157"><type>Right_at_fork_turn</type></wpt><wpt lat="49.34509" lon="2.920524"><type>Right_at_fork_turn</type></wpt><wpt lat="49.346893" lon="2.916391"><type>Right_at_fork_turn</type></wpt><wpt lat="49.345802" lon="2.91187"><type>Slight_left_turn</type></wpt><wpt lat="49.345406" lon="2.91029"><name>Waypoint 30</name><desc>Auto-generated</desc><type>Waypoint</type></wpt><wpt lat="49.346237" lon="2.907104"><type>Left_turn</type></wpt><wpt lat="49.34603" lon="2.9063"><name>Waypoint 31</name><desc>Auto-generated</desc><type>Waypoint</type></wpt><wpt lat="49.34593" lon="2.905903"><type>Right_turn</type></wpt><wpt lat="49.34643" lon="2.9055915"><name>Village de Saint Jean aux Bois</name><type>Waypoint</type></wpt><wpt lat="49.34715" lon="2.90516"><name>Waypoint 32</name><desc>Auto-generated</desc><type>Waypoint</type></wpt><wpt lat="49.34722" lon="2.904442"><name>Waypoint 33</name><desc>Auto-generated</desc><type>Waypoint</type></wpt><wpt lat="49.347565" lon="2.904485"><type>Left_turn</type></wpt><wpt lat="49.347717" lon="2.904131"><type>Left_turn</type></wpt><wpt lat="49.34487" lon="2.898977"><type>Right_turn</type></wpt><wpt lat="49.347404" lon="2.894701"><type>Sharp_left_turn</type></wpt><wpt lat="49.346382" lon="2.891399"><name>Waypoint 34</name><desc>Auto-generated</desc><type>Waypoint</type></wpt><wpt lat="49.344284" lon="2.87869"><type>Slight_left_turn</type></wpt><wpt lat="49.344276" lon="2.878677"><type>Slight_right_turn</type></wpt><wpt lat="49.33623" lon="2.848509"><name>Waypoint 35</name><desc>Auto-generated</desc><type>Waypoint</type></wpt><wpt lat="49.33524" lon="2.836591"><type>Left_turn</type></wpt><wpt lat="49.334312" lon="2.8366737"><name>Waypoint 36</name><desc>Auto-generated</desc><type>Waypoint</type></wpt><wpt lat="49.324394" lon="2.838282"><type>Right_turn</type></wpt><wpt lat="49.323982" lon="2.83439"><type>Left_at_fork_turn</type></wpt><wpt lat="49.320843" lon="2.820757"><type>Sharp_left_turn</type></wpt><wpt lat="49.320858" lon="2.82093"><name>Waypoint 37</name><desc>Auto-generated</desc><type>Waypoint</type></wpt><wpt lat="49.316635" lon="2.829006"><type>Right_turn</type></wpt><wpt lat="49.316437" lon="2.828594"><type>Left_turn</type></wpt><wpt lat="49.3148" lon="2.829756"><type>Right_turn</type></wpt><wpt lat="49.313663" lon="2.828329"><type>Left_turn</type></wpt><wpt lat="49.31198" lon="2.83087"><type>Right_turn</type></wpt><wpt lat="49.310173" lon="2.8276517"><name>Waypoint 38</name><desc>Auto-generated</desc><type>Waypoint</type></wpt><wpt lat="49.30609" lon="2.820637"><type>Slight_right_turn</type></wpt><wpt lat="49.301895" lon="2.81299"><type>Right_turn</type></wpt><wpt lat="49.30285" lon="2.811102"><type>Right_turn</type></wpt><wpt lat="49.30362" lon="2.811208"><type>Left_turn</type></wpt><wpt lat="49.304253" lon="2.811385"><type>Left_turn</type></wpt><wpt lat="49.304302" lon="2.811272"><type>Left_turn</type></wpt><wpt lat="49.304256" lon="2.81123"><name>Point d'eau </name><type>Waypoint</type></wpt><wpt lat="49.30424" lon="2.8112638"><name>Point d'eau </name><type>Waypoint</type></wpt><wpt lat="49.304382" lon="2.809778"><type>Left_turn</type></wpt><wpt lat="49.30364" lon="2.809177"><type>Right_turn</type></wpt><wpt lat="49.30309" lon="2.806134"><type>Left_turn</type></wpt><wpt lat="49.301327" lon="2.805982"><type>Sharp_right_turn</type></wpt><wpt lat="49.301468" lon="2.8051531"><name>Waypoint 39</name><desc>Auto-generated</desc><type>Waypoint</type></wpt><wpt lat="49.30116" lon="2.802989"><type>Right_turn</type></wpt><wpt lat="49.30127" lon="2.802963"><type>Left_turn</type></wpt><wpt lat="49.300285" lon="2.800673"><type>Left_turn</type></wpt><wpt lat="49.2991" lon="2.801048"><type>Right_turn</type></wpt><wpt lat="49.298206" lon="2.7991045"><name>Carrefour Market</name><type>Waypoint</type></wpt><wpt lat="49.297264" lon="2.795161"><type>Right_turn</type></wpt><wpt lat="49.297817" lon="2.7933877"><name>Waypoint 40</name><desc>Auto-generated</desc><type>Waypoint</type></wpt><wpt lat="49.297886" lon="2.791489"><type>Left_turn</type></wpt><wpt lat="49.297844" lon="2.791486"><type>Right_turn</type></wpt><wpt lat="49.2964" lon="2.766857"><type>Right_turn</type></wpt><wpt lat="49.29774" lon="2.766317"><type>Left_turn</type></wpt><wpt lat="49.298203" lon="2.760886"><type>Left_at_fork_turn</type></wpt><wpt lat="49.29862" lon="2.759207"><type>Left_turn</type></wpt><wpt lat="49.29826" lon="2.745971"><type>Right_turn</type></wpt><wpt lat="49.299713" lon="2.744894"><type>Left_turn</type></wpt><wpt lat="49.29789" lon="2.735996"><type>Right_turn</type></wpt><wpt lat="49.298626" lon="2.7297082"><name>Waypoint 41</name><desc>Auto-generated</desc><type>Waypoint</type></wpt><wpt lat="49.299355" lon="2.720154"><type>Right_turn</type></wpt><wpt lat="49.300083" lon="2.719599"><type>Left_turn</type></wpt><wpt lat="49.29942" lon="2.7022681"><name>Waypoint 42</name><desc>Auto-generated</desc><type>Waypoint</type></wpt><wpt lat="49.297646" lon="2.702737"><type>Sharp_right_turn</type></wpt><wpt lat="49.298103" lon="2.700954"><type>Slight_left_turn</type></wpt><wpt lat="49.303562" lon="2.694049"><type>Sharp_left_turn</type></wpt><wpt lat="49.30307" lon="2.6937947"><name>Waypoint 43</name><desc>Auto-generated</desc><type>Waypoint</type></wpt><wpt lat="49.301888" lon="2.692856"><type>Right_at_fork_turn</type></wpt><wpt lat="49.300636" lon="2.689851"><type>Left_turn</type></wpt><wpt lat="49.29703" lon="2.690926"><type>Right_at_fork_turn</type></wpt><wpt lat="49.290405" lon="2.688417"><type>Right_turn</type></wpt><wpt lat="49.28997" lon="2.683628"><type>Left_turn</type></wpt><wpt lat="49.28945" lon="2.683875"><type>Left_turn</type></wpt><wpt lat="49.28943" lon="2.684027"><name>point d'eau : cimetière Roberval</name><type>Waypoint</type></wpt><wpt lat="49.28944" lon="2.6840658"><name>point d'eau : cimetière Roberval</name><type>Waypoint</type></wpt><wpt lat="49.28945" lon="2.683875"><type>Right_turn</type></wpt><wpt lat="49.28997" lon="2.683628"><type>Right_turn</type></wpt><wpt lat="49.289978" lon="2.6836662"><name>Waypoint 44</name><desc>Auto-generated</desc><type>Waypoint</type></wpt><wpt lat="49.28787" lon="2.678224"><type>Right_turn</type></wpt><wpt lat="49.288692" lon="2.670352"><type>Slight_right_turn</type></wpt><wpt lat="49.288624" lon="2.661665"><type>Left_at_fork_turn</type></wpt><wpt lat="49.28891" lon="2.659688"><type>Left_turn</type></wpt><wpt lat="49.29161" lon="2.629416"><type>Left_at_fork_turn</type></wpt><wpt lat="49.2959" lon="2.626508"><name>Waypoint 45</name><desc>Auto-generated</desc><type>Waypoint</type></wpt><wpt lat="49.29788" lon="2.626146"><type>Slight_left_turn</type></wpt><wpt lat="49.298443" lon="2.624713"><type>Left_at_fork_turn</type></wpt><wpt lat="49.29972" lon="2.621127"><type>Left_turn</type></wpt><wpt lat="49.29639" lon="2.618183"><type>Left_at_fork_turn</type></wpt><wpt lat="49.296413" lon="2.617449"><name>sortie de secours : gare de pont saint Maxence pas trop loin</name><type>Waypoint</type></wpt><wpt lat="49.296387" lon="2.617465"><name>sortie de secours : gare de pont saint Maxence pas trop loin</name><type>Waypoint</type></wpt><wpt lat="49.295147" lon="2.615714"><type>Left_turn</type></wpt><wpt lat="49.29289" lon="2.6174333"><name>Waypoint 46</name><desc>Auto-generated</desc><type>Waypoint</type></wpt><wpt lat="49.292255" lon="2.618053"><type>Right_turn</type></wpt><wpt lat="49.291397" lon="2.615237"><type>Left_turn</type></wpt><wpt lat="49.288517" lon="2.6163573"><name>Waypoint 47</name><desc>Auto-generated</desc><type>Waypoint</type></wpt><wpt lat="49.285088" lon="2.619744"><type>Slight_left_turn</type></wpt><wpt lat="49.28446" lon="2.621324"><type>Sharp_right_turn</type></wpt><wpt lat="49.279613" lon="2.611162"><name>Waypoint 48</name><desc>Auto-generated</desc><type>Waypoint</type></wpt><wpt lat="49.277504" lon="2.606917"><type>Left_at_fork_turn</type></wpt><wpt lat="49.27735" lon="2.606724"><type>Left_turn</type></wpt><wpt lat="49.27376" lon="2.607671"><type>Left_turn</type></wpt><wpt lat="49.273796" lon="2.609502"><type>Right_at_fork_turn</type></wpt><wpt lat="49.272484" lon="2.6123934"><name>Waypoint 49</name><desc>Auto-generated</desc><type>Waypoint</type></wpt><wpt lat="49.270363" lon="2.612939"><type>Right_at_fork_turn</type></wpt><wpt lat="49.266033" lon="2.5987816"><name>Waypoint 50</name><desc>Auto-generated</desc><type>Waypoint</type></wpt><wpt lat="49.265144" lon="2.593541"><type>Left_turn</type></wpt><wpt lat="49.264534" lon="2.593654"><type>Slight_right_turn</type></wpt><wpt lat="49.26405" lon="2.593404"><type>Left_at_fork_turn</type></wpt><wpt lat="49.260292" lon="2.59337"><type>Sharp_right_turn</type></wpt><wpt lat="49.260574" lon="2.591956"><name>Waypoint 51</name><desc>Auto-generated</desc><type>Waypoint</type></wpt><wpt lat="49.26138" lon="2.588533"><type>Roundabout_exit_1_turn</type></wpt><wpt lat="49.25946" lon="2.583842"><type>Left_turn</type></wpt><wpt lat="49.25888" lon="2.584175"><type>Right_turn</type></wpt><wpt lat="49.258698" lon="2.5822558"><name>Waypoint 52</name><desc>Auto-generated</desc><type>Waypoint</type></wpt><wpt lat="49.259094" lon="2.579109"><type>Right_turn</type></wpt><wpt lat="49.26331" lon="2.567899"><name>Waypoint 53</name><desc>Auto-generated</desc><type>Waypoint</type></wpt><wpt lat="49.26441" lon="2.556806"><type>Left_turn</type></wpt><wpt lat="49.261234" lon="2.554915"><name>Waypoint 54</name><desc>Auto-generated</desc><type>Waypoint</type></wpt><wpt lat="49.255997" lon="2.552371"><type>Right_turn</type></wpt><wpt lat="49.244" lon="2.5448015"><name>Waypoint 55</name><desc>Auto-generated</desc><type>Waypoint</type></wpt><wpt lat="49.241734" lon="2.54342"><type>Left_at_fork_turn</type></wpt><wpt lat="49.230602" lon="2.546193"><type>Slight_right_turn</type></wpt><wpt lat="49.230453" lon="2.545996"><type>Left_turn</type></wpt><wpt lat="49.229603" lon="2.548237"><name>Waypoint 56</name><desc>Auto-generated</desc><type>Waypoint</type></wpt><wpt lat="49.229565" lon="2.5484235"><name>point d'eau : cimetière Aumont </name><type>Waypoint</type></wpt><wpt lat="49.229424" lon="2.549204"><name>Waypoint 57</name><desc>Auto-generated</desc><type>Waypoint</type></wpt><wpt lat="49.22934" lon="2.550245"><type>Roundabout_exit_1_turn</type></wpt><wpt lat="49.226437" lon="2.551393"><type>Left_at_fork_turn</type></wpt><wpt lat="49.21974" lon="2.561751"><type>Left_turn</type></wpt><wpt lat="49.224064" lon="2.575439"><type>Right_turn</type></wpt><wpt lat="49.22007" lon="2.577715"><name>Waypoint 58</name><desc>Auto-generated</desc><type>Waypoint</type></wpt><wpt lat="49.21949" lon="2.578028"><type>Right_at_fork_turn</type></wpt><wpt lat="49.21084" lon="2.581545"><type>Right_turn</type></wpt><wpt lat="49.21082" lon="2.581513"><type>Left_turn</type></wpt><wpt lat="49.209827" lon="2.579994"><name>Waypoint 59</name><desc>Auto-generated</desc><type>Waypoint</type></wpt><wpt lat="49.20948" lon="2.579486"><type>Left_turn</type></wpt><wpt lat="49.20947" lon="2.579528"><type>Right_turn</type></wpt><wpt lat="49.206562" lon="2.578323"><type>Roundabout_exit_2_turn</type></wpt><wpt lat="49.206314" lon="2.578376"><type>Right_turn</type></wpt><wpt lat="49.20578" lon="2.577824"><type>Left_turn</type></wpt><wpt lat="49.205765" lon="2.577856"><name>Arènes de Senlis</name><type>Waypoint</type></wpt><wpt lat="49.205765" lon="2.5778534"><name>Arènes de Senlis</name><type>Waypoint</type></wpt><wpt lat="49.20578" lon="2.577824"><type>Left_turn</type></wpt><wpt lat="49.20573" lon="2.577838"><name>Waypoint 60</name><desc>Auto-generated</desc><type>Waypoint</type></wpt><wpt lat="49.206455" lon="2.578611"><type>Right_turn</type></wpt><wpt lat="49.206093" lon="2.57991"><type>Left_turn</type></wpt><wpt lat="49.206112" lon="2.579922"><type>Right_turn</type></wpt><wpt lat="49.20595" lon="2.580492"><type>Left_turn</type></wpt><wpt lat="49.20642" lon="2.580842"><type>Right_turn</type></wpt><wpt lat="49.206303" lon="2.582542"><name>Waypoint 61</name><desc>Auto-generated</desc><type>Waypoint</type></wpt><wpt lat="49.205994" lon="2.584142"><type>Sharp_left_turn</type></wpt><wpt lat="49.207073" lon="2.585178"><type>Right_turn</type></wpt><wpt lat="49.207066" lon="2.5852"><type>Left_turn</type></wpt><wpt lat="49.207085" lon="2.585212"><type>Right_turn</type></wpt><wpt lat="49.207077" lon="2.585232"><type>Left_turn</type></wpt><wpt lat="49.207417" lon="2.585354"><name>Waypoint 62</name><desc>Auto-generated</desc><type>Waypoint</type></wpt><wpt lat="49.2078" lon="2.585563"><type>Right_turn</type></wpt><wpt lat="49.207703" lon="2.586004"><type>Right_at_fork_turn</type></wpt><wpt lat="49.207233" lon="2.586373"><name>Cathédrale de Senis</name><type>Waypoint</type></wpt><wpt lat="49.206985" lon="2.586707"><name>Waypoint 63</name><desc>Auto-generated</desc><type>Waypoint</type></wpt><wpt lat="49.2063" lon="2.587132"><type>Slight_right_turn</type></wpt><wpt lat="49.206017" lon="2.587034"><type>Left_turn</type></wpt><wpt lat="49.20491" lon="2.590714"><type>Right_turn</type></wpt><wpt lat="49.204414" lon="2.590758"><name>Sortie de secours : bus pour rejoindre les gares </name><type>Waypoint</type></wpt><wpt lat="49.20297" lon="2.590973"><type>Right_turn</type></wpt><wpt lat="49.202847" lon="2.590591"><type>Sharp_left_turn</type></wpt><wpt lat="49.201385" lon="2.591033"><type>Left_turn</type></wpt><wpt lat="49.19849" lon="2.59327"><type>Sharp_right_turn</type></wpt><wpt lat="49.191135" lon="2.590451"><name>Waypoint 64</name><desc>Auto-generated</desc><type>Waypoint</type></wpt><wpt lat="49.188744" lon="2.590023"><type>Sharp_right_turn</type></wpt><wpt lat="49.19153" lon="2.574479"><type>Roundabout_exit_2_turn</type></wpt><wpt lat="49.191525" lon="2.566182"><name>Waypoint 65</name><desc>Auto-generated</desc><type>Waypoint</type></wpt><wpt lat="49.19173" lon="2.561016"><type>Right_at_fork_turn</type></wpt><wpt lat="49.192093" lon="2.559899"><type>Left_at_fork_turn</type></wpt><wpt lat="49.19287" lon="2.557484"><type>Left_turn</type></wpt><wpt lat="49.190907" lon="2.546993"><type>Slight_left_turn</type></wpt><wpt lat="49.191147" lon="2.5317314"><name>Waypoint 66</name><desc>Auto-generated</desc><type>Waypoint</type></wpt><wpt lat="49.19066" lon="2.512395"><type>Sharp_right_turn</type></wpt><wpt lat="49.190712" lon="2.512433"><type>Left_turn</type></wpt><wpt lat="49.191967" lon="2.50752"><type>Roundabout_exit_1_turn</type></wpt><wpt lat="49.192093" lon="2.506809"><type>Left_at_fork_turn</type></wpt><wpt lat="49.191303" lon="2.505088"><name>Waypoint 67</name><desc>Auto-generated</desc><type>Waypoint</type></wpt><wpt lat="49.189835" lon="2.488718"><name>Waypoint 68</name><desc>Auto-generated</desc><type>Waypoint</type></wpt><wpt lat="49.19146" lon="2.485158"><type>Right_turn</type></wpt><wpt lat="49.19176" lon="2.484616"><type>Left_at_fork_turn</type></wpt><wpt lat="49.1919" lon="2.4843993"><name>Château de Chantilly </name><type>Waypoint</type></wpt><wpt lat="49.19299" lon="2.482284"><type>Right_at_fork_turn</type></wpt><wpt lat="49.193134" lon="2.481929"><type>Left_at_fork_turn</type></wpt><wpt lat="49.193733" lon="2.480488"><type>Left_turn</type></wpt><wpt lat="49.19347" lon="2.480354"><type>Right_turn</type></wpt><wpt lat="49.193455" lon="2.480006"><name>Waypoint 69</name><desc>Auto-generated</desc><type>Waypoint</type></wpt><wpt lat="49.193413" lon="2.477636"><type>Right_turn</type></wpt><wpt lat="49.193447" lon="2.477632"><type>Left_turn</type></wpt><wpt lat="49.19336" lon="2.473871"><type>Left_at_fork_turn</type></wpt><wpt lat="49.19041" lon="2.466377"><type>Right_at_fork_turn</type></wpt><wpt lat="49.1901" lon="2.46539"><type>Right_turn</type></wpt><wpt lat="49.190136" lon="2.465295"><type>Left_turn</type></wpt><wpt lat="49.189774" lon="2.46316"><type>Left_turn</type></wpt><wpt lat="49.1881" lon="2.462091"><name>Waypoint 70</name><desc>Auto-generated</desc><type>Waypoint</type></wpt><wpt lat="49.187115" lon="2.4614756"><name>sortie de secours : Gare de Chantilly </name><type>Waypoint</type></wpt><wpt lat="49.18651" lon="2.461145"><type>Left_at_fork_turn</type></wpt><wpt lat="49.18606" lon="2.461225"><type>Sharp_left_turn</type></wpt><wpt lat="49.18599" lon="2.462341"><type>Right_at_fork_turn</type></wpt><wpt lat="49.183865" lon="2.469494"><type>Right_turn</type></wpt><wpt lat="49.1773" lon="2.470717"><name>Waypoint 71</name><desc>Auto-generated</desc><type>Waypoint</type></wpt><wpt lat="49.168545" lon="2.471906"><type>Left_turn</type></wpt><wpt lat="49.16336" lon="2.480898"><name>Waypoint 72</name><desc>Auto-generated</desc><type>Waypoint</type></wpt><wpt lat="49.1602" lon="2.4863656"><name>Waypoint 73</name><desc>Auto-generated</desc><type>Waypoint</type></wpt><wpt lat="49.15934" lon="2.487882"><type>Sharp_right_turn</type></wpt><wpt lat="49.158936" lon="2.486686"><type>Right_turn</type></wpt><wpt lat="49.156906" lon="2.481278"><type>Right_turn</type></wpt><wpt lat="49.157185" lon="2.481172"><type>Left_turn</type></wpt><wpt lat="49.15712" lon="2.4810026"><name>Waypoint 74</name><desc>Auto-generated</desc><type>Waypoint</type></wpt><wpt lat="49.156666" lon="2.479834"><type>Slight_left_turn</type></wpt><wpt lat="49.156216" lon="2.479203"><name>Étangs de Comelles </name><type>Waypoint</type></wpt><wpt lat="49.156216" lon="2.479206"><name>Étangs de Comelles </name><type>Waypoint</type></wpt><wpt lat="49.15516" lon="2.479446"><type>Sharp_left_turn</type></wpt><wpt lat="49.155163" lon="2.479468"><name>Waypoint 75</name><desc>Auto-generated</desc><type>Waypoint</type></wpt><wpt lat="49.157207" lon="2.485592"><name>Waypoint 76</name><desc>Auto-generated</desc><type>Waypoint</type></wpt><wpt lat="49.157375" lon="2.486037"><type>Sharp_right_turn</type></wpt><wpt lat="49.156433" lon="2.486743"><type>Right_at_fork_turn</type></wpt><wpt lat="49.15358" lon="2.488004"><type>Right_at_fork_turn</type></wpt><wpt lat="49.152466" lon="2.4878168"><name>Waypoint 77</name><desc>Auto-generated</desc><type>Waypoint</type></wpt><wpt lat="49.14461" lon="2.485013"><type>Left_turn</type></wpt><wpt lat="49.144344" lon="2.485273"><type>Right_turn</type></wpt><wpt lat="49.143974" lon="2.484482"><type>Right_at_fork_turn</type></wpt><wpt lat="49.14358" lon="2.483949"><type>Right_turn</type></wpt><wpt lat="49.143578" lon="2.48384"><type>Left_turn</type></wpt><wpt lat="49.14203" lon="2.483709"><name>Waypoint 78</name><desc>Auto-generated</desc><type>Waypoint</type></wpt><wpt lat="49.139053" lon="2.484802"><type>Left_turn</type></wpt><wpt lat="49.13973" lon="2.489496"><type>Right_at_fork_turn</type></wpt><wpt lat="49.139236" lon="2.49031"><type>Right_turn</type></wpt><wpt lat="49.13915" lon="2.490097"><type>Left_turn</type></wpt><wpt lat="49.13895" lon="2.490269"><type>Right_turn</type></wpt><wpt lat="49.13891" lon="2.490149"><name>End</name><desc>Auto-generated</desc><type>End</type></wpt><rte><rtept lat="49.421738" lon="2.823582"><ele>36.0</ele></rtept><rtept lat="49.421837" lon="2.823456"><ele>36.0</ele></rtept><rtept lat="49.42157" lon="2.822903"><ele>36.63</ele></rtept><rtept lat="49.421288" lon="2.82229"><ele>37.0</ele></rtept><rtept lat="49.42116" lon="2.822337"><ele>37.0</ele></rtept><rtept lat="49.420612" lon="2.822911"><ele>37.47</ele></rtept><rtept lat="49.4205" lon="2.822803"><ele>37.7</ele></rtept><rtept lat="49.419792" lon="2.823543"><ele>37.02</ele></rtept><rtept lat="49.419792" lon="2.823543"><ele>37.02</ele></rtept><rtept lat="49.419655" lon="2.823776"><ele>37.04</ele></rtept><rtept lat="49.42101" lon="2.826649"><ele>35.27</ele></rtept><rtept lat="49.420967" lon="2.826755"><ele>35.75</ele></rtept><rtept lat="49.41938" lon="2.828517"><ele>41.98</ele></rtept><rtept lat="49.418846" lon="2.829148"><ele>45.0</ele></rtept><rtept lat="49.420155" lon="2.831702"><ele>44.64</ele></rtept><rtept lat="49.42025" lon="2.8317316"><ele>45.01</ele></rtept><rtept lat="49.420826" lon="2.83202"><ele>46.3</ele></rtept><rtept lat="49.42035" lon="2.833083"><ele>45.77</ele></rtept><rtept lat="49.42077" lon="2.835066"><ele>44.0</ele></rtept><rtept lat="49.42121" lon="2.83887"><ele>42.0</ele></rtept><rtept lat="49.421097" lon="2.83892"><ele>42.0</ele></rtept><rtept lat="49.42134" lon="2.840882"><ele>41.0</ele></rtept><rtept lat="49.421535" lon="2.842413"><ele>40.06</ele></rtept><rtept lat="49.421547" lon="2.842478"><ele>40.0</ele></rtept><rtept lat="49.421906" lon="2.845472"><ele>38.06</ele></rtept><rtept lat="49.42271" lon="2.852372"><ele>42.0</ele></rtept><rtept lat="49.42283" lon="2.85243"><ele>42.0</ele></rtept><rtept lat="49.42032" lon="2.860249"><ele>43.0</ele></rtept><rtept lat="49.419323" lon="2.8633704"><ele>40.91</ele></rtept><rtept lat="49.413445" lon="2.882228"><ele>58.4</ele></rtept><rtept lat="49.41288" lon="2.883959"><ele>65.26</ele></rtept><rtept lat="49.413197" lon="2.8865564"><ele>77.99</ele></rtept><rtept lat="49.413788" lon="2.889812"><ele>94.68</ele></rtept><rtept lat="49.41356" lon="2.889573"><ele>95.04</ele></rtept><rtept lat="49.412415" lon="2.890116"><ele>126.36</ele></rtept><rtept lat="49.412365" lon="2.890896"><ele>128.81</ele></rtept><rtept lat="49.412872" lon="2.89172"><ele>119.86</ele></rtept><rtept lat="49.413296" lon="2.891835"><ele>119.96</ele></rtept><rtept lat="49.4135" lon="2.892599"><ele>127.0</ele></rtept><rtept lat="49.41304" lon="2.893189"><ele>126.75</ele></rtept><rtept lat="49.412228" lon="2.893076"><ele>127.93</ele></rtept><rtept lat="49.411846" lon="2.892639"><ele>128.96</ele></rtept><rtept lat="49.41153" lon="2.892858"><ele>127.97</ele></rtept><rtept lat="49.41188" lon="2.894431"><ele>117.69</ele></rtept><rtept lat="49.411587" lon="2.894862"><ele>115.14</ele></rtept><rtept lat="49.411583" lon="2.89632"><ele>113.15</ele></rtept><rtept lat="49.409725" lon="2.895827"><ele>113.18</ele></rtept><rtept lat="49.409027" lon="2.896354"><ele>119.84</ele></rtept><rtept lat="49.408756" lon="2.898037"><ele>124.2</ele></rtept><rtept lat="49.408295" lon="2.89853"><ele>120.86</ele></rtept><rtept lat="49.407906" lon="2.899696"><ele>108.8</ele></rtept><rtept lat="49.404892" lon="2.902573"><ele>62.14</ele></rtept><rtept lat="49.40258" lon="2.904822"><ele>63.36</ele></rtept><rtept lat="49.4036" lon="2.91585"><ele>40.0</ele></rtept><rtept lat="49.404217" lon="2.922291"><ele>58.62</ele></rtept><rtept lat="49.403812" lon="2.923387"><ele>77.87</ele></rtept><rtept lat="49.401806" lon="2.925004"><ele>120.2</ele></rtept><rtept lat="49.400364" lon="2.926388"><ele>126.61</ele></rtept><rtept lat="49.39963" lon="2.927139"><ele>123.92</ele></rtept><rtept lat="49.399643" lon="2.929383"><ele>122.57</ele></rtept><rtept lat="49.399784" lon="2.929754"><ele>121.28</ele></rtept><rtept lat="49.39729" lon="2.933215"><ele>60.66</ele></rtept><rtept lat="49.39642" lon="2.934258"><ele>54.92</ele></rtept><rtept lat="49.396095" lon="2.934025"><ele>51.15</ele></rtept><rtept lat="49.395573" lon="2.934201"><ele>47.39</ele></rtept><rtept lat="49.39562" lon="2.9343684"><ele>47.06</ele></rtept><rtept lat="49.395493" lon="2.934588"><ele>47.15</ele></rtept><rtept lat="49.39567" lon="2.937719"><ele>55.83</ele></rtept><rtept lat="49.391758" lon="2.941079"><ele>51.54</ele></rtept><rtept lat="49.390125" lon="2.943981"><ele>51.24</ele></rtept><rtept lat="49.389385" lon="2.945122"><ele>51.62</ele></rtept><rtept lat="49.389156" lon="2.945666"><ele>50.6</ele></rtept><rtept lat="49.389202" lon="2.9461"><ele>51.0</ele></rtept><rtept lat="49.38925" lon="2.946798"><ele>51.83</ele></rtept><rtept lat="49.388676" lon="2.949309"><ele>53.54</ele></rtept><rtept lat="49.388515" lon="2.949612"><ele>53.89</ele></rtept><rtept lat="49.38777" lon="2.949651"><ele>49.53</ele></rtept><rtept lat="49.38754" lon="2.9509957"><ele>51.55</ele></rtept><rtept lat="49.385437" lon="2.960502"><ele>54.22</ele></rtept><rtept lat="49.38116" lon="2.969433"><ele>63.41</ele></rtept><rtept lat="49.376682" lon="2.969863"><ele>64.0</ele></rtept><rtept lat="49.37669" lon="2.9700284"><ele>64.0</ele></rtept><rtept lat="49.376682" lon="2.969863"><ele>64.0</ele></rtept><rtept lat="49.37021" lon="2.970484"><ele>63.7</ele></rtept><rtept lat="49.37035" lon="2.97388"><ele>73.0</ele></rtept><rtept lat="49.37017" lon="2.974269"><ele>74.98</ele></rtept><rtept lat="49.36352" lon="2.974802"><ele>78.63</ele></rtept><rtept lat="49.362766" lon="2.9747396"><ele>77.34</ele></rtept><rtept lat="49.361347" lon="2.974428"><ele>74.57</ele></rtept><rtept lat="49.361095" lon="2.974553"><ele>74.2</ele></rtept><rtept lat="49.360928" lon="2.97346"><ele>69.0</ele></rtept><rtept lat="49.359776" lon="2.97527"><ele>70.97</ele></rtept><rtept lat="49.358692" lon="2.976405"><ele>73.89</ele></rtept><rtept lat="49.35762" lon="2.977178"><ele>76.15</ele></rtept><rtept lat="49.35572" lon="2.979851"><ele>74.56</ele></rtept><rtept lat="49.35442" lon="2.98079"><ele>72.21</ele></rtept><rtept lat="49.35396" lon="2.983006"><ele>77.55</ele></rtept><rtept lat="49.353558" lon="2.98348"><ele>80.45</ele></rtept><rtept lat="49.352898" lon="2.983921"><ele>84.6</ele></rtept><rtept lat="49.351902" lon="2.982461"><ele>76.15</ele></rtept><rtept lat="49.352036" lon="2.982305"><ele>75.43</ele></rtept><rtept lat="49.351227" lon="2.980749"><ele>79.64</ele></rtept><rtept lat="49.35092" lon="2.981001"><ele>79.2</ele></rtept><rtept lat="49.350346" lon="2.980836"><ele>82.07</ele></rtept><rtept lat="49.349987" lon="2.980461"><ele>83.6</ele></rtept><rtept lat="49.349483" lon="2.97922"><ele>82.08</ele></rtept><rtept lat="49.3494" lon="2.978657"><ele>81.62</ele></rtept><rtept lat="49.3494" lon="2.977851"><ele>81.27</ele></rtept><rtept lat="49.34703" lon="2.977739"><ele>81.38</ele></rtept><rtept lat="49.347023" lon="2.977821"><ele>81.67</ele></rtept><rtept lat="49.346794" lon="2.978975"><ele>87.55</ele></rtept><rtept lat="49.34677" lon="2.979033"><ele>88.05</ele></rtept><rtept lat="49.346733" lon="2.9790277"><ele>88.50009</ele></rtept><rtept lat="49.34483" lon="2.978532"><ele>104.39</ele></rtept><rtept lat="49.343616" lon="2.978048"><ele>123.97</ele></rtept><rtept lat="49.34316" lon="2.977219"><ele>122.44</ele></rtept><rtept lat="49.342026" lon="2.976414"><ele>123.91</ele></rtept><rtept lat="49.34047" lon="2.975612"><ele>127.0</ele></rtept><rtept lat="49.341576" lon="2.97326"><ele>124.9</ele></rtept><rtept lat="49.34253" lon="2.972514"><ele>127.0</ele></rtept><rtept lat="49.343052" lon="2.973205"><ele>126.46</ele></rtept><rtept lat="49.344143" lon="2.974248"><ele>124.59</ele></rtept><rtept lat="49.345238" lon="2.974553"><ele>123.78</ele></rtept><rtept lat="49.34555" lon="2.973936"><ele>124.5</ele></rtept><rtept lat="49.345608" lon="2.97285"><ele>123.09</ele></rtept><rtept lat="49.34496" lon="2.971507"><ele>116.96</ele></rtept><rtept lat="49.344234" lon="2.9698389"><ele>110.08</ele></rtept><rtept lat="49.343765" lon="2.969318"><ele>106.22</ele></rtept><rtept lat="49.343857" lon="2.96904"><ele>105.11</ele></rtept><rtept lat="49.344418" lon="2.969704"><ele>101.52</ele></rtept><rtept lat="49.344437" lon="2.969283"><ele>97.59</ele></rtept><rtept lat="49.34474" lon="2.968956"><ele>93.84</ele></rtept><rtept lat="49.345005" lon="2.968669"><ele>90.59</ele></rtept><rtept lat="49.344593" lon="2.967362"><ele>90.28</ele></rtept><rtept lat="49.344666" lon="2.965781"><ele>88.8</ele></rtept><rtept lat="49.344406" lon="2.964126"><ele>83.0</ele></rtept><rtept lat="49.344986" lon="2.962623"><ele>82.36</ele></rtept><rtept lat="49.346516" lon="2.963556"><ele>86.75</ele></rtept><rtept lat="49.347134" lon="2.962683"><ele>108.47</ele></rtept><rtept lat="49.34772" lon="2.962732"><ele>117.87</ele></rtept><rtept lat="49.348427" lon="2.962173"><ele>124.73</ele></rtept><rtept lat="49.346767" lon="2.957386"><ele>127.0</ele></rtept><rtept lat="49.348232" lon="2.956887"><ele>125.8</ele></rtept><rtept lat="49.351337" lon="2.955798"><ele>128.89</ele></rtept><rtept lat="49.352154" lon="2.955518"><ele>130.0</ele></rtept><rtept lat="49.350796" lon="2.951573"><ele>126.57</ele></rtept><rtept lat="49.35161" lon="2.949257"><ele>98.65</ele></rtept><rtept lat="49.3517" lon="2.948932"><ele>94.3</ele></rtept><rtept lat="49.350746" lon="2.948262"><ele>103.35</ele></rtept><rtept lat="49.350243" lon="2.948356"><ele>109.06</ele></rtept><rtept lat="49.34967" lon="2.947252"><ele>120.86</ele></rtept><rtept lat="49.348812" lon="2.946619"><ele>127.99</ele></rtept><rtept lat="49.34745" lon="2.94547"><ele>128.78</ele></rtept><rtept lat="49.34798" lon="2.945375"><ele>125.86</ele></rtept><rtept lat="49.348667" lon="2.9447646"><ele>115.19</ele></rtept><rtept lat="49.34919" lon="2.944169"><ele>105.6</ele></rtept><rtept lat="49.350224" lon="2.943719"><ele>124.09</ele></rtept><rtept lat="49.354305" lon="2.94226"><ele>120.64</ele></rtept><rtept lat="49.353962" lon="2.941581"><ele>122.56</ele></rtept><rtept lat="49.353657" lon="2.939885"><ele>124.37</ele></rtept><rtept lat="49.35208" lon="2.93751"><ele>123.63</ele></rtept><rtept lat="49.351383" lon="2.935325"><ele>120.94</ele></rtept><rtept lat="49.350376" lon="2.935229"><ele>128.85</ele></rtept><rtept lat="49.350758" lon="2.934509"><ele>124.69</ele></rtept><rtept lat="49.350765" lon="2.933819"><ele>123.63</ele></rtept><rtept lat="49.349327" lon="2.931415"><ele>123.16</ele></rtept><rtept lat="49.348442" lon="2.930557"><ele>123.56</ele></rtept><rtept lat="49.347626" lon="2.930333"><ele>125.04</ele></rtept><rtept lat="49.346317" lon="2.930671"><ele>128.05</ele></rtept><rtept lat="49.34591" lon="2.928936"><ele>126.56</ele></rtept><rtept lat="49.346306" lon="2.927626"><ele>127.61</ele></rtept><rtept lat="49.346287" lon="2.926313"><ele>126.9</ele></rtept><rtept lat="49.345722" lon="2.92534"><ele>124.95</ele></rtept><rtept lat="49.34408" lon="2.925257"><ele>125.42</ele></rtept><rtept lat="49.34408" lon="2.925294"><ele>125.63</ele></rtept><rtept lat="49.343952" lon="2.925353"><ele>126.14</ele></rtept><rtept lat="49.34392" lon="2.925157"><ele>126.27</ele></rtept><rtept lat="49.343903" lon="2.923086"><ele>128.64</ele></rtept><rtept lat="49.34509" lon="2.920524"><ele>131.84</ele></rtept><rtept lat="49.34639" lon="2.920695"><ele>127.23</ele></rtept><rtept lat="49.34744" lon="2.919802"><ele>125.57</ele></rtept><rtept lat="49.347477" lon="2.917861"><ele>128.52</ele></rtept><rtept lat="49.346893" lon="2.916391"><ele>130.78</ele></rtept><rtept lat="49.346737" lon="2.915615"><ele>120.48</ele></rtept><rtept lat="49.345646" lon="2.913872"><ele>95.37</ele></rtept><rtept lat="49.345802" lon="2.91187"><ele>85.37</ele></rtept><rtept lat="49.345406" lon="2.91029"><ele>81.78</ele></rtept><rtept lat="49.345055" lon="2.908552"><ele>78.37</ele></rtept><rtept lat="49.3456" lon="2.907498"><ele>75.5</ele></rtept><rtept lat="49.346237" lon="2.907104"><ele>74.0</ele></rtept><rtept lat="49.34603" lon="2.9063"><ele>73.33</ele></rtept><rtept lat="49.34593" lon="2.905903"><ele>73.0</ele></rtept><rtept lat="49.34643" lon="2.9055915"><ele>72.35238</ele></rtept><rtept lat="49.34715" lon="2.90516"><ele>71.34</ele></rtept><rtept lat="49.34722" lon="2.904442"><ele>70.11</ele></rtept><rtept lat="49.347565" lon="2.904485"><ele>70.19</ele></rtept><rtept lat="49.347717" lon="2.904131"><ele>69.84</ele></rtept><rtept lat="49.346973" lon="2.903828"><ele>69.95</ele></rtept><rtept lat="49.345776" lon="2.902357"><ele>69.15</ele></rtept><rtept lat="49.34487" lon="2.898977"><ele>67.78</ele></rtept><rtept lat="49.347404" lon="2.894701"><ele>61.0</ele></rtept><rtept lat="49.346382" lon="2.891399"><ele>62.27</ele></rtept><rtept lat="49.34513" lon="2.886713"><ele>64.0</ele></rtept><rtept lat="49.344284" lon="2.87869"><ele>61.0</ele></rtept><rtept lat="49.344276" lon="2.878677"><ele>61.0</ele></rtept><rtept lat="49.339966" lon="2.861887"><ele>61.0</ele></rtept><rtept lat="49.338974" lon="2.858621"><ele>61.0</ele></rtept><rtept lat="49.33623" lon="2.848509"><ele>59.58</ele></rtept><rtept lat="49.33535" lon="2.845375"><ele>58.85</ele></rtept><rtept lat="49.33524" lon="2.836591"><ele>61.0</ele></rtept><rtept lat="49.334312" lon="2.8366737"><ele>58.97</ele></rtept><rtept lat="49.324394" lon="2.838282"><ele>75.49</ele></rtept><rtept lat="49.32418" lon="2.836343"><ele>73.75</ele></rtept><rtept lat="49.323975" lon="2.835762"><ele>72.41</ele></rtept><rtept lat="49.323982" lon="2.83439"><ele>69.0</ele></rtept><rtept lat="49.323933" lon="2.833632"><ele>70.0</ele></rtept><rtept lat="49.322613" lon="2.827831"><ele>68.0</ele></rtept><rtept lat="49.32212" lon="2.825144"><ele>67.4</ele></rtept><rtept lat="49.32108" lon="2.821037"><ele>70.83</ele></rtept><rtept lat="49.320843" lon="2.820757"><ele>74.36</ele></rtept><rtept lat="49.320858" lon="2.82093"><ele>75.13</ele></rtept><rtept lat="49.31995" lon="2.824476"><ele>96.34</ele></rtept><rtept lat="49.32009" lon="2.826048"><ele>113.99</ele></rtept><rtept lat="49.319874" lon="2.826861"><ele>120.64</ele></rtept><rtept lat="49.317436" lon="2.828295"><ele>129.73</ele></rtept><rtept lat="49.316635" lon="2.829006"><ele>132.0</ele></rtept><rtept lat="49.316437" lon="2.828594"><ele>132.0</ele></rtept><rtept lat="49.3148" lon="2.829756"><ele>132.0</ele></rtept><rtept lat="49.313663" lon="2.828329"><ele>129.8</ele></rtept><rtept lat="49.31198" lon="2.83087"><ele>125.0</ele></rtept><rtept lat="49.310173" lon="2.8276517"><ele>121.38</ele></rtept><rtept lat="49.307938" lon="2.823811"><ele>118.11</ele></rtept><rtept lat="49.307076" lon="2.821833"><ele>117.45</ele></rtept><rtept lat="49.30609" lon="2.820637"><ele>115.62</ele></rtept><rtept lat="49.304653" lon="2.819108"><ele>101.34</ele></rtept><rtept lat="49.30378" lon="2.818528"><ele>90.37</ele></rtept><rtept lat="49.303272" lon="2.817773"><ele>81.91</ele></rtept><rtept lat="49.303207" lon="2.816795"><ele>73.5</ele></rtept><rtept lat="49.30346" lon="2.815463"><ele>65.95</ele></rtept><rtept lat="49.301804" lon="2.81355"><ele>60.11</ele></rtept><rtept lat="49.301895" lon="2.81299"><ele>59.0</ele></rtept><rtept lat="49.30221" lon="2.812562"><ele>60.41</ele></rtept><rtept lat="49.30285" lon="2.811102"><ele>62.55</ele></rtept><rtept lat="49.303185" lon="2.810735"><ele>61.3</ele></rtept><rtept lat="49.30362" lon="2.811208"><ele>65.7</ele></rtept><rtept lat="49.30382" lon="2.810806"><ele>64.9</ele></rtept><rtept lat="49.304253" lon="2.811385"><ele>70.89</ele></rtept><rtept lat="49.304302" lon="2.811272"><ele>69.9</ele></rtept><rtept lat="49.304256" lon="2.81123"><ele>68.82</ele></rtept><rtept lat="49.30424" lon="2.8112638"><ele>68.82</ele></rtept><rtept lat="49.30398" lon="2.810778"><ele>64.81</ele></rtept><rtept lat="49.304382" lon="2.809778"><ele>61.17</ele></rtept><rtept lat="49.30364" lon="2.809177"><ele>58.4</ele></rtept><rtept lat="49.303715" lon="2.808287"><ele>59.08</ele></rtept><rtept lat="49.303154" lon="2.806795"><ele>58.0</ele></rtept><rtept lat="49.30309" lon="2.806134"><ele>59.0</ele></rtept><rtept lat="49.301327" lon="2.805982"><ele>68.2</ele></rtept><rtept lat="49.301468" lon="2.8051531"><ele>63.49</ele></rtept><rtept lat="49.30152" lon="2.804789"><ele>61.65</ele></rtept><rtept lat="49.30116" lon="2.802989"><ele>56.7</ele></rtept><rtept lat="49.30127" lon="2.802963"><ele>56.26</ele></rtept><rtept lat="49.301064" lon="2.802161"><ele>52.46</ele></rtept><rtept lat="49.300655" lon="2.801697"><ele>50.57</ele></rtept><rtept lat="49.300297" lon="2.801601"><ele>49.53</ele></rtept><rtept lat="49.300285" lon="2.800673"><ele>45.12</ele></rtept><rtept lat="49.2991" lon="2.801048"><ele>43.0</ele></rtept><rtept lat="49.298206" lon="2.7991045"><ele>41.32</ele></rtept><rtept lat="49.297665" lon="2.796872"><ele>42.0</ele></rtept><rtept lat="49.297672" lon="2.79574"><ele>43.44</ele></rtept><rtept lat="49.297264" lon="2.795161"><ele>44.0</ele></rtept><rtept lat="49.29768" lon="2.794594"><ele>44.01</ele></rtept><rtept lat="49.297817" lon="2.7933877"><ele>44.26</ele></rtept><rtept lat="49.298035" lon="2.792342"><ele>44.86</ele></rtept><rtept lat="49.297886" lon="2.791489"><ele>46.16</ele></rtept><rtept lat="49.297844" lon="2.791486"><ele>46.18</ele></rtept><rtept lat="49.298325" lon="2.788837"><ele>72.91</ele></rtept><rtept lat="49.298256" lon="2.788352"><ele>79.25</ele></rtept><rtept lat="49.29775" lon="2.788302"><ele>88.63</ele></rtept><rtept lat="49.296318" lon="2.787419"><ele>102.87</ele></rtept><rtept lat="49.29663" lon="2.785499"><ele>106.88</ele></rtept><rtept lat="49.29712" lon="2.783748"><ele>107.07</ele></rtept><rtept lat="49.297714" lon="2.775016"><ele>112.96</ele></rtept><rtept lat="49.2964" lon="2.766857"><ele>119.53</ele></rtept><rtept lat="49.29774" lon="2.766317"><ele>119.0</ele></rtept><rtept lat="49.298023" lon="2.763694"><ele>117.48</ele></rtept><rtept lat="49.298023" lon="2.761341"><ele>112.2</ele></rtept><rtept lat="49.298203" lon="2.760886"><ele>109.08</ele></rtept><rtept lat="49.29862" lon="2.759207"><ele>111.85</ele></rtept><rtept lat="49.297894" lon="2.758483"><ele>112.64</ele></rtept><rtept lat="49.297752" lon="2.75803"><ele>113.29</ele></rtept><rtept lat="49.298134" lon="2.755828"><ele>115.95</ele></rtept><rtept lat="49.29821" lon="2.752652"><ele>119.96</ele></rtept><rtept lat="49.298397" lon="2.750952"><ele>120.77</ele></rtept><rtept lat="49.29826" lon="2.745971"><ele>120.0</ele></rtept><rtept lat="49.299713" lon="2.744894"><ele>117.0</ele></rtept><rtept lat="49.29912" lon="2.740615"><ele>118.93</ele></rtept><rtept lat="49.2989" lon="2.739551"><ele>118.59</ele></rtept><rtept lat="49.298416" lon="2.738326"><ele>118.0</ele></rtept><rtept lat="49.29789" lon="2.735996"><ele>117.0</ele></rtept><rtept lat="49.298134" lon="2.73547"><ele>116.8</ele></rtept><rtept lat="49.2986" lon="2.733587"><ele>115.0</ele></rtept><rtept lat="49.298626" lon="2.7297082"><ele>114.93</ele></rtept><rtept lat="49.29856" lon="2.724344"><ele>115.43</ele></rtept><rtept lat="49.299355" lon="2.720154"><ele>111.0</ele></rtept><rtept lat="49.300083" lon="2.719599"><ele>110.04</ele></rtept><rtept lat="49.300537" lon="2.71817"><ele>109.88</ele></rtept><rtept lat="49.30053" lon="2.716088"><ele>112.02</ele></rtept><rtept lat="49.301113" lon="2.71057"><ele>119.64</ele></rtept><rtept lat="49.30175" lon="2.710421"><ele>119.99</ele></rtept><rtept lat="49.301937" lon="2.709744"><ele>119.95</ele></rtept><rtept lat="49.302017" lon="2.707658"><ele>118.53</ele></rtept><rtept lat="49.302586" lon="2.704649"><ele>114.67</ele></rtept><rtept lat="49.302593" lon="2.70413"><ele>114.11</ele></rtept><rtept lat="49.30241" lon="2.702418"><ele>111.01</ele></rtept><rtept lat="49.30226" lon="2.702213"><ele>109.75</ele></rtept><rtept lat="49.30156" lon="2.702038"><ele>108.9</ele></rtept><rtept lat="49.300907" lon="2.702278"><ele>109.6</ele></rtept><rtept lat="49.300465" lon="2.701917"><ele>109.95</ele></rtept><rtept lat="49.29942" lon="2.7022681"><ele>109.95</ele></rtept><rtept lat="49.297646" lon="2.702737"><ele>109.81</ele></rtept><rtept lat="49.298042" lon="2.701725"><ele>107.82</ele></rtept><rtept lat="49.298103" lon="2.700954"><ele>105.46</ele></rtept><rtept lat="49.297924" lon="2.700478"><ele>100.96</ele></rtept><rtept lat="49.298115" lon="2.699834"><ele>96.56</ele></rtept><rtept lat="49.298874" lon="2.699379"><ele>89.93</ele></rtept><rtept lat="49.29937" lon="2.699457"><ele>86.32</ele></rtept><rtept lat="49.30005" lon="2.699272"><ele>81.88</ele></rtept><rtept lat="49.301464" lon="2.697546"><ele>64.64</ele></rtept><rtept lat="49.301903" lon="2.696152"><ele>57.32</ele></rtept><rtept lat="49.302753" lon="2.694521"><ele>53.24</ele></rtept><rtept lat="49.303036" lon="2.694208"><ele>52.9</ele></rtept><rtept lat="49.303562" lon="2.694049"><ele>54.36</ele></rtept><rtept lat="49.30307" lon="2.6937947"><ele>50.4</ele></rtept><rtept lat="49.301888" lon="2.692856"><ele>43.38</ele></rtept><rtept lat="49.30116" lon="2.691306"><ele>42.23</ele></rtept><rtept lat="49.300636" lon="2.689851"><ele>45.47</ele></rtept><rtept lat="49.298862" lon="2.690623"><ele>52.19</ele></rtept><rtept lat="49.29753" lon="2.690663"><ele>50.44</ele></rtept><rtept lat="49.29703" lon="2.690926"><ele>49.0</ele></rtept><rtept lat="49.295338" lon="2.690406"><ele>50.82</ele></rtept><rtept lat="49.290405" lon="2.688417"><ele>61.57</ele></rtept><rtept lat="49.29037" lon="2.687862"><ele>62.18</ele></rtept><rtept lat="49.290527" lon="2.687487"><ele>63.19</ele></rtept><rtept lat="49.290527" lon="2.687087"><ele>64.07</ele></rtept><rtept lat="49.28997" lon="2.683628"><ele>77.14</ele></rtept><rtept lat="49.28945" lon="2.683875"><ele>73.0</ele></rtept><rtept lat="49.28943" lon="2.684027"><ele>72.93</ele></rtept><rtept lat="49.28944" lon="2.6840658"><ele>72.93</ele></rtept><rtept lat="49.28945" lon="2.683875"><ele>73.0</ele></rtept><rtept lat="49.28997" lon="2.683628"><ele>77.14</ele></rtept><rtept lat="49.289978" lon="2.6836662"><ele>76.9</ele></rtept><rtept lat="49.288914" lon="2.679627"><ele>107.08</ele></rtept><rtept lat="49.28787" lon="2.678224"><ele>111.14</ele></rtept><rtept lat="49.28814" lon="2.676381"><ele>121.72</ele></rtept><rtept lat="49.288982" lon="2.674283"><ele>126.02</ele></rtept><rtept lat="49.289032" lon="2.672588"><ele>120.87</ele></rtept><rtept lat="49.288692" lon="2.670352"><ele>115.84</ele></rtept><rtept lat="49.288624" lon="2.661665"><ele>124.0</ele></rtept><rtept lat="49.28891" lon="2.659688"><ele>112.59</ele></rtept><rtept lat="49.288387" lon="2.658829"><ele>117.38</ele></rtept><rtept lat="49.288177" lon="2.657622"><ele>122.22</ele></rtept><rtept lat="49.288593" lon="2.656914"><ele>123.22</ele></rtept><rtept lat="49.288803" lon="2.655296"><ele>123.42</ele></rtept><rtept lat="49.28679" lon="2.647114"><ele>124.61</ele></rtept><rtept lat="49.28694" lon="2.645327"><ele>134.01</ele></rtept><rtept lat="49.28721" lon="2.643587"><ele>137.08</ele></rtept><rtept lat="49.29053" lon="2.633807"><ele>107.99</ele></rtept><rtept lat="49.29161" lon="2.629416"><ele>75.06</ele></rtept><rtept lat="49.292233" lon="2.627788"><ele>82.05</ele></rtept><rtept lat="49.292976" lon="2.627197"><ele>83.44</ele></rtept><rtept lat="49.295307" lon="2.62631"><ele>67.5</ele></rtept><rtept lat="49.2959" lon="2.626508"><ele>65.66</ele></rtept><rtept lat="49.2959" lon="2.626317"><ele>65.66</ele></rtept><rtept lat="49.297596" lon="2.626383"><ele>62.15</ele></rtept><rtept lat="49.29788" lon="2.626146"><ele>61.76</ele></rtept><rtept lat="49.2981" lon="2.625267"><ele>62.27</ele></rtept><rtept lat="49.298443" lon="2.624713"><ele>62.5</ele></rtept><rtept lat="49.29862" lon="2.624036"><ele>62.8</ele></rtept><rtept lat="49.29933" lon="2.622814"><ele>58.34</ele></rtept><rtept lat="49.299686" lon="2.621935"><ele>53.68</ele></rtept><rtept lat="49.29972" lon="2.621127"><ele>51.74</ele></rtept><rtept lat="49.29925" lon="2.6209"><ele>57.99</ele></rtept><rtept lat="49.296314" lon="2.620474"><ele>92.39</ele></rtept><rtept lat="49.29568" lon="2.619881"><ele>102.69</ele></rtept><rtept lat="49.295628" lon="2.619427"><ele>104.52</ele></rtept><rtept lat="49.29581" lon="2.618956"><ele>104.3</ele></rtept><rtept lat="49.2962" lon="2.618655"><ele>104.08</ele></rtept><rtept lat="49.29639" lon="2.618183"><ele>104.0</ele></rtept><rtept lat="49.296413" lon="2.617449"><ele>103.18</ele></rtept><rtept lat="49.296387" lon="2.617465"><ele>103.18</ele></rtept><rtept lat="49.29635" lon="2.617188"><ele>103.25</ele></rtept><rtept lat="49.295147" lon="2.615714"><ele>104.0</ele></rtept><rtept lat="49.29289" lon="2.6174333"><ele>104.84</ele></rtept><rtept lat="49.292255" lon="2.618053"><ele>104.47</ele></rtept><rtept lat="49.291508" lon="2.616582"><ele>102.45</ele></rtept><rtept lat="49.291397" lon="2.615237"><ele>99.34</ele></rtept><rtept lat="49.29029" lon="2.615223"><ele>97.34</ele></rtept><rtept lat="49.28894" lon="2.615885"><ele>102.06</ele></rtept><rtept lat="49.288517" lon="2.6163573"><ele>102.47</ele></rtept><rtept lat="49.28808" lon="2.616837"><ele>102.89</ele></rtept><rtept lat="49.287727" lon="2.61699"><ele>102.68</ele></rtept><rtept lat="49.285088" lon="2.619744"><ele>87.31</ele></rtept><rtept lat="49.28446" lon="2.621324"><ele>98.5</ele></rtept><rtept lat="49.281746" lon="2.615656"><ele>102.54</ele></rtept><rtept lat="49.280975" lon="2.614003"><ele>90.11</ele></rtept><rtept lat="49.279613" lon="2.611162"><ele>102.14</ele></rtept><rtept lat="49.277504" lon="2.606917"><ele>104.0</ele></rtept><rtept lat="49.27735" lon="2.606724"><ele>104.0</ele></rtept><rtept lat="49.27376" lon="2.607671"><ele>119.73</ele></rtept><rtept lat="49.273796" lon="2.609502"><ele>117.6</ele></rtept><rtept lat="49.2737" lon="2.610109"><ele>117.42</ele></rtept><rtept lat="49.273113" lon="2.611426"><ele>117.29</ele></rtept><rtept lat="49.272484" lon="2.6123934"><ele>120.45</ele></rtept><rtept lat="49.270363" lon="2.612939"><ele>128.31</ele></rtept><rtept lat="49.269806" lon="2.613185"><ele>128.08</ele></rtept><rtept lat="49.26954" lon="2.613039"><ele>128.2</ele></rtept><rtept lat="49.26947" lon="2.612582"><ele>128.18</ele></rtept><rtept lat="49.269173" lon="2.612154"><ele>127.97</ele></rtept><rtept lat="49.267788" lon="2.610744"><ele>124.31</ele></rtept><rtept lat="49.267372" lon="2.609288"><ele>123.0</ele></rtept><rtept lat="49.26734" lon="2.607732"><ele>125.47</ele></rtept><rtept lat="49.26742" lon="2.603673"><ele>130.89</ele></rtept><rtept lat="49.26762" lon="2.601757"><ele>134.94</ele></rtept><rtept lat="49.26752" lon="2.60154"><ele>135.75</ele></rtept><rtept lat="49.266872" lon="2.601349"><ele>139.74</ele></rtept><rtept lat="49.266575" lon="2.599468"><ele>148.69</ele></rtept><rtept lat="49.266293" lon="2.59864"><ele>151.95</ele></rtept><rtept lat="49.266033" lon="2.5987816"><ele>151.95</ele></rtept><rtept lat="49.266293" lon="2.59864"><ele>151.95</ele></rtept><rtept lat="49.266212" lon="2.598041"><ele>153.88</ele></rtept><rtept lat="49.265144" lon="2.593541"><ele>151.67</ele></rtept><rtept lat="49.264534" lon="2.593654"><ele>152.94</ele></rtept><rtept lat="49.26405" lon="2.593404"><ele>150.24</ele></rtept><rtept lat="49.263268" lon="2.593369"><ele>149.96</ele></rtept><rtept lat="49.262493" lon="2.592938"><ele>150.01</ele></rtept><rtept lat="49.260292" lon="2.59337"><ele>147.97</ele></rtept><rtept lat="49.260574" lon="2.591956"><ele>137.36</ele></rtept><rtept lat="49.26086" lon="2.58946"><ele>123.36</ele></rtept><rtept lat="49.26138" lon="2.588533"><ele>118.84</ele></rtept><rtept lat="49.26107" lon="2.587649"><ele>116.0</ele></rtept><rtept lat="49.25998" lon="2.585681"><ele>111.79</ele></rtept><rtept lat="49.25946" lon="2.583842"><ele>109.0</ele></rtept><rtept lat="49.25888" lon="2.584175"><ele>110.0</ele></rtept><rtept lat="49.258705" lon="2.583282"><ele>108.0</ele></rtept><rtept lat="49.258698" lon="2.5822558"><ele>106.36</ele></rtept><rtept lat="49.258717" lon="2.58137"><ele>105.0</ele></rtept><rtept lat="49.259094" lon="2.579109"><ele>102.03</ele></rtept><rtept lat="49.259865" lon="2.578865"><ele>100.54</ele></rtept><rtept lat="49.262833" lon="2.572839"><ele>94.4</ele></rtept><rtept lat="49.26331" lon="2.567899"><ele>95.99</ele></rtept><rtept lat="49.26441" lon="2.556806"><ele>97.0</ele></rtept><rtept lat="49.261234" lon="2.554915"><ele>92.45</ele></rtept><rtept lat="49.25617" lon="2.551952"><ele>88.07</ele></rtept><rtept lat="49.25606" lon="2.551978"><ele>88.1</ele></rtept><rtept lat="49.255997" lon="2.552371"><ele>88.68</ele></rtept><rtept lat="49.254356" lon="2.551113"><ele>87.84</ele></rtept><rtept lat="49.25416" lon="2.550772"><ele>88.44</ele></rtept><rtept lat="49.244" lon="2.5448015"><ele>112.83</ele></rtept><rtept lat="49.241734" lon="2.54342"><ele>104.56</ele></rtept><rtept lat="49.239185" lon="2.544187"><ele>101.2</ele></rtept><rtept lat="49.238094" lon="2.544394"><ele>98.75</ele></rtept><rtept lat="49.237427" lon="2.544319"><ele>97.04</ele></rtept><rtept lat="49.23111" lon="2.546268"><ele>102.83</ele></rtept><rtept lat="49.230602" lon="2.546193"><ele>101.0</ele></rtept><rtept lat="49.230453" lon="2.545996"><ele>101.0</ele></rtept><rtept lat="49.229603" lon="2.548237"><ele>93.62</ele></rtept><rtept lat="49.229565" lon="2.5484235"><ele>93.32183</ele></rtept><rtept lat="49.229424" lon="2.549204"><ele>92.33</ele></rtept><rtept lat="49.22934" lon="2.550245"><ele>89.86</ele></rtept><rtept lat="49.226437" lon="2.551393"><ele>82.09</ele></rtept><rtept lat="49.22419" lon="2.553024"><ele>82.02</ele></rtept><rtept lat="49.222454" lon="2.554975"><ele>81.48</ele></rtept><rtept lat="49.22013" lon="2.560049"><ele>77.09</ele></rtept><rtept lat="49.21974" lon="2.561751"><ele>75.0</ele></rtept><rtept lat="49.224064" lon="2.575439"><ele>90.28</ele></rtept><rtept lat="49.22007" lon="2.577715"><ele>79.71</ele></rtept><rtept lat="49.21949" lon="2.578028"><ele>79.0</ele></rtept><rtept lat="49.216785" lon="2.577497"><ele>74.09</ele></rtept><rtept lat="49.214355" lon="2.578377"><ele>68.01</ele></rtept><rtept lat="49.21168" lon="2.580131"><ele>55.78</ele></rtept><rtept lat="49.21084" lon="2.581545"><ele>61.46</ele></rtept><rtept lat="49.21082" lon="2.581513"><ele>61.05</ele></rtept><rtept lat="49.209827" lon="2.579994"><ele>68.64</ele></rtept><rtept lat="49.20948" lon="2.579486"><ele>70.09</ele></rtept><rtept lat="49.20947" lon="2.579528"><ele>70.23</ele></rtept><rtept lat="49.208748" lon="2.579019"><ele>72.11</ele></rtept><rtept lat="49.20781" lon="2.579041"><ele>74.0</ele></rtept><rtept lat="49.206562" lon="2.578323"><ele>73.0</ele></rtept><rtept lat="49.206314" lon="2.578376"><ele>72.0</ele></rtept><rtept lat="49.20578" lon="2.577824"><ele>69.71</ele></rtept><rtept lat="49.205765" lon="2.577856"><ele>69.58</ele></rtept><rtept lat="49.205765" lon="2.5778534"><ele>69.58</ele></rtept><rtept lat="49.20578" lon="2.577824"><ele>69.71</ele></rtept><rtept lat="49.20573" lon="2.577838"><ele>69.47</ele></rtept><rtept lat="49.206287" lon="2.578277"><ele>71.96</ele></rtept><rtept lat="49.206455" lon="2.578611"><ele>73.0</ele></rtept><rtept lat="49.206093" lon="2.57991"><ele>71.85</ele></rtept><rtept lat="49.206112" lon="2.579922"><ele>71.93</ele></rtept><rtept lat="49.20595" lon="2.580492"><ele>72.0</ele></rtept><rtept lat="49.20642" lon="2.580842"><ele>73.0</ele></rtept><rtept lat="49.206264" lon="2.581545"><ele>73.95</ele></rtept><rtept lat="49.206303" lon="2.582542"><ele>75.26</ele></rtept><rtept lat="49.206436" lon="2.583277"><ele>75.75</ele></rtept><rtept lat="49.205994" lon="2.584142"><ele>73.62</ele></rtept><rtept lat="49.207073" lon="2.585178"><ele>78.0</ele></rtept><rtept lat="49.207066" lon="2.5852"><ele>78.0</ele></rtept><rtept lat="49.207085" lon="2.585212"><ele>78.0</ele></rtept><rtept lat="49.207077" lon="2.585232"><ele>78.0</ele></rtept><rtept lat="49.207417" lon="2.585354"><ele>78.48</ele></rtept><rtept lat="49.2078" lon="2.585563"><ele>78.3</ele></rtept><rtept lat="49.207703" lon="2.586004"><ele>77.97</ele></rtept><rtept lat="49.207233" lon="2.586373"><ele>76.032265</ele></rtept><rtept lat="49.206985" lon="2.586707"><ele>75.14</ele></rtept><rtept lat="49.2063" lon="2.587132"><ele>73.09</ele></rtept><rtept lat="49.206017" lon="2.587034"><ele>72.71</ele></rtept><rtept lat="49.20491" lon="2.590714"><ele>65.0</ele></rtept><rtept lat="49.204414" lon="2.590758"><ele>65.0</ele></rtept><rtept lat="49.20297" lon="2.590973"><ele>63.79</ele></rtept><rtept lat="49.202847" lon="2.590591"><ele>58.04</ele></rtept><rtept lat="49.201385" lon="2.591033"><ele>53.76</ele></rtept><rtept lat="49.19849" lon="2.59327"><ele>60.17</ele></rtept><rtept lat="49.19685" lon="2.591774"><ele>62.07</ele></rtept><rtept lat="49.195015" lon="2.591111"><ele>62.41</ele></rtept><rtept lat="49.191135" lon="2.590451"><ele>61.0</ele></rtept><rtept lat="49.189777" lon="2.589956"><ele>61.0</ele></rtept><rtept lat="49.188744" lon="2.590023"><ele>62.0</ele></rtept><rtept lat="49.18935" lon="2.586811"><ele>59.01</ele></rtept><rtept lat="49.18886" lon="2.585657"><ele>59.03</ele></rtept><rtept lat="49.19153" lon="2.574479"><ele>62.86</ele></rtept><rtept lat="49.191525" lon="2.566182"><ele>63.64</ele></rtept><rtept lat="49.191788" lon="2.564308"><ele>61.0</ele></rtept><rtept lat="49.19173" lon="2.561016"><ele>58.0</ele></rtept><rtept lat="49.192093" lon="2.559899"><ele>57.0</ele></rtept><rtept lat="49.19287" lon="2.557484"><ele>57.0</ele></rtept><rtept lat="49.19111" lon="2.554021"><ele>58.96</ele></rtept><rtept lat="49.190907" lon="2.546993"><ele>59.0</ele></rtept><rtept lat="49.190323" lon="2.545086"><ele>53.27</ele></rtept><rtept lat="49.190434" lon="2.543583"><ele>48.08</ele></rtept><rtept lat="49.19018" lon="2.541501"><ele>49.86</ele></rtept><rtept lat="49.191208" lon="2.532893"><ele>56.98</ele></rtept><rtept lat="49.191147" lon="2.5317314"><ele>56.99</ele></rtept><rtept lat="49.191006" lon="2.526264"><ele>55.08</ele></rtept><rtept lat="49.19051" lon="2.519563"><ele>54.88</ele></rtept><rtept lat="49.19066" lon="2.512395"><ele>55.0</ele></rtept><rtept lat="49.190712" lon="2.512433"><ele>55.0</ele></rtept><rtept lat="49.191967" lon="2.50752"><ele>48.87</ele></rtept><rtept lat="49.192093" lon="2.506809"><ele>48.0</ele></rtept><rtept lat="49.191303" lon="2.505088"><ele>49.41</ele></rtept><rtept lat="49.19051" lon="2.503237"><ele>51.95</ele></rtept><rtept lat="49.18936" lon="2.497693"><ele>54.0</ele></rtept><rtept lat="49.189537" lon="2.494244"><ele>53.82</ele></rtept><rtept lat="49.18926" lon="2.490035"><ele>46.67</ele></rtept><rtept lat="49.189835" lon="2.488718"><ele>45.32</ele></rtept><rtept lat="49.19139" lon="2.485869"><ele>45.32</ele></rtept><rtept lat="49.19146" lon="2.485158"><ele>46.0</ele></rtept><rtept lat="49.19176" lon="2.484616"><ele>44.38</ele></rtept><rtept lat="49.1919" lon="2.4843993"><ele>45.173046</ele></rtept><rtept lat="49.19299" lon="2.482284"><ele>47.1</ele></rtept><rtept lat="49.193134" lon="2.481929"><ele>48.0</ele></rtept><rtept lat="49.193733" lon="2.480488"><ele>51.33</ele></rtept><rtept lat="49.19347" lon="2.480354"><ele>52.0</ele></rtept><rtept lat="49.193455" lon="2.480006"><ele>52.01</ele></rtept><rtept lat="49.193413" lon="2.477636"><ele>52.3</ele></rtept><rtept lat="49.193447" lon="2.477632"><ele>52.04</ele></rtept><rtept lat="49.19336" lon="2.473871"><ele>54.96</ele></rtept><rtept lat="49.192543" lon="2.472562"><ele>56.0</ele></rtept><rtept lat="49.192505" lon="2.470773"><ele>56.0</ele></rtept><rtept lat="49.192013" lon="2.468909"><ele>55.86</ele></rtept><rtept lat="49.19041" lon="2.466377"><ele>56.0</ele></rtept><rtept lat="49.1901" lon="2.46539"><ele>56.0</ele></rtept><rtept lat="49.190136" lon="2.465295"><ele>56.0</ele></rtept><rtept lat="49.189774" lon="2.46316"><ele>55.67</ele></rtept><rtept lat="49.1881" lon="2.462091"><ele>56.64</ele></rtept><rtept lat="49.187115" lon="2.4614756"><ele>56.87004</ele></rtept><rtept lat="49.18651" lon="2.461145"><ele>57.0</ele></rtept><rtept lat="49.18606" lon="2.461225"><ele>58.0</ele></rtept><rtept lat="49.18599" lon="2.462341"><ele>58.0</ele></rtept><rtept lat="49.185345" lon="2.46329"><ele>58.67</ele></rtept><rtept lat="49.183865" lon="2.469494"><ele>58.0</ele></rtept><rtept lat="49.1773" lon="2.470717"><ele>62.63</ele></rtept><rtept lat="49.168545" lon="2.471906"><ele>68.0</ele></rtept><rtept lat="49.16336" lon="2.480898"><ele>65.88</ele></rtept><rtept lat="49.1602" lon="2.4863656"><ele>59.25</ele></rtept><rtept lat="49.15934" lon="2.487882"><ele>56.87</ele></rtept><rtept lat="49.158936" lon="2.486686"><ele>45.75</ele></rtept><rtept lat="49.158905" lon="2.485477"><ele>47.56</ele></rtept><rtept lat="49.15865" lon="2.484438"><ele>46.92</ele></rtept><rtept lat="49.158424" lon="2.48397"><ele>46.56</ele></rtept><rtept lat="49.157097" lon="2.482497"><ele>45.58</ele></rtept><rtept lat="49.156902" lon="2.481942"><ele>45.04</ele></rtept><rtept lat="49.156906" lon="2.481278"><ele>45.02</ele></rtept><rtept lat="49.157185" lon="2.481172"><ele>54.44</ele></rtept><rtept lat="49.15712" lon="2.4810026"><ele>54.17</ele></rtept><rtept lat="49.156666" lon="2.479834"><ele>47.96</ele></rtept><rtept lat="49.15645" lon="2.479118"><ele>46.11</ele></rtept><rtept lat="49.156216" lon="2.479203"><ele>44.0</ele></rtept><rtept lat="49.156216" lon="2.479206"><ele>44.0</ele></rtept><rtept lat="49.155354" lon="2.479528"><ele>43.96</ele></rtept><rtept lat="49.15516" lon="2.479446"><ele>44.0</ele></rtept><rtept lat="49.155163" lon="2.479468"><ele>44.0</ele></rtept><rtept lat="49.155373" lon="2.482277"><ele>46.22</ele></rtept><rtept lat="49.155598" lon="2.482978"><ele>46.21</ele></rtept><rtept lat="49.15589" lon="2.483715"><ele>45.74</ele></rtept><rtept lat="49.157207" lon="2.485592"><ele>44.86</ele></rtept><rtept lat="49.157375" lon="2.486037"><ele>44.79</ele></rtept><rtept lat="49.156666" lon="2.485281"><ele>53.63</ele></rtept><rtept lat="49.1568" lon="2.485973"><ele>58.34</ele></rtept><rtept lat="49.156433" lon="2.486743"><ele>62.18</ele></rtept><rtept lat="49.15358" lon="2.488004"><ele>67.0</ele></rtept><rtept lat="49.15248" lon="2.487695"><ele>69.23</ele></rtept><rtept lat="49.152466" lon="2.4878168"><ele>69.23</ele></rtept><rtept lat="49.15248" lon="2.487695"><ele>69.23</ele></rtept><rtept lat="49.145374" lon="2.48564"><ele>81.04</ele></rtept><rtept lat="49.14461" lon="2.485013"><ele>82.0</ele></rtept><rtept lat="49.144344" lon="2.485273"><ele>81.84</ele></rtept><rtept lat="49.143974" lon="2.484482"><ele>83.0</ele></rtept><rtept lat="49.14358" lon="2.483949"><ele>82.88</ele></rtept><rtept lat="49.143578" lon="2.48384"><ele>82.55</ele></rtept><rtept lat="49.142956" lon="2.483653"><ele>84.8</ele></rtept><rtept lat="49.14203" lon="2.483709"><ele>87.57</ele></rtept><rtept lat="49.140427" lon="2.484007"><ele>90.79</ele></rtept><rtept lat="49.139053" lon="2.484802"><ele>88.0</ele></rtept><rtept lat="49.13904" lon="2.48745"><ele>86.2</ele></rtept><rtept lat="49.13973" lon="2.489496"><ele>84.68</ele></rtept><rtept lat="49.13957" lon="2.489996"><ele>84.93</ele></rtept><rtept lat="49.139236" lon="2.49031"><ele>86.02</ele></rtept><rtept lat="49.13915" lon="2.490097"><ele>86.92</ele></rtept><rtept lat="49.13895" lon="2.490269"><ele>87.28</ele></rtept><rtept lat="49.13891" lon="2.490149"><ele>87.67</ele></rtept></rte></gpx>