<?xml version="1.0" encoding="UTF-8" standalone="no"?><gpx xmlns="http://www.topografix.com/GPX/1/1" xmlns:xsi="http://www.w3.org/2001/XMLSchema-instance" creator="Sports Tracker" version="1.1" xsi:schemaLocation="http://www.topografix.com/GPX/1/1 http://www.topografix.com/GPX/1/1/gpx.xsd"><metadata><name>Ultra des 3 forêts 50K (version_sans_Halatte)</name><author><name>malotalibart</name></author></metadata><wpt lat="49.30934" lon="2.60291"><name>Begin</name><desc>Auto-generated</desc><type>Begin</type></wpt><wpt lat="49.29665" lon="2.615072"><type>Left_turn</type></wpt><wpt lat="49.296604" lon="2.615085"><name>sortie de secours : gare de pont saint Maxence pas trop loin</name><type>Waypoint</type></wpt><wpt lat="49.2966" lon="2.6150749"><name>sortie de secours : gare de pont saint Maxence pas trop loin</name><type>Waypoint</type></wpt><wpt lat="49.296604" lon="2.615085"><name>sortie de secours : gare de pont saint Maxence pas trop loin</name><type>Waypoint</type></wpt><wpt lat="49.292255" lon="2.618053"><type>Right_turn</type></wpt><wpt lat="49.291397" lon="2.615237"><type>Left_turn</type></wpt><wpt lat="49.288933" lon="2.61632"><name>Waypoint 1</name><desc>Auto-generated</desc><type>Waypoint</type></wpt><wpt lat="49.285088" lon="2.619744"><type>Slight_left_turn</type></wpt><wpt lat="49.28446" lon="2.621324"><type>Sharp_right_turn</type></wpt><wpt lat="49.279613" lon="2.611162"><name>Waypoint 2</name><desc>Auto-generated</desc><type>Waypoint</type></wpt><wpt lat="49.277504" lon="2.606917"><type>Left_at_fork_turn</type></wpt><wpt lat="49.27735" lon="2.606724"><type>Left_turn</type></wpt><wpt lat="49.27376" lon="2.607671"><type>Left_turn</type></wpt><wpt lat="49.273796" lon="2.609502"><type>Right_at_fork_turn</type></wpt><wpt lat="49.273514" lon="2.6101506"><name>Waypoint 3</name><desc>Auto-generated</desc><type>Waypoint</type></wpt><wpt lat="49.270363" lon="2.612939"><type>Right_at_fork_turn</type></wpt><wpt lat="49.266716" lon="2.6004796"><name>Waypoint 4</name><desc>Auto-generated</desc><type>Waypoint</type></wpt><wpt lat="49.265144" lon="2.593541"><type>Left_turn</type></wpt><wpt lat="49.264534" lon="2.593654"><type>Slight_right_turn</type></wpt><wpt lat="49.26405" lon="2.593404"><type>Right_at_fork_turn</type></wpt><wpt lat="49.261982" lon="2.587934"><type>Left_turn</type></wpt><wpt lat="49.261887" lon="2.587956"><type>Slight_left_turn</type></wpt><wpt lat="49.261456" lon="2.58848"><type>Roundabout_exit_1_turn</type></wpt><wpt lat="49.260025" lon="2.5857213"><name>Waypoint 5</name><desc>Auto-generated</desc><type>Waypoint</type></wpt><wpt lat="49.25946" lon="2.583842"><type>Left_turn</type></wpt><wpt lat="49.25888" lon="2.584175"><type>Right_turn</type></wpt><wpt lat="49.259094" lon="2.579109"><type>Right_turn</type></wpt><wpt lat="49.26419" lon="2.5589864"><name>Waypoint 6</name><desc>Auto-generated</desc><type>Waypoint</type></wpt><wpt lat="49.26441" lon="2.556806"><type>Left_turn</type></wpt><wpt lat="49.255997" lon="2.552371"><type>Right_turn</type></wpt><wpt lat="49.244854" lon="2.5453587"><name>Waypoint 7</name><desc>Auto-generated</desc><type>Waypoint</type></wpt><wpt lat="49.24353" lon="2.5445137"><name>Waypoint 8</name><desc>Auto-generated</desc><type>Waypoint</type></wpt><wpt lat="49.241734" lon="2.54342"><type>Left_at_fork_turn</type></wpt><wpt lat="49.240864" lon="2.5436783"><name>Waypoint 9</name><desc>Auto-generated</desc><type>Waypoint</type></wpt><wpt lat="49.230602" lon="2.546193"><type>Slight_right_turn</type></wpt><wpt lat="49.230453" lon="2.545996"><type>Left_turn</type></wpt><wpt lat="49.229603" lon="2.548237"><name>Waypoint 10</name><desc>Auto-generated</desc><type>Waypoint</type></wpt><wpt lat="49.229565" lon="2.5484235"><name>point d'eau : cimetière Aumont</name><type>Waypoint</type></wpt><wpt lat="49.229424" lon="2.549204"><name>Waypoint 11</name><desc>Auto-generated</desc><type>Waypoint</type></wpt><wpt lat="49.22934" lon="2.550245"><type>Roundabout_exit_1_turn</type></wpt><wpt lat="49.226437" lon="2.551393"><type>Left_at_fork_turn</type></wpt><wpt lat="49.21974" lon="2.561751"><type>Left_turn</type></wpt><wpt lat="49.224064" lon="2.575439"><type>Right_turn</type></wpt><wpt lat="49.22007" lon="2.577715"><name>Waypoint 12</name><desc>Auto-generated</desc><type>Waypoint</type></wpt><wpt lat="49.21949" lon="2.578028"><type>Right_at_fork_turn</type></wpt><wpt lat="49.21084" lon="2.581545"><type>Right_turn</type></wpt><wpt lat="49.21082" lon="2.581513"><type>Left_turn</type></wpt><wpt lat="49.209827" lon="2.579994"><name>Waypoint 13</name><desc>Auto-generated</desc><type>Waypoint</type></wpt><wpt lat="49.20948" lon="2.579486"><type>Left_turn</type></wpt><wpt lat="49.20947" lon="2.579528"><type>Right_turn</type></wpt><wpt lat="49.206562" lon="2.578323"><type>Roundabout_exit_2_turn</type></wpt><wpt lat="49.206314" lon="2.578376"><type>Right_turn</type></wpt><wpt lat="49.20547" lon="2.5775578"><name>Arènes de Senlis</name><type>Waypoint</type></wpt><wpt lat="49.20516" lon="2.575929"><name>Waypoint 14</name><desc>Auto-generated</desc><type>Waypoint</type></wpt><wpt lat="49.206455" lon="2.578611"><type>Right_turn</type></wpt><wpt lat="49.206093" lon="2.57991"><type>Left_turn</type></wpt><wpt lat="49.206112" lon="2.579922"><type>Right_turn</type></wpt><wpt lat="49.20595" lon="2.580492"><type>Left_turn</type></wpt><wpt lat="49.20642" lon="2.580842"><type>Right_turn</type></wpt><wpt lat="49.206303" lon="2.582542"><name>Waypoint 15</name><desc>Auto-generated</desc><type>Waypoint</type></wpt><wpt lat="49.205994" lon="2.584142"><type>Sharp_left_turn</type></wpt><wpt lat="49.207073" lon="2.585178"><type>Right_turn</type></wpt><wpt lat="49.207066" lon="2.5852"><type>Left_turn</type></wpt><wpt lat="49.207085" lon="2.585212"><type>Right_turn</type></wpt><wpt lat="49.207077" lon="2.585232"><type>Left_turn</type></wpt><wpt lat="49.207417" lon="2.585354"><name>Waypoint 16</name><desc>Auto-generated</desc><type>Waypoint</type></wpt><wpt lat="49.2078" lon="2.585563"><type>Right_turn</type></wpt><wpt lat="49.207703" lon="2.586004"><type>Right_at_fork_turn</type></wpt><wpt lat="49.207233" lon="2.586373"><name>Cathédrale de Senis</name><type>Waypoint</type></wpt><wpt lat="49.206985" lon="2.586707"><name>Waypoint 17</name><desc>Auto-generated</desc><type>Waypoint</type></wpt><wpt lat="49.2063" lon="2.587132"><type>Slight_right_turn</type></wpt><wpt lat="49.206017" lon="2.587034"><type>Left_turn</type></wpt><wpt lat="49.20491" lon="2.590714"><type>Right_turn</type></wpt><wpt lat="49.204414" lon="2.590758"><name>Sortie de secours : bus pour rejoindre les gares</name><type>Waypoint</type></wpt><wpt lat="49.20297" lon="2.590973"><type>Right_turn</type></wpt><wpt lat="49.202847" lon="2.590591"><type>Sharp_left_turn</type></wpt><wpt lat="49.201385" lon="2.591033"><type>Left_turn</type></wpt><wpt lat="49.19849" lon="2.59327"><type>Sharp_right_turn</type></wpt><wpt lat="49.191135" lon="2.590451"><name>Waypoint 18</name><desc>Auto-generated</desc><type>Waypoint</type></wpt><wpt lat="49.188744" lon="2.590023"><type>Sharp_right_turn</type></wpt><wpt lat="49.19153" lon="2.574479"><type>Roundabout_exit_2_turn</type></wpt><wpt lat="49.191525" lon="2.566182"><name>Waypoint 19</name><desc>Auto-generated</desc><type>Waypoint</type></wpt><wpt lat="49.19173" lon="2.561016"><type>Right_at_fork_turn</type></wpt><wpt lat="49.192093" lon="2.559899"><type>Left_at_fork_turn</type></wpt><wpt lat="49.19287" lon="2.557484"><type>Left_turn</type></wpt><wpt lat="49.190907" lon="2.546993"><type>Slight_left_turn</type></wpt><wpt lat="49.191147" lon="2.5317314"><name>Waypoint 20</name><desc>Auto-generated</desc><type>Waypoint</type></wpt><wpt lat="49.19066" lon="2.512395"><type>Sharp_right_turn</type></wpt><wpt lat="49.190712" lon="2.512433"><type>Left_turn</type></wpt><wpt lat="49.191967" lon="2.50752"><type>Roundabout_exit_1_turn</type></wpt><wpt lat="49.192093" lon="2.506809"><type>Left_at_fork_turn</type></wpt><wpt lat="49.191303" lon="2.505088"><name>Waypoint 21</name><desc>Auto-generated</desc><type>Waypoint</type></wpt><wpt lat="49.189835" lon="2.488718"><name>Waypoint 22</name><desc>Auto-generated</desc><type>Waypoint</type></wpt><wpt lat="49.19146" lon="2.485158"><type>Right_turn</type></wpt><wpt lat="49.19176" lon="2.484616"><type>Left_at_fork_turn</type></wpt><wpt lat="49.1919" lon="2.4843993"><name>Château de Chantilly</name><type>Waypoint</type></wpt><wpt lat="49.19299" lon="2.482284"><type>Right_at_fork_turn</type></wpt><wpt lat="49.193134" lon="2.481929"><type>Left_at_fork_turn</type></wpt><wpt lat="49.193733" lon="2.480488"><type>Left_turn</type></wpt><wpt lat="49.19347" lon="2.480354"><type>Right_turn</type></wpt><wpt lat="49.193455" lon="2.480006"><name>Waypoint 23</name><desc>Auto-generated</desc><type>Waypoint</type></wpt><wpt lat="49.193413" lon="2.477636"><type>Right_turn</type></wpt><wpt lat="49.193447" lon="2.477632"><type>Left_turn</type></wpt><wpt lat="49.19336" lon="2.473871"><type>Left_at_fork_turn</type></wpt><wpt lat="49.19041" lon="2.466377"><type>Right_at_fork_turn</type></wpt><wpt lat="49.1901" lon="2.46539"><type>Right_turn</type></wpt><wpt lat="49.190136" lon="2.465295"><type>Left_turn</type></wpt><wpt lat="49.189774" lon="2.46316"><type>Left_turn</type></wpt><wpt lat="49.1881" lon="2.462091"><name>Waypoint 24</name><desc>Auto-generated</desc><type>Waypoint</type></wpt><wpt lat="49.187115" lon="2.4614756"><name>sortie de secours : Gare de Chantilly</name><type>Waypoint</type></wpt><wpt lat="49.18651" lon="2.461145"><type>Left_at_fork_turn</type></wpt><wpt lat="49.18606" lon="2.461225"><type>Sharp_left_turn</type></wpt><wpt lat="49.18599" lon="2.462341"><type>Right_at_fork_turn</type></wpt><wpt lat="49.183865" lon="2.469494"><type>Right_turn</type></wpt><wpt lat="49.1773" lon="2.470717"><name>Waypoint 25</name><desc>Auto-generated</desc><type>Waypoint</type></wpt><wpt lat="49.168545" lon="2.471906"><type>Left_turn</type></wpt><wpt lat="49.16336" lon="2.480898"><name>Waypoint 26</name><desc>Auto-generated</desc><type>Waypoint</type></wpt><wpt lat="49.162605" lon="2.482204"><type>Right_turn</type></wpt><wpt lat="49.157516" lon="2.481172"><type>Left_turn</type></wpt><wpt lat="49.157238" lon="2.481859"><type>Slight_left_turn</type></wpt><wpt lat="49.157646" lon="2.4828238"><name>Waypoint 27</name><desc>Auto-generated</desc><type>Waypoint</type></wpt><wpt lat="49.15891" lon="2.484794"><name>Étangs de Comelles</name><type>Waypoint</type></wpt><wpt lat="49.159157" lon="2.487247"><type>Left_turn</type></wpt><wpt lat="49.15919" lon="2.487365"><type>Right_turn</type></wpt><wpt lat="49.15836" lon="2.4888546"><name>Waypoint 28</name><desc>Auto-generated</desc><type>Waypoint</type></wpt><wpt lat="49.158005" lon="2.4917576"><name>Waypoint 29</name><desc>Auto-generated</desc><type>Waypoint</type></wpt><wpt lat="49.158302" lon="2.495265"><type>Right_at_fork_turn</type></wpt><wpt lat="49.15818" lon="2.5005746"><name>Waypoint 30</name><desc>Auto-generated</desc><type>Waypoint</type></wpt><wpt lat="49.15807" lon="2.501344"><type>Right_turn</type></wpt><wpt lat="49.158" lon="2.501272"><type>Left_at_fork_turn</type></wpt><wpt lat="49.156837" lon="2.500241"><type>Right_turn</type></wpt><wpt lat="49.156887" lon="2.5001585"><name>Waypoint 31</name><desc>Auto-generated</desc><type>Waypoint</type></wpt><wpt lat="49.156834" lon="2.49664"><name>Waypoint 32</name><desc>Auto-generated</desc><type>Waypoint</type></wpt><wpt lat="49.15613" lon="2.490368"><name>Waypoint 33</name><desc>Auto-generated</desc><type>Waypoint</type></wpt><wpt lat="49.157375" lon="2.486037"><type>Left_turn</type></wpt><wpt lat="49.156384" lon="2.484416"><name>Waypoint 34</name><desc>Auto-generated</desc><type>Waypoint</type></wpt><wpt lat="49.155163" lon="2.479468"><name>Waypoint 35</name><desc>Auto-generated</desc><type>Waypoint</type></wpt><wpt lat="49.154785" lon="2.477802"><type>Right_turn</type></wpt><wpt lat="49.15349" lon="2.474988"><type>Right_turn</type></wpt><wpt lat="49.15114" lon="2.4709"><type>Right_turn</type></wpt><wpt lat="49.152557" lon="2.467434"><type>Left_at_fork_turn</type></wpt><wpt lat="49.152447" lon="2.467203"><type>Left_turn</type></wpt><wpt lat="49.14989" lon="2.4681225"><name>Waypoint 36</name><desc>Auto-generated</desc><type>Waypoint</type></wpt><wpt lat="49.14583" lon="2.468484"><type>Right_turn</type></wpt><wpt lat="49.145065" lon="2.46717"><type>Slight_left_turn</type></wpt><wpt lat="49.14485" lon="2.467159"><type>Left_turn</type></wpt><wpt lat="49.144264" lon="2.467402"><type>Left_turn</type></wpt><wpt lat="49.1392" lon="2.46944"><type>Roundabout_exit_3_turn</type></wpt><wpt lat="49.135387" lon="2.4713216"><name>Waypoint 37</name><desc>Auto-generated</desc><type>Waypoint</type></wpt><wpt lat="49.135113" lon="2.471769"><type>Right_turn</type></wpt><wpt lat="49.132256" lon="2.469654"><type>Left_turn</type></wpt><wpt lat="49.132053" lon="2.4698584"><name>Waypoint 38</name><desc>Auto-generated</desc><type>Waypoint</type></wpt><wpt lat="49.131695" lon="2.47209"><type>Right_at_fork_turn</type></wpt><wpt lat="49.13075" lon="2.472565"><type>Left_at_fork_turn</type></wpt><wpt lat="49.13119" lon="2.474179"><type>Right_turn</type></wpt><wpt lat="49.131187" lon="2.474233"><type>Right_at_fork_turn</type></wpt><wpt lat="49.130615" lon="2.474579"><type>Slight_left_turn</type></wpt><wpt lat="49.130985" lon="2.475342"><type>Right_turn</type></wpt><wpt lat="49.130325" lon="2.476865"><type>Right_turn</type></wpt><wpt lat="49.126606" lon="2.4737656"><name>Waypoint 39</name><desc>Auto-generated</desc><type>Waypoint</type></wpt><wpt lat="49.124966" lon="2.472191"><type>Right_turn</type></wpt><wpt lat="49.12505" lon="2.471767"><type>Slight_left_turn</type></wpt><wpt lat="49.12524" lon="2.469883"><type>Left_turn</type></wpt><wpt lat="49.125847" lon="2.464914"><type>Sharp_right_turn</type></wpt><wpt lat="49.126823" lon="2.4653435"><name>Waypoint 40</name><desc>Auto-generated</desc><type>Waypoint</type></wpt><wpt lat="49.135113" lon="2.471769"><type>Sharp_right_turn</type></wpt><wpt lat="49.13504" lon="2.471829"><type>Sharp_left_turn</type></wpt><wpt lat="49.13723" lon="2.48296"><type>Left_turn</type></wpt><wpt lat="49.138523" lon="2.484074"><type>Slight_right_turn</type></wpt><wpt lat="49.138626" lon="2.484523"><type>Left_turn</type></wpt><wpt lat="49.138966" lon="2.484585"><type>Slight_right_turn</type></wpt><wpt lat="49.13973" lon="2.489496"><type>Right_at_fork_turn</type></wpt><wpt lat="49.139236" lon="2.49031"><type>Right_turn</type></wpt><wpt lat="49.138897" lon="2.490083"><name>End</name><desc>Auto-generated</desc><type>End</type></wpt><rte><rtept lat="49.30934" lon="2.60291"><ele>32.0</ele></rtept><rtept lat="49.309204" lon="2.602945"><ele>32.0</ele></rtept><rtept lat="49.309074" lon="2.602948"><ele>31.84</ele></rtept><rtept lat="49.30862" lon="2.602959"><ele>31.28</ele></rtept><rtept lat="49.307613" lon="2.603029"><ele>30.0</ele></rtept><rtept lat="49.307037" lon="2.603055"><ele>30.72</ele></rtept><rtept lat="49.304752" lon="2.603159"><ele>31.88</ele></rtept><rtept lat="49.30411" lon="2.603203"><ele>32.05</ele></rtept><rtept lat="49.303856" lon="2.603209"><ele>32.17</ele></rtept><rtept lat="49.303375" lon="2.603239"><ele>31.02</ele></rtept><rtept lat="49.30334" lon="2.604364"><ele>34.46</ele></rtept><rtept lat="49.303272" lon="2.604375"><ele>34.59</ele></rtept><rtept lat="49.302486" lon="2.604397"><ele>35.09</ele></rtept><rtept lat="49.302475" lon="2.604335"><ele>35.29</ele></rtept><rtept lat="49.302444" lon="2.604291"><ele>35.47</ele></rtept><rtept lat="49.30242" lon="2.60428"><ele>35.4</ele></rtept><rtept lat="49.302372" lon="2.604293"><ele>35.48</ele></rtept><rtept lat="49.302338" lon="2.604347"><ele>35.75</ele></rtept><rtept lat="49.30233" lon="2.604421"><ele>35.94</ele></rtept><rtept lat="49.302353" lon="2.604489"><ele>35.96</ele></rtept><rtept lat="49.3024" lon="2.604522"><ele>35.72</ele></rtept><rtept lat="49.30245" lon="2.604508"><ele>35.44</ele></rtept><rtept lat="49.30249" lon="2.604632"><ele>34.25</ele></rtept><rtept lat="49.30252" lon="2.605505"><ele>30.57</ele></rtept><rtept lat="49.30256" lon="2.605699"><ele>30.73</ele></rtept><rtept lat="49.30265" lon="2.606057"><ele>30.69</ele></rtept><rtept lat="49.302807" lon="2.60697"><ele>31.0</ele></rtept><rtept lat="49.302883" lon="2.607261"><ele>30.97</ele></rtept><rtept lat="49.303074" lon="2.607948"><ele>30.9</ele></rtept><rtept lat="49.303143" lon="2.608178"><ele>31.0</ele></rtept><rtept lat="49.302856" lon="2.608276"><ele>31.57</ele></rtept><rtept lat="49.302036" lon="2.608616"><ele>34.54</ele></rtept><rtept lat="49.301933" lon="2.608637"><ele>34.91</ele></rtept><rtept lat="49.301846" lon="2.608672"><ele>35.0</ele></rtept><rtept lat="49.301807" lon="2.608678"><ele>35.0</ele></rtept><rtept lat="49.30179" lon="2.608592"><ele>35.04</ele></rtept><rtept lat="49.301735" lon="2.608616"><ele>35.35</ele></rtept><rtept lat="49.301113" lon="2.608603"><ele>41.65</ele></rtept><rtept lat="49.301018" lon="2.608579"><ele>42.37</ele></rtept><rtept lat="49.3006" lon="2.60825"><ele>48.55</ele></rtept><rtept lat="49.300484" lon="2.60824"><ele>50.33</ele></rtept><rtept lat="49.300217" lon="2.608095"><ele>55.24</ele></rtept><rtept lat="49.30003" lon="2.608035"><ele>58.56</ele></rtept><rtept lat="49.299885" lon="2.608132"><ele>60.48</ele></rtept><rtept lat="49.299755" lon="2.608103"><ele>64.19</ele></rtept><rtept lat="49.299488" lon="2.607834"><ele>66.93</ele></rtept><rtept lat="49.299225" lon="2.607572"><ele>67.58</ele></rtept><rtept lat="49.29892" lon="2.607433"><ele>70.61</ele></rtept><rtept lat="49.29868" lon="2.607439"><ele>70.86</ele></rtept><rtept lat="49.29821" lon="2.607722"><ele>80.97</ele></rtept><rtept lat="49.29803" lon="2.607993"><ele>84.58</ele></rtept><rtept lat="49.297955" lon="2.608272"><ele>86.88</ele></rtept><rtept lat="49.297836" lon="2.608461"><ele>88.32</ele></rtept><rtept lat="49.297615" lon="2.608579"><ele>89.13</ele></rtept><rtept lat="49.297596" lon="2.608586"><ele>89.2</ele></rtept><rtept lat="49.29794" lon="2.609809"><ele>91.14</ele></rtept><rtept lat="49.298054" lon="2.610217"><ele>92.97</ele></rtept><rtept lat="49.298164" lon="2.610625"><ele>97.57</ele></rtept><rtept lat="49.297913" lon="2.610806"><ele>101.01</ele></rtept><rtept lat="49.297867" lon="2.610852"><ele>101.18</ele></rtept><rtept lat="49.297653" lon="2.611076"><ele>102.0</ele></rtept><rtept lat="49.29765" lon="2.611505"><ele>98.19</ele></rtept><rtept lat="49.29765" lon="2.611934"><ele>97.87</ele></rtept><rtept lat="49.29752" lon="2.612931"><ele>96.43</ele></rtept><rtept lat="49.297466" lon="2.613295"><ele>95.07</ele></rtept><rtept lat="49.29736" lon="2.614024"><ele>95.02</ele></rtept><rtept lat="49.297302" lon="2.614314"><ele>96.32</ele></rtept><rtept lat="49.29729" lon="2.614367"><ele>96.81</ele></rtept><rtept lat="49.29714" lon="2.614589"><ele>95.29</ele></rtept><rtept lat="49.29699" lon="2.614812"><ele>95.93</ele></rtept><rtept lat="49.29665" lon="2.615072"><ele>95.13</ele></rtept><rtept lat="49.296444" lon="2.615131"><ele>97.73</ele></rtept><rtept lat="49.29665" lon="2.615072"><ele>95.13</ele></rtept><rtept lat="49.296604" lon="2.615085"><ele>95.58</ele></rtept><rtept lat="49.2966" lon="2.6150749"><ele>95.58</ele></rtept><rtept lat="49.296604" lon="2.615085"><ele>95.58</ele></rtept><rtept lat="49.29589" lon="2.615288"><ele>102.44</ele></rtept><rtept lat="49.295147" lon="2.615714"><ele>104.0</ele></rtept><rtept lat="49.29442" lon="2.616222"><ele>105.04</ele></rtept><rtept lat="49.29319" lon="2.617121"><ele>105.01</ele></rtept><rtept lat="49.292255" lon="2.618053"><ele>104.47</ele></rtept><rtept lat="49.291912" lon="2.617382"><ele>104.0</ele></rtept><rtept lat="49.291676" lon="2.617029"><ele>103.24</ele></rtept><rtept lat="49.291508" lon="2.616582"><ele>102.45</ele></rtept><rtept lat="49.291412" lon="2.615614"><ele>100.4</ele></rtept><rtept lat="49.291397" lon="2.615237"><ele>99.34</ele></rtept><rtept lat="49.290867" lon="2.615196"><ele>96.88</ele></rtept><rtept lat="49.290535" lon="2.615135"><ele>96.92</ele></rtept><rtept lat="49.29029" lon="2.615223"><ele>97.34</ele></rtept><rtept lat="49.28988" lon="2.615441"><ele>99.04</ele></rtept><rtept lat="49.28894" lon="2.615885"><ele>102.06</ele></rtept><rtept lat="49.2888" lon="2.616038"><ele>102.19</ele></rtept><rtept lat="49.288933" lon="2.61632"><ele>102.19</ele></rtept><rtept lat="49.2888" lon="2.616038"><ele>102.19</ele></rtept><rtept lat="49.28808" lon="2.616837"><ele>102.89</ele></rtept><rtept lat="49.287727" lon="2.61699"><ele>102.68</ele></rtept><rtept lat="49.286793" lon="2.618088"><ele>100.0</ele></rtept><rtept lat="49.285088" lon="2.619744"><ele>87.31</ele></rtept><rtept lat="49.284874" lon="2.620486"><ele>92.77</ele></rtept><rtept lat="49.28446" lon="2.621324"><ele>98.5</ele></rtept><rtept lat="49.284325" lon="2.621045"><ele>98.4</ele></rtept><rtept lat="49.28378" lon="2.620006"><ele>102.07</ele></rtept><rtept lat="49.281746" lon="2.615656"><ele>102.54</ele></rtept><rtept lat="49.280975" lon="2.614003"><ele>90.11</ele></rtept><rtept lat="49.280533" lon="2.613054"><ele>96.82</ele></rtept><rtept lat="49.279613" lon="2.611163"><ele>102.14</ele></rtept><rtept lat="49.279613" lon="2.611162"><ele>102.14</ele></rtept><rtept lat="49.279613" lon="2.611163"><ele>102.14</ele></rtept><rtept lat="49.277664" lon="2.607144"><ele>103.15</ele></rtept><rtept lat="49.277504" lon="2.606917"><ele>104.0</ele></rtept><rtept lat="49.27735" lon="2.606724"><ele>104.0</ele></rtept><rtept lat="49.27376" lon="2.607671"><ele>119.73</ele></rtept><rtept lat="49.273796" lon="2.609502"><ele>117.6</ele></rtept><rtept lat="49.2737" lon="2.610109"><ele>117.42</ele></rtept><rtept lat="49.27363" lon="2.610271"><ele>117.41</ele></rtept><rtept lat="49.273514" lon="2.6101506"><ele>117.41</ele></rtept><rtept lat="49.27363" lon="2.610271"><ele>117.41</ele></rtept><rtept lat="49.273113" lon="2.611426"><ele>117.29</ele></rtept><rtept lat="49.272682" lon="2.612168"><ele>119.3</ele></rtept><rtept lat="49.272316" lon="2.612437"><ele>121.24</ele></rtept><rtept lat="49.27159" lon="2.612668"><ele>124.16</ele></rtept><rtept lat="49.27072" lon="2.612849"><ele>127.26</ele></rtept><rtept lat="49.27052" lon="2.61288"><ele>128.21</ele></rtept><rtept lat="49.270363" lon="2.612939"><ele>128.31</ele></rtept><rtept lat="49.269806" lon="2.613185"><ele>128.08</ele></rtept><rtept lat="49.26954" lon="2.613039"><ele>128.2</ele></rtept><rtept lat="49.26947" lon="2.612582"><ele>128.18</ele></rtept><rtept lat="49.269173" lon="2.612154"><ele>127.97</ele></rtept><rtept lat="49.267788" lon="2.610744"><ele>124.31</ele></rtept><rtept lat="49.267372" lon="2.609288"><ele>123.0</ele></rtept><rtept lat="49.26734" lon="2.607732"><ele>125.47</ele></rtept><rtept lat="49.26742" lon="2.607306"><ele>126.59</ele></rtept><rtept lat="49.267414" lon="2.607027"><ele>127.22</ele></rtept><rtept lat="49.26743" lon="2.606581"><ele>128.01</ele></rtept><rtept lat="49.267384" lon="2.606107"><ele>128.69</ele></rtept><rtept lat="49.26739" lon="2.60555"><ele>129.0</ele></rtept><rtept lat="49.267437" lon="2.605059"><ele>129.15</ele></rtept><rtept lat="49.267418" lon="2.604517"><ele>129.8</ele></rtept><rtept lat="49.26742" lon="2.603673"><ele>130.89</ele></rtept><rtept lat="49.267487" lon="2.602635"><ele>132.75</ele></rtept><rtept lat="49.26762" lon="2.601757"><ele>134.94</ele></rtept><rtept lat="49.26759" lon="2.601614"><ele>135.37</ele></rtept><rtept lat="49.26752" lon="2.60154"><ele>135.75</ele></rtept><rtept lat="49.266872" lon="2.601349"><ele>139.74</ele></rtept><rtept lat="49.266758" lon="2.60088"><ele>142.09</ele></rtept><rtept lat="49.266705" lon="2.600483"><ele>144.11</ele></rtept><rtept lat="49.266716" lon="2.6004796"><ele>144.11</ele></rtept><rtept lat="49.266705" lon="2.600483"><ele>144.11</ele></rtept><rtept lat="49.266655" lon="2.599972"><ele>146.63</ele></rtept><rtept lat="49.266575" lon="2.599468"><ele>148.69</ele></rtept><rtept lat="49.266426" lon="2.599118"><ele>150.2</ele></rtept><rtept lat="49.266342" lon="2.598852"><ele>151.25</ele></rtept><rtept lat="49.26627" lon="2.598539"><ele>152.28</ele></rtept><rtept lat="49.266212" lon="2.598041"><ele>153.88</ele></rtept><rtept lat="49.266064" lon="2.597264"><ele>154.97</ele></rtept><rtept lat="49.26585" lon="2.596544"><ele>155.54</ele></rtept><rtept lat="49.26564" lon="2.59548"><ele>155.49</ele></rtept><rtept lat="49.265316" lon="2.594071"><ele>153.52</ele></rtept><rtept lat="49.26526" lon="2.593853"><ele>152.91</ele></rtept><rtept lat="49.26516" lon="2.593731"><ele>152.14</ele></rtept><rtept lat="49.265144" lon="2.593541"><ele>151.67</ele></rtept><rtept lat="49.264534" lon="2.593654"><ele>152.94</ele></rtept><rtept lat="49.26439" lon="2.593625"><ele>152.22</ele></rtept><rtept lat="49.26405" lon="2.593404"><ele>150.24</ele></rtept><rtept lat="49.26394" lon="2.593019"><ele>147.18</ele></rtept><rtept lat="49.263737" lon="2.591792"><ele>139.82</ele></rtept><rtept lat="49.26364" lon="2.591452"><ele>137.78</ele></rtept><rtept lat="49.263485" lon="2.590995"><ele>135.51</ele></rtept><rtept lat="49.26306" lon="2.58994"><ele>129.59</ele></rtept><rtept lat="49.262703" lon="2.58923"><ele>126.33</ele></rtept><rtept lat="49.262463" lon="2.588771"><ele>124.39</ele></rtept><rtept lat="49.261982" lon="2.587934"><ele>121.13</ele></rtept><rtept lat="49.261887" lon="2.587956"><ele>121.0</ele></rtept><rtept lat="49.261776" lon="2.588174"><ele>120.36</ele></rtept><rtept lat="49.261696" lon="2.588304"><ele>119.98</ele></rtept><rtept lat="49.261597" lon="2.588401"><ele>119.63</ele></rtept><rtept lat="49.261456" lon="2.58848"><ele>118.99</ele></rtept><rtept lat="49.261456" lon="2.588455"><ele>118.84</ele></rtept><rtept lat="49.26144" lon="2.588411"><ele>118.45</ele></rtept><rtept lat="49.261414" lon="2.588392"><ele>118.22</ele></rtept><rtept lat="49.26138" lon="2.588404"><ele>118.11</ele></rtept><rtept lat="49.261368" lon="2.588422"><ele>118.2</ele></rtept><rtept lat="49.26132" lon="2.588353"><ele>117.87</ele></rtept><rtept lat="49.26107" lon="2.587649"><ele>116.0</ele></rtept><rtept lat="49.260685" lon="2.586935"><ele>114.31</ele></rtept><rtept lat="49.26001" lon="2.585739"><ele>111.9</ele></rtept><rtept lat="49.260025" lon="2.5857213"><ele>111.9</ele></rtept><rtept lat="49.26001" lon="2.585739"><ele>111.9</ele></rtept><rtept lat="49.25998" lon="2.585681"><ele>111.79</ele></rtept><rtept lat="49.259853" lon="2.585344"><ele>111.26</ele></rtept><rtept lat="49.259613" lon="2.584559"><ele>110.0</ele></rtept><rtept lat="49.25946" lon="2.583842"><ele>109.0</ele></rtept><rtept lat="49.25888" lon="2.584175"><ele>110.0</ele></rtept><rtept lat="49.25873" lon="2.583496"><ele>108.54</ele></rtept><rtept lat="49.258705" lon="2.583282"><ele>108.0</ele></rtept><rtept lat="49.25868" lon="2.58291"><ele>107.1</ele></rtept><rtept lat="49.258682" lon="2.581942"><ele>106.0</ele></rtept><rtept lat="49.258705" lon="2.581506"><ele>105.07</ele></rtept><rtept lat="49.258717" lon="2.58137"><ele>105.0</ele></rtept><rtept lat="49.258793" lon="2.580853"><ele>104.2</ele></rtept><rtept lat="49.259045" lon="2.579477"><ele>103.0</ele></rtept><rtept lat="49.25908" lon="2.579262"><ele>102.6</ele></rtept><rtept lat="49.259094" lon="2.579109"><ele>102.03</ele></rtept><rtept lat="49.25943" lon="2.57899"><ele>101.34</ele></rtept><rtept lat="49.259693" lon="2.578972"><ele>100.85</ele></rtept><rtept lat="49.259865" lon="2.578865"><ele>100.54</ele></rtept><rtept lat="49.26117" lon="2.576138"><ele>97.98</ele></rtept><rtept lat="49.26213" lon="2.574279"><ele>96.0</ele></rtept><rtept lat="49.262672" lon="2.573204"><ele>94.56</ele></rtept><rtept lat="49.262714" lon="2.573105"><ele>94.5</ele></rtept><rtept lat="49.262768" lon="2.573009"><ele>94.45</ele></rtept><rtept lat="49.262833" lon="2.572839"><ele>94.4</ele></rtept><rtept lat="49.26286" lon="2.572715"><ele>94.38</ele></rtept><rtept lat="49.262886" lon="2.57251"><ele>94.35</ele></rtept><rtept lat="49.26301" lon="2.571312"><ele>94.83</ele></rtept><rtept lat="49.263123" lon="2.570004"><ele>95.88</ele></rtept><rtept lat="49.26322" lon="2.56902"><ele>95.97</ele></rtept><rtept lat="49.263363" lon="2.56745"><ele>96.0</ele></rtept><rtept lat="49.26423" lon="2.558996"><ele>97.0</ele></rtept><rtept lat="49.26419" lon="2.5589864"><ele>97.0</ele></rtept><rtept lat="49.26423" lon="2.558996"><ele>97.0</ele></rtept><rtept lat="49.26435" lon="2.557805"><ele>97.0</ele></rtept><rtept lat="49.26441" lon="2.556806"><ele>97.0</ele></rtept><rtept lat="49.259552" lon="2.553968"><ele>90.05</ele></rtept><rtept lat="49.259457" lon="2.553901"><ele>90.0</ele></rtept><rtept lat="49.25805" lon="2.553076"><ele>81.64</ele></rtept><rtept lat="49.257378" lon="2.552676"><ele>86.99</ele></rtept><rtept lat="49.25698" lon="2.552457"><ele>88.17</ele></rtept><rtept lat="49.25659" lon="2.55221"><ele>88.3</ele></rtept><rtept lat="49.25641" lon="2.552134"><ele>88.23</ele></rtept><rtept lat="49.256207" lon="2.551991"><ele>88.06</ele></rtept><rtept lat="49.25617" lon="2.551952"><ele>88.07</ele></rtept><rtept lat="49.256126" lon="2.551938"><ele>88.08</ele></rtept><rtept lat="49.25608" lon="2.551943"><ele>88.09</ele></rtept><rtept lat="49.25606" lon="2.551978"><ele>88.1</ele></rtept><rtept lat="49.256035" lon="2.552191"><ele>88.21</ele></rtept><rtept lat="49.255997" lon="2.552371"><ele>88.68</ele></rtept><rtept lat="49.255947" lon="2.552345"><ele>88.76</ele></rtept><rtept lat="49.254547" lon="2.551248"><ele>87.39</ele></rtept><rtept lat="49.254356" lon="2.551113"><ele>87.84</ele></rtept><rtept lat="49.25427" lon="2.550932"><ele>88.0</ele></rtept><rtept lat="49.25416" lon="2.550772"><ele>88.44</ele></rtept><rtept lat="49.254025" lon="2.550699"><ele>89.0</ele></rtept><rtept lat="49.252686" lon="2.549876"><ele>90.34</ele></rtept><rtept lat="49.25179" lon="2.54936"><ele>91.68</ele></rtept><rtept lat="49.25097" lon="2.548871"><ele>92.99</ele></rtept><rtept lat="49.25056" lon="2.548664"><ele>93.95</ele></rtept><rtept lat="49.24953" lon="2.548047"><ele>94.38</ele></rtept><rtept lat="49.2484" lon="2.547404"><ele>97.0</ele></rtept><rtept lat="49.247803" lon="2.54698"><ele>99.19</ele></rtept><rtept lat="49.24702" lon="2.54655"><ele>102.39</ele></rtept><rtept lat="49.245888" lon="2.545907"><ele>111.1</ele></rtept><rtept lat="49.245754" lon="2.54582"><ele>111.79</ele></rtept><rtept lat="49.244865" lon="2.545312"><ele>112.32</ele></rtept><rtept lat="49.244854" lon="2.5453587"><ele>112.32</ele></rtept><rtept lat="49.244865" lon="2.545312"><ele>112.32</ele></rtept><rtept lat="49.24395" lon="2.544788"><ele>112.85</ele></rtept><rtept lat="49.24353" lon="2.544518"><ele>110.99</ele></rtept><rtept lat="49.24353" lon="2.5445137"><ele>110.99</ele></rtept><rtept lat="49.24353" lon="2.544518"><ele>110.99</ele></rtept><rtept lat="49.243126" lon="2.544259"><ele>109.2</ele></rtept><rtept lat="49.24193" lon="2.543573"><ele>104.65</ele></rtept><rtept lat="49.241734" lon="2.54342"><ele>104.56</ele></rtept><rtept lat="49.241295" lon="2.543635"><ele>106.33</ele></rtept><rtept lat="49.240875" lon="2.543767"><ele>105.29</ele></rtept><rtept lat="49.240864" lon="2.5436783"><ele>105.29</ele></rtept><rtept lat="49.240875" lon="2.543767"><ele>105.29</ele></rtept><rtept lat="49.240208" lon="2.543931"><ele>103.24</ele></rtept><rtept lat="49.239723" lon="2.544013"><ele>102.18</ele></rtept><rtept lat="49.239185" lon="2.544187"><ele>101.2</ele></rtept><rtept lat="49.23878" lon="2.544237"><ele>100.2</ele></rtept><rtept lat="49.238094" lon="2.544394"><ele>98.75</ele></rtept><rtept lat="49.23751" lon="2.54435"><ele>97.16</ele></rtept><rtept lat="49.237427" lon="2.544319"><ele>97.04</ele></rtept><rtept lat="49.236893" lon="2.544506"><ele>97.21</ele></rtept><rtept lat="49.23646" lon="2.544602"><ele>98.08</ele></rtept><rtept lat="49.23589" lon="2.544769"><ele>98.67</ele></rtept><rtept lat="49.234066" lon="2.545342"><ele>98.05</ele></rtept><rtept lat="49.233463" lon="2.54558"><ele>99.32</ele></rtept><rtept lat="49.233078" lon="2.545663"><ele>100.08</ele></rtept><rtept lat="49.232483" lon="2.545817"><ele>101.72</ele></rtept><rtept lat="49.232143" lon="2.545935"><ele>102.87</ele></rtept><rtept lat="49.2318" lon="2.546002"><ele>103.96</ele></rtept><rtept lat="49.23162" lon="2.546065"><ele>104.3</ele></rtept><rtept lat="49.231262" lon="2.546223"><ele>103.45</ele></rtept><rtept lat="49.23111" lon="2.546268"><ele>102.83</ele></rtept><rtept lat="49.230972" lon="2.546293"><ele>102.19</ele></rtept><rtept lat="49.230816" lon="2.546278"><ele>101.63</ele></rtept><rtept lat="49.230602" lon="2.546193"><ele>101.0</ele></rtept><rtept lat="49.230453" lon="2.545996"><ele>101.0</ele></rtept><rtept lat="49.230034" lon="2.546965"><ele>97.58</ele></rtept><rtept lat="49.22983" lon="2.547507"><ele>95.29</ele></rtept><rtept lat="49.229626" lon="2.548121"><ele>93.8</ele></rtept><rtept lat="49.229603" lon="2.548236"><ele>93.62</ele></rtept><rtept lat="49.229603" lon="2.548237"><ele>93.62</ele></rtept><rtept lat="49.229565" lon="2.5484235"><ele>93.32183</ele></rtept><rtept lat="49.229473" lon="2.548856"><ele>92.63</ele></rtept><rtept lat="49.229424" lon="2.549204"><ele>92.33</ele></rtept><rtept lat="49.22937" lon="2.549576"><ele>92.0</ele></rtept><rtept lat="49.229332" lon="2.549973"><ele>90.88</ele></rtept><rtept lat="49.22934" lon="2.550245"><ele>89.86</ele></rtept><rtept lat="49.229275" lon="2.550387"><ele>89.03</ele></rtept><rtept lat="49.22925" lon="2.550418"><ele>88.91</ele></rtept><rtept lat="49.228874" lon="2.55049"><ele>87.09</ele></rtept><rtept lat="49.22788" lon="2.550721"><ele>84.11</ele></rtept><rtept lat="49.22675" lon="2.551236"><ele>83.0</ele></rtept><rtept lat="49.226437" lon="2.551393"><ele>82.09</ele></rtept><rtept lat="49.226345" lon="2.551527"><ele>82.07</ele></rtept><rtept lat="49.225807" lon="2.552014"><ele>82.49</ele></rtept><rtept lat="49.22535" lon="2.552335"><ele>82.52</ele></rtept><rtept lat="49.225014" lon="2.552486"><ele>82.18</ele></rtept><rtept lat="49.224834" lon="2.552581"><ele>82.18</ele></rtept><rtept lat="49.22419" lon="2.553024"><ele>82.02</ele></rtept><rtept lat="49.2239" lon="2.553309"><ele>82.0</ele></rtept><rtept lat="49.223103" lon="2.554189"><ele>82.0</ele></rtept><rtept lat="49.222553" lon="2.554828"><ele>81.7</ele></rtept><rtept lat="49.222454" lon="2.554975"><ele>81.48</ele></rtept><rtept lat="49.22233" lon="2.555182"><ele>81.06</ele></rtept><rtept lat="49.22215" lon="2.555557"><ele>80.9</ele></rtept><rtept lat="49.221428" lon="2.557175"><ele>79.0</ele></rtept><rtept lat="49.221355" lon="2.55732"><ele>79.0</ele></rtept><rtept lat="49.220646" lon="2.558965"><ele>77.93</ele></rtept><rtept lat="49.22013" lon="2.560049"><ele>77.09</ele></rtept><rtept lat="49.220013" lon="2.560416"><ele>76.68</ele></rtept><rtept lat="49.21996" lon="2.560874"><ele>76.14</ele></rtept><rtept lat="49.21974" lon="2.561751"><ele>75.0</ele></rtept><rtept lat="49.221073" lon="2.566075"><ele>70.22</ele></rtept><rtept lat="49.221577" lon="2.567798"><ele>77.26</ele></rtept><rtept lat="49.223053" lon="2.572508"><ele>94.24</ele></rtept><rtept lat="49.224064" lon="2.575439"><ele>90.28</ele></rtept><rtept lat="49.22381" lon="2.575622"><ele>90.23</ele></rtept><rtept lat="49.223675" lon="2.575707"><ele>88.23</ele></rtept><rtept lat="49.2229" lon="2.576141"><ele>86.17</ele></rtept><rtept lat="49.222626" lon="2.576308"><ele>85.38</ele></rtept><rtept lat="49.221786" lon="2.576717"><ele>83.51</ele></rtept><rtept lat="49.22007" lon="2.577715"><ele>79.71</ele></rtept><rtept lat="49.21972" lon="2.577918"><ele>79.09</ele></rtept><rtept lat="49.21949" lon="2.578028"><ele>79.0</ele></rtept><rtept lat="49.219208" lon="2.578078"><ele>78.34</ele></rtept><rtept lat="49.218933" lon="2.578046"><ele>77.86</ele></rtept><rtept lat="49.21813" lon="2.577767"><ele>76.39</ele></rtept><rtept lat="49.21782" lon="2.577671"><ele>75.8</ele></rtept><rtept lat="49.216785" lon="2.577497"><ele>74.09</ele></rtept><rtept lat="49.216476" lon="2.577555"><ele>73.64</ele></rtept><rtept lat="49.215343" lon="2.578135"><ele>71.39</ele></rtept><rtept lat="49.215027" lon="2.578308"><ele>70.99</ele></rtept><rtept lat="49.214867" lon="2.57837"><ele>70.69</ele></rtept><rtept lat="49.214767" lon="2.578392"><ele>70.5</ele></rtept><rtept lat="49.214455" lon="2.578413"><ele>68.92</ele></rtept><rtept lat="49.214355" lon="2.578377"><ele>68.01</ele></rtept><rtept lat="49.21417" lon="2.578475"><ele>66.73</ele></rtept><rtept lat="49.213867" lon="2.578608"><ele>63.6</ele></rtept><rtept lat="49.213448" lon="2.578976"><ele>60.0</ele></rtept><rtept lat="49.213272" lon="2.579104"><ele>59.36</ele></rtept><rtept lat="49.212982" lon="2.579339"><ele>58.0</ele></rtept><rtept lat="49.212524" lon="2.57957"><ele>57.19</ele></rtept><rtept lat="49.21207" lon="2.579838"><ele>56.8</ele></rtept><rtept lat="49.211823" lon="2.580009"><ele>56.19</ele></rtept><rtept lat="49.21168" lon="2.580131"><ele>55.78</ele></rtept><rtept lat="49.211582" lon="2.580263"><ele>56.81</ele></rtept><rtept lat="49.211304" lon="2.58087"><ele>58.08</ele></rtept><rtept lat="49.21122" lon="2.581026"><ele>58.46</ele></rtept><rtept lat="49.211117" lon="2.581181"><ele>58.8</ele></rtept><rtept lat="49.21084" lon="2.581545"><ele>61.46</ele></rtept><rtept lat="49.21082" lon="2.581513"><ele>61.05</ele></rtept><rtept lat="49.21077" lon="2.581585"><ele>61.09</ele></rtept><rtept lat="49.209927" lon="2.580187"><ele>68.0</ele></rtept><rtept lat="49.209827" lon="2.579994"><ele>68.64</ele></rtept><rtept lat="49.20965" lon="2.579668"><ele>70.11</ele></rtept><rtept lat="49.20948" lon="2.579486"><ele>70.09</ele></rtept><rtept lat="49.20947" lon="2.579528"><ele>70.23</ele></rtept><rtept lat="49.208748" lon="2.579019"><ele>72.11</ele></rtept><rtept lat="49.20781" lon="2.579041"><ele>74.0</ele></rtept><rtept lat="49.207542" lon="2.578858"><ele>74.0</ele></rtept><rtept lat="49.207054" lon="2.578549"><ele>73.82</ele></rtept><rtept lat="49.20667" lon="2.578391"><ele>73.03</ele></rtept><rtept lat="49.206562" lon="2.578323"><ele>73.0</ele></rtept><rtept lat="49.206554" lon="2.578384"><ele>73.0</ele></rtept><rtept lat="49.206524" lon="2.578425"><ele>73.0</ele></rtept><rtept lat="49.206505" lon="2.578433"><ele>73.0</ele></rtept><rtept lat="49.206467" lon="2.578424"><ele>72.82</ele></rtept><rtept lat="49.20644" lon="2.578385"><ele>72.58</ele></rtept><rtept lat="49.206432" lon="2.578358"><ele>72.5</ele></rtept><rtept lat="49.206314" lon="2.578376"><ele>72.0</ele></rtept><rtept lat="49.206303" lon="2.578335"><ele>72.0</ele></rtept><rtept lat="49.206287" lon="2.578277"><ele>71.96</ele></rtept><rtept lat="49.20578" lon="2.577824"><ele>69.71</ele></rtept><rtept lat="49.20547" lon="2.5775578"><ele>67.40427</ele></rtept><rtept lat="49.2054" lon="2.577496"><ele>66.87</ele></rtept><rtept lat="49.20529" lon="2.577377"><ele>66.44</ele></rtept><rtept lat="49.205208" lon="2.577261"><ele>66.21</ele></rtept><rtept lat="49.205166" lon="2.577128"><ele>65.94</ele></rtept><rtept lat="49.205154" lon="2.576988"><ele>65.72</ele></rtept><rtept lat="49.20516" lon="2.575929"><ele>64.46</ele></rtept><rtept lat="49.205154" lon="2.576988"><ele>65.72</ele></rtept><rtept lat="49.205166" lon="2.577128"><ele>65.94</ele></rtept><rtept lat="49.205208" lon="2.577261"><ele>66.21</ele></rtept><rtept lat="49.20529" lon="2.577377"><ele>66.44</ele></rtept><rtept lat="49.2054" lon="2.577496"><ele>66.87</ele></rtept><rtept lat="49.20578" lon="2.577824"><ele>69.71</ele></rtept><rtept lat="49.206287" lon="2.578277"><ele>71.96</ele></rtept><rtept lat="49.206303" lon="2.578335"><ele>72.0</ele></rtept><rtept lat="49.206337" lon="2.578469"><ele>72.22</ele></rtept><rtept lat="49.206367" lon="2.578485"><ele>72.42</ele></rtept><rtept lat="49.20643" lon="2.57859"><ele>73.0</ele></rtept><rtept lat="49.206455" lon="2.578611"><ele>73.0</ele></rtept><rtept lat="49.206093" lon="2.57991"><ele>71.85</ele></rtept><rtept lat="49.206112" lon="2.579922"><ele>71.93</ele></rtept><rtept lat="49.20595" lon="2.580492"><ele>72.0</ele></rtept><rtept lat="49.20642" lon="2.580842"><ele>73.0</ele></rtept><rtept lat="49.20639" lon="2.580942"><ele>73.0</ele></rtept><rtept lat="49.206264" lon="2.581545"><ele>73.95</ele></rtept><rtept lat="49.206284" lon="2.581765"><ele>74.0</ele></rtept><rtept lat="49.206276" lon="2.582308"><ele>74.16</ele></rtept><rtept lat="49.206287" lon="2.582462"><ele>74.93</ele></rtept><rtept lat="49.206303" lon="2.582542"><ele>75.26</ele></rtept><rtept lat="49.20633" lon="2.582717"><ele>76.0</ele></rtept><rtept lat="49.20632" lon="2.582933"><ele>76.0</ele></rtept><rtept lat="49.206413" lon="2.583136"><ele>75.89</ele></rtept><rtept lat="49.206436" lon="2.583277"><ele>75.75</ele></rtept><rtept lat="49.206295" lon="2.58381"><ele>74.95</ele></rtept><rtept lat="49.206207" lon="2.583934"><ele>74.49</ele></rtept><rtept lat="49.206085" lon="2.583976"><ele>74.05</ele></rtept><rtept lat="49.205994" lon="2.584142"><ele>73.62</ele></rtept><rtept lat="49.206482" lon="2.584469"><ele>75.22</ele></rtept><rtept lat="49.20682" lon="2.58473"><ele>76.99</ele></rtept><rtept lat="49.206898" lon="2.584826"><ele>77.33</ele></rtept><rtept lat="49.206947" lon="2.585032"><ele>77.8</ele></rtept><rtept lat="49.20697" lon="2.585094"><ele>77.95</ele></rtept><rtept lat="49.207073" lon="2.585178"><ele>78.0</ele></rtept><rtept lat="49.207066" lon="2.5852"><ele>78.0</ele></rtept><rtept lat="49.207085" lon="2.585212"><ele>78.0</ele></rtept><rtept lat="49.207077" lon="2.585232"><ele>78.0</ele></rtept><rtept lat="49.207165" lon="2.585301"><ele>78.09</ele></rtept><rtept lat="49.207417" lon="2.585354"><ele>78.48</ele></rtept><rtept lat="49.207493" lon="2.58537"><ele>78.6</ele></rtept><rtept lat="49.2078" lon="2.585563"><ele>78.3</ele></rtept><rtept lat="49.207737" lon="2.585882"><ele>78.0</ele></rtept><rtept lat="49.207703" lon="2.586004"><ele>77.97</ele></rtept><rtept lat="49.20758" lon="2.586078"><ele>77.43</ele></rtept><rtept lat="49.207233" lon="2.586373"><ele>76.032265</ele></rtept><rtept lat="49.207226" lon="2.58638"><ele>76.0</ele></rtept><rtept lat="49.206985" lon="2.586707"><ele>75.14</ele></rtept><rtept lat="49.206898" lon="2.586826"><ele>74.82</ele></rtept><rtept lat="49.2068" lon="2.586922"><ele>74.51</ele></rtept><rtept lat="49.206676" lon="2.586999"><ele>74.18</ele></rtept><rtept lat="49.206493" lon="2.587072"><ele>73.61</ele></rtept><rtept lat="49.2063" lon="2.587132"><ele>73.09</ele></rtept><rtept lat="49.206017" lon="2.587034"><ele>72.71</ele></rtept><rtept lat="49.205963" lon="2.587189"><ele>72.0</ele></rtept><rtept lat="49.205776" lon="2.587686"><ele>70.08</ele></rtept><rtept lat="49.205585" lon="2.588386"><ele>69.0</ele></rtept><rtept lat="49.205284" lon="2.589414"><ele>67.0</ele></rtept><rtept lat="49.20502" lon="2.590231"><ele>66.0</ele></rtept><rtept lat="49.20491" lon="2.590714"><ele>65.0</ele></rtept><rtept lat="49.204414" lon="2.590758"><ele>65.0</ele></rtept><rtept lat="49.20439" lon="2.59076"><ele>65.0</ele></rtept><rtept lat="49.20361" lon="2.590859"><ele>63.95</ele></rtept><rtept lat="49.20297" lon="2.590973"><ele>63.79</ele></rtept><rtept lat="49.202957" lon="2.590858"><ele>61.4</ele></rtept><rtept lat="49.20283" lon="2.590797"><ele>58.82</ele></rtept><rtept lat="49.202847" lon="2.590591"><ele>58.04</ele></rtept><rtept lat="49.202805" lon="2.59063"><ele>58.04</ele></rtept><rtept lat="49.202755" lon="2.590654"><ele>58.04</ele></rtept><rtept lat="49.202454" lon="2.590763"><ele>58.04</ele></rtept><rtept lat="49.202415" lon="2.590789"><ele>58.04</ele></rtept><rtept lat="49.202335" lon="2.590895"><ele>55.67</ele></rtept><rtept lat="49.202133" lon="2.590969"><ele>55.81</ele></rtept><rtept lat="49.201836" lon="2.591119"><ele>55.12</ele></rtept><rtept lat="49.20175" lon="2.591139"><ele>54.84</ele></rtept><rtept lat="49.201385" lon="2.591033"><ele>53.76</ele></rtept><rtept lat="49.20116" lon="2.591398"><ele>53.81</ele></rtept><rtept lat="49.2011" lon="2.591477"><ele>53.81</ele></rtept><rtept lat="49.20104" lon="2.591538"><ele>53.82</ele></rtept><rtept lat="49.200817" lon="2.591645"><ele>54.0</ele></rtept><rtept lat="49.199715" lon="2.592222"><ele>55.08</ele></rtept><rtept lat="49.199593" lon="2.592343"><ele>56.0</ele></rtept><rtept lat="49.199043" lon="2.592641"><ele>57.5</ele></rtept><rtept lat="49.19896" lon="2.592727"><ele>57.99</ele></rtept><rtept lat="49.198635" lon="2.593091"><ele>59.57</ele></rtept><rtept lat="49.19849" lon="2.59327"><ele>60.17</ele></rtept><rtept lat="49.198483" lon="2.5931"><ele>60.1</ele></rtept><rtept lat="49.19806" lon="2.592768"><ele>61.01</ele></rtept><rtept lat="49.197906" lon="2.592626"><ele>61.28</ele></rtept><rtept lat="49.197407" lon="2.592121"><ele>61.93</ele></rtept><rtept lat="49.197254" lon="2.591994"><ele>62.01</ele></rtept><rtept lat="49.19711" lon="2.591905"><ele>62.02</ele></rtept><rtept lat="49.19685" lon="2.591774"><ele>62.07</ele></rtept><rtept lat="49.19527" lon="2.591191"><ele>62.3</ele></rtept><rtept lat="49.195015" lon="2.591111"><ele>62.41</ele></rtept><rtept lat="49.193558" lon="2.59106"><ele>62.0</ele></rtept><rtept lat="49.192577" lon="2.590867"><ele>61.31</ele></rtept><rtept lat="49.19197" lon="2.590712"><ele>61.0</ele></rtept><rtept lat="49.19144" lon="2.590559"><ele>61.0</ele></rtept><rtept lat="49.191135" lon="2.590451"><ele>61.0</ele></rtept><rtept lat="49.19103" lon="2.590413"><ele>61.0</ele></rtept><rtept lat="49.19041" lon="2.590125"><ele>61.0</ele></rtept><rtept lat="49.189777" lon="2.589956"><ele>61.0</ele></rtept><rtept lat="49.18919" lon="2.58992"><ele>61.25</ele></rtept><rtept lat="49.188744" lon="2.590023"><ele>62.0</ele></rtept><rtept lat="49.18935" lon="2.586811"><ele>59.01</ele></rtept><rtept lat="49.18886" lon="2.585657"><ele>59.03</ele></rtept><rtept lat="49.18927" lon="2.583594"><ele>59.93</ele></rtept><rtept lat="49.18973" lon="2.582003"><ele>60.0</ele></rtept><rtept lat="49.19114" lon="2.576291"><ele>60.9</ele></rtept><rtept lat="49.191532" lon="2.574762"><ele>62.04</ele></rtept><rtept lat="49.191578" lon="2.574562"><ele>62.37</ele></rtept><rtept lat="49.19153" lon="2.574479"><ele>62.86</ele></rtept><rtept lat="49.19157" lon="2.574392"><ele>62.87</ele></rtept><rtept lat="49.191597" lon="2.574291"><ele>62.86</ele></rtept><rtept lat="49.191605" lon="2.574183"><ele>62.66</ele></rtept><rtept lat="49.191597" lon="2.574104"><ele>62.48</ele></rtept><rtept lat="49.19158" lon="2.574029"><ele>62.31</ele></rtept><rtept lat="49.191555" lon="2.573961"><ele>62.11</ele></rtept><rtept lat="49.191555" lon="2.573753"><ele>62.03</ele></rtept><rtept lat="49.191574" lon="2.573482"><ele>62.21</ele></rtept><rtept lat="49.191654" lon="2.573001"><ele>63.0</ele></rtept><rtept lat="49.191635" lon="2.572882"><ele>63.0</ele></rtept><rtept lat="49.191624" lon="2.5716"><ele>64.0</ele></rtept><rtept lat="49.191605" lon="2.570774"><ele>64.0</ele></rtept><rtept lat="49.19154" lon="2.569481"><ele>64.0</ele></rtept><rtept lat="49.191517" lon="2.567864"><ele>63.21</ele></rtept><rtept lat="49.191505" lon="2.566481"><ele>64.0</ele></rtept><rtept lat="49.191525" lon="2.566182"><ele>63.64</ele></rtept><rtept lat="49.191555" lon="2.565657"><ele>63.0</ele></rtept><rtept lat="49.19177" lon="2.564632"><ele>61.84</ele></rtept><rtept lat="49.191788" lon="2.564308"><ele>61.0</ele></rtept><rtept lat="49.19177" lon="2.561669"><ele>58.66</ele></rtept><rtept lat="49.19173" lon="2.561016"><ele>58.0</ele></rtept><rtept lat="49.192093" lon="2.559899"><ele>57.0</ele></rtept><rtept lat="49.19287" lon="2.557484"><ele>57.0</ele></rtept><rtept lat="49.19217" lon="2.555778"><ele>57.55</ele></rtept><rtept lat="49.191216" lon="2.554512"><ele>58.85</ele></rtept><rtept lat="49.19111" lon="2.554021"><ele>58.96</ele></rtept><rtept lat="49.191017" lon="2.552902"><ele>59.07</ele></rtept><rtept lat="49.191082" lon="2.551167"><ele>59.77</ele></rtept><rtept lat="49.19101" lon="2.548657"><ele>59.28</ele></rtept><rtept lat="49.190907" lon="2.546993"><ele>59.0</ele></rtept><rtept lat="49.190422" lon="2.545472"><ele>55.55</ele></rtept><rtept lat="49.190323" lon="2.545086"><ele>53.27</ele></rtept><rtept lat="49.190296" lon="2.544854"><ele>51.79</ele></rtept><rtept lat="49.190296" lon="2.544753"><ele>51.18</ele></rtept><rtept lat="49.190426" lon="2.5442"><ele>49.48</ele></rtept><rtept lat="49.190434" lon="2.543583"><ele>48.08</ele></rtept><rtept lat="49.190273" lon="2.542787"><ele>49.07</ele></rtept><rtept lat="49.19018" lon="2.541501"><ele>49.86</ele></rtept><rtept lat="49.190243" lon="2.540721"><ele>49.87</ele></rtept><rtept lat="49.19079" lon="2.536538"><ele>55.0</ele></rtept><rtept lat="49.191208" lon="2.532893"><ele>56.98</ele></rtept><rtept lat="49.191177" lon="2.531729"><ele>56.99</ele></rtept><rtept lat="49.191147" lon="2.5317314"><ele>56.99</ele></rtept><rtept lat="49.191177" lon="2.531729"><ele>56.99</ele></rtept><rtept lat="49.191147" lon="2.530532"><ele>57.0</ele></rtept><rtept lat="49.191147" lon="2.53023"><ele>56.6</ele></rtept><rtept lat="49.191048" lon="2.527098"><ele>55.96</ele></rtept><rtept lat="49.191017" lon="2.52669"><ele>55.21</ele></rtept><rtept lat="49.191006" lon="2.526264"><ele>55.08</ele></rtept><rtept lat="49.19088" lon="2.524419"><ele>54.96</ele></rtept><rtept lat="49.19077" lon="2.52309"><ele>54.64</ele></rtept><rtept lat="49.190628" lon="2.52162"><ele>54.06</ele></rtept><rtept lat="49.19053" lon="2.520165"><ele>54.62</ele></rtept><rtept lat="49.19051" lon="2.519563"><ele>54.88</ele></rtept><rtept lat="49.19054" lon="2.517034"><ele>56.0</ele></rtept><rtept lat="49.190544" lon="2.51618"><ele>56.0</ele></rtept><rtept lat="49.190567" lon="2.514476"><ele>56.0</ele></rtept><rtept lat="49.190605" lon="2.513397"><ele>55.75</ele></rtept><rtept lat="49.19066" lon="2.512395"><ele>55.0</ele></rtept><rtept lat="49.190712" lon="2.512433"><ele>55.0</ele></rtept><rtept lat="49.190945" lon="2.511569"><ele>54.11</ele></rtept><rtept lat="49.191383" lon="2.509868"><ele>53.0</ele></rtept><rtept lat="49.191566" lon="2.509127"><ele>52.0</ele></rtept><rtept lat="49.19165" lon="2.508741"><ele>51.0</ele></rtept><rtept lat="49.191967" lon="2.50752"><ele>48.87</ele></rtept><rtept lat="49.192017" lon="2.507287"><ele>48.08</ele></rtept><rtept lat="49.192074" lon="2.507224"><ele>48.0</ele></rtept><rtept lat="49.192093" lon="2.506809"><ele>48.0</ele></rtept><rtept lat="49.192013" lon="2.506653"><ele>48.0</ele></rtept><rtept lat="49.191788" lon="2.506139"><ele>48.31</ele></rtept><rtept lat="49.191303" lon="2.505088"><ele>49.41</ele></rtept><rtept lat="49.19051" lon="2.503237"><ele>51.95</ele></rtept><rtept lat="49.190014" lon="2.5008"><ele>54.0</ele></rtept><rtept lat="49.189445" lon="2.498309"><ele>54.0</ele></rtept><rtept lat="49.18936" lon="2.497693"><ele>54.0</ele></rtept><rtept lat="49.189354" lon="2.497586"><ele>54.0</ele></rtept><rtept lat="49.189365" lon="2.497072"><ele>54.0</ele></rtept><rtept lat="49.18947" lon="2.495244"><ele>54.0</ele></rtept><rtept lat="49.189537" lon="2.494244"><ele>53.82</ele></rtept><rtept lat="49.189533" lon="2.494072"><ele>53.78</ele></rtept><rtept lat="49.189514" lon="2.493846"><ele>53.65</ele></rtept><rtept lat="49.189503" lon="2.493747"><ele>53.54</ele></rtept><rtept lat="49.18942" lon="2.493476"><ele>53.0</ele></rtept><rtept lat="49.189415" lon="2.493429"><ele>53.0</ele></rtept><rtept lat="49.18944" lon="2.49322"><ele>53.0</ele></rtept><rtept lat="49.189423" lon="2.493022"><ele>53.0</ele></rtept><rtept lat="49.189342" lon="2.492317"><ele>52.71</ele></rtept><rtept lat="49.18932" lon="2.491554"><ele>51.85</ele></rtept><rtept lat="49.189285" lon="2.491011"><ele>50.87</ele></rtept><rtept lat="49.18926" lon="2.490035"><ele>46.67</ele></rtept><rtept lat="49.189575" lon="2.489357"><ele>44.32</ele></rtept><rtept lat="49.189835" lon="2.488718"><ele>45.32</ele></rtept><rtept lat="49.189877" lon="2.488619"><ele>45.47</ele></rtept><rtept lat="49.190037" lon="2.488107"><ele>47.0</ele></rtept><rtept lat="49.190414" lon="2.487328"><ele>47.92</ele></rtept><rtept lat="49.190895" lon="2.486551"><ele>47.06</ele></rtept><rtept lat="49.19133" lon="2.48598"><ele>45.87</ele></rtept><rtept lat="49.19139" lon="2.485869"><ele>45.32</ele></rtept><rtept lat="49.19145" lon="2.485666"><ele>45.21</ele></rtept><rtept lat="49.191475" lon="2.485506"><ele>45.42</ele></rtept><rtept lat="49.19148" lon="2.485331"><ele>45.71</ele></rtept><rtept lat="49.19146" lon="2.485158"><ele>46.0</ele></rtept><rtept lat="49.191586" lon="2.485071"><ele>45.6</ele></rtept><rtept lat="49.19163" lon="2.484974"><ele>45.35</ele></rtept><rtept lat="49.191715" lon="2.484681"><ele>44.82</ele></rtept><rtept lat="49.19173" lon="2.484652"><ele>44.7</ele></rtept><rtept lat="49.19176" lon="2.484616"><ele>44.38</ele></rtept><rtept lat="49.1919" lon="2.4843993"><ele>45.173046</ele></rtept><rtept lat="49.19192" lon="2.484362"><ele>45.31</ele></rtept><rtept lat="49.192" lon="2.484164"><ele>45.46</ele></rtept><rtept lat="49.192284" lon="2.483598"><ele>45.66</ele></rtept><rtept lat="49.192333" lon="2.483534"><ele>45.7</ele></rtept><rtept lat="49.192513" lon="2.48318"><ele>45.89</ele></rtept><rtept lat="49.192856" lon="2.482563"><ele>46.64</ele></rtept><rtept lat="49.1929" lon="2.48244"><ele>46.89</ele></rtept><rtept lat="49.19299" lon="2.482284"><ele>47.1</ele></rtept><rtept lat="49.193058" lon="2.482086"><ele>47.82</ele></rtept><rtept lat="49.193134" lon="2.481929"><ele>48.0</ele></rtept><rtept lat="49.19323" lon="2.481726"><ele>48.28</ele></rtept><rtept lat="49.19356" lon="2.480889"><ele>50.2</ele></rtept><rtept lat="49.193733" lon="2.480488"><ele>51.33</ele></rtept><rtept lat="49.19364" lon="2.480391"><ele>51.86</ele></rtept><rtept lat="49.19347" lon="2.480354"><ele>52.0</ele></rtept><rtept lat="49.193455" lon="2.480006"><ele>52.01</ele></rtept><rtept lat="49.193417" lon="2.479144"><ele>52.03</ele></rtept><rtept lat="49.193413" lon="2.478858"><ele>52.06</ele></rtept><rtept lat="49.193413" lon="2.477636"><ele>52.3</ele></rtept><rtept lat="49.193447" lon="2.477632"><ele>52.04</ele></rtept><rtept lat="49.19336" lon="2.473871"><ele>54.96</ele></rtept><rtept lat="49.193302" lon="2.473696"><ele>54.99</ele></rtept><rtept lat="49.19287" lon="2.473165"><ele>55.35</ele></rtept><rtept lat="49.192715" lon="2.472951"><ele>55.54</ele></rtept><rtept lat="49.19263" lon="2.472806"><ele>55.78</ele></rtept><rtept lat="49.192543" lon="2.472562"><ele>56.0</ele></rtept><rtept lat="49.192505" lon="2.470773"><ele>56.0</ele></rtept><rtept lat="49.192085" lon="2.469216"><ele>55.97</ele></rtept><rtept lat="49.192013" lon="2.468909"><ele>55.86</ele></rtept><rtept lat="49.19041" lon="2.466377"><ele>56.0</ele></rtept><rtept lat="49.190186" lon="2.465596"><ele>56.0</ele></rtept><rtept lat="49.1901" lon="2.46539"><ele>56.0</ele></rtept><rtept lat="49.190136" lon="2.465295"><ele>56.0</ele></rtept><rtept lat="49.19009" lon="2.46516"><ele>56.0</ele></rtept><rtept lat="49.190052" lon="2.464963"><ele>56.0</ele></rtept><rtept lat="49.18996" lon="2.463979"><ele>55.99</ele></rtept><rtept lat="49.189774" lon="2.46316"><ele>55.67</ele></rtept><rtept lat="49.189713" lon="2.463133"><ele>55.74</ele></rtept><rtept lat="49.189503" lon="2.462965"><ele>55.85</ele></rtept><rtept lat="49.1881" lon="2.462091"><ele>56.64</ele></rtept><rtept lat="49.187115" lon="2.4614756"><ele>56.87004</ele></rtept><rtept lat="49.186558" lon="2.461128"><ele>57.0</ele></rtept><rtept lat="49.18651" lon="2.461145"><ele>57.0</ele></rtept><rtept lat="49.18621" lon="2.461244"><ele>58.0</ele></rtept><rtept lat="49.186096" lon="2.461272"><ele>58.0</ele></rtept><rtept lat="49.18606" lon="2.461225"><ele>58.0</ele></rtept><rtept lat="49.18599" lon="2.462341"><ele>58.0</ele></rtept><rtept lat="49.185345" lon="2.46329"><ele>58.67</ele></rtept><rtept lat="49.18471" lon="2.466008"><ele>59.0</ele></rtept><rtept lat="49.183865" lon="2.469494"><ele>58.0</ele></rtept><rtept lat="49.18114" lon="2.47018"><ele>58.63</ele></rtept><rtept lat="49.1773" lon="2.470717"><ele>62.63</ele></rtept><rtept lat="49.175976" lon="2.470902"><ele>64.0</ele></rtept><rtept lat="49.17496" lon="2.471103"><ele>65.0</ele></rtept><rtept lat="49.16901" lon="2.471891"><ele>67.0</ele></rtept><rtept lat="49.168545" lon="2.471906"><ele>68.0</ele></rtept><rtept lat="49.16611" lon="2.476229"><ele>68.0</ele></rtept><rtept lat="49.1655" lon="2.477209"><ele>69.0</ele></rtept><rtept lat="49.16336" lon="2.480898"><ele>65.88</ele></rtept><rtept lat="49.162605" lon="2.482204"><ele>64.78</ele></rtept><rtept lat="49.161953" lon="2.482087"><ele>64.0</ele></rtept><rtept lat="49.15833" lon="2.48135"><ele>65.76</ele></rtept><rtept lat="49.157654" lon="2.481239"><ele>61.62</ele></rtept><rtept lat="49.157516" lon="2.481172"><ele>60.59</ele></rtept><rtept lat="49.157433" lon="2.481254"><ele>59.52</ele></rtept><rtept lat="49.157375" lon="2.481404"><ele>58.13</ele></rtept><rtept lat="49.157368" lon="2.481522"><ele>56.99</ele></rtept><rtept lat="49.157238" lon="2.481859"><ele>52.84</ele></rtept><rtept lat="49.15726" lon="2.482063"><ele>52.46</ele></rtept><rtept lat="49.157303" lon="2.482245"><ele>52.98</ele></rtept><rtept lat="49.15749" lon="2.482529"><ele>54.11</ele></rtept><rtept lat="49.157642" lon="2.482628"><ele>54.21</ele></rtept><rtept lat="49.157692" lon="2.482792"><ele>54.38</ele></rtept><rtept lat="49.157646" lon="2.4828238"><ele>54.38</ele></rtept><rtept lat="49.157692" lon="2.482792"><ele>54.38</ele></rtept><rtept lat="49.15772" lon="2.482879"><ele>54.47</ele></rtept><rtept lat="49.158367" lon="2.483609"><ele>54.29</ele></rtept><rtept lat="49.158577" lon="2.483801"><ele>54.1</ele></rtept><rtept lat="49.158672" lon="2.483962"><ele>53.95</ele></rtept><rtept lat="49.158897" lon="2.484716"><ele>53.44</ele></rtept><rtept lat="49.15891" lon="2.484794"><ele>53.472473</ele></rtept><rtept lat="49.159126" lon="2.485987"><ele>53.97</ele></rtept><rtept lat="49.15913" lon="2.486487"><ele>53.7</ele></rtept><rtept lat="49.159153" lon="2.486549"><ele>53.64</ele></rtept><rtept lat="49.159225" lon="2.486463"><ele>53.54</ele></rtept><rtept lat="49.159256" lon="2.486481"><ele>53.48</ele></rtept><rtept lat="49.15928" lon="2.486583"><ele>53.29</ele></rtept><rtept lat="49.159252" lon="2.486813"><ele>53.09</ele></rtept><rtept lat="49.159283" lon="2.487043"><ele>51.97</ele></rtept><rtept lat="49.159157" lon="2.487247"><ele>52.0</ele></rtept><rtept lat="49.15919" lon="2.487365"><ele>53.57</ele></rtept><rtept lat="49.159016" lon="2.487605"><ele>54.51</ele></rtept><rtept lat="49.15889" lon="2.48781"><ele>54.93</ele></rtept><rtept lat="49.158825" lon="2.487968"><ele>55.04</ele></rtept><rtept lat="49.15879" lon="2.488204"><ele>55.18</ele></rtept><rtept lat="49.15868" lon="2.488454"><ele>55.47</ele></rtept><rtept lat="49.158516" lon="2.488554"><ele>55.59</ele></rtept><rtept lat="49.15847" lon="2.488691"><ele>55.56</ele></rtept><rtept lat="49.15843" lon="2.488888"><ele>56.01</ele></rtept><rtept lat="49.15836" lon="2.4888546"><ele>56.01</ele></rtept><rtept lat="49.15843" lon="2.488888"><ele>56.01</ele></rtept><rtept lat="49.158367" lon="2.489051"><ele>56.45</ele></rtept><rtept lat="49.15817" lon="2.489167"><ele>55.0</ele></rtept><rtept lat="49.158047" lon="2.489178"><ele>54.78</ele></rtept><rtept lat="49.157963" lon="2.489294"><ele>55.04</ele></rtept><rtept lat="49.157875" lon="2.48965"><ele>55.26</ele></rtept><rtept lat="49.157837" lon="2.489901"><ele>55.19</ele></rtept><rtept lat="49.157837" lon="2.490127"><ele>55.37</ele></rtept><rtept lat="49.157787" lon="2.490613"><ele>56.13</ele></rtept><rtept lat="49.157833" lon="2.490857"><ele>56.25</ele></rtept><rtept lat="49.157955" lon="2.491227"><ele>56.11</ele></rtept><rtept lat="49.158016" lon="2.491508"><ele>55.92</ele></rtept><rtept lat="49.15801" lon="2.491758"><ele>55.88</ele></rtept><rtept lat="49.158005" lon="2.4917576"><ele>55.88</ele></rtept><rtept lat="49.15801" lon="2.491758"><ele>55.88</ele></rtept><rtept lat="49.158005" lon="2.491981"><ele>55.85</ele></rtept><rtept lat="49.158077" lon="2.492471"><ele>55.41</ele></rtept><rtept lat="49.158215" lon="2.492858"><ele>54.89</ele></rtept><rtept lat="49.158264" lon="2.493269"><ele>54.8</ele></rtept><rtept lat="49.158264" lon="2.493626"><ele>54.81</ele></rtept><rtept lat="49.158337" lon="2.494023"><ele>54.57</ele></rtept><rtept lat="49.15833" lon="2.494805"><ele>54.06</ele></rtept><rtept lat="49.158302" lon="2.495265"><ele>53.26</ele></rtept><rtept lat="49.158253" lon="2.495846"><ele>54.13</ele></rtept><rtept lat="49.158222" lon="2.496229"><ele>54.91</ele></rtept><rtept lat="49.158222" lon="2.496551"><ele>55.57</ele></rtept><rtept lat="49.15826" lon="2.496802"><ele>56.02</ele></rtept><rtept lat="49.158333" lon="2.497155"><ele>56.45</ele></rtept><rtept lat="49.158344" lon="2.497412"><ele>56.89</ele></rtept><rtept lat="49.158325" lon="2.497765"><ele>56.98</ele></rtept><rtept lat="49.158195" lon="2.498444"><ele>54.73</ele></rtept><rtept lat="49.158245" lon="2.498701"><ele>54.21</ele></rtept><rtept lat="49.158176" lon="2.499242"><ele>53.66</ele></rtept><rtept lat="49.158146" lon="2.499578"><ele>53.36</ele></rtept><rtept lat="49.158207" lon="2.500058"><ele>52.82</ele></rtept><rtept lat="49.158234" lon="2.500483"><ele>52.24</ele></rtept><rtept lat="49.15822" lon="2.500587"><ele>52.04</ele></rtept><rtept lat="49.15818" lon="2.5005746"><ele>52.04</ele></rtept><rtept lat="49.15822" lon="2.500587"><ele>52.04</ele></rtept><rtept lat="49.15819" lon="2.500805"><ele>51.64</ele></rtept><rtept lat="49.15819" lon="2.501062"><ele>50.83</ele></rtept><rtept lat="49.15807" lon="2.501344"><ele>48.72</ele></rtept><rtept lat="49.158" lon="2.501272"><ele>48.1</ele></rtept><rtept lat="49.156837" lon="2.500241"><ele>48.21</ele></rtept><rtept lat="49.156853" lon="2.500146"><ele>48.03</ele></rtept><rtept lat="49.156887" lon="2.5001585"><ele>48.03</ele></rtept><rtept lat="49.156853" lon="2.500146"><ele>48.03</ele></rtept><rtept lat="49.15704" lon="2.498916"><ele>45.66</ele></rtept><rtept lat="49.157093" lon="2.498311"><ele>45.58</ele></rtept><rtept lat="49.157085" lon="2.497994"><ele>45.6</ele></rtept><rtept lat="49.157047" lon="2.497448"><ele>45.66</ele></rtept><rtept lat="49.156834" lon="2.49664"><ele>45.74</ele></rtept><rtept lat="49.156773" lon="2.496412"><ele>45.77</ele></rtept><rtept lat="49.156628" lon="2.49521"><ele>46.38</ele></rtept><rtept lat="49.156612" lon="2.494913"><ele>46.23</ele></rtept><rtept lat="49.156616" lon="2.494662"><ele>46.56</ele></rtept><rtept lat="49.15663" lon="2.493873"><ele>45.58</ele></rtept><rtept lat="49.156666" lon="2.493352"><ele>45.03</ele></rtept><rtept lat="49.156666" lon="2.492915"><ele>44.68</ele></rtept><rtept lat="49.156597" lon="2.492364"><ele>44.46</ele></rtept><rtept lat="49.1564" lon="2.491673"><ele>44.56</ele></rtept><rtept lat="49.156136" lon="2.490991"><ele>44.88</ele></rtept><rtept lat="49.15613" lon="2.490368"><ele>45.25</ele></rtept><rtept lat="49.156124" lon="2.489861"><ele>45.56</ele></rtept><rtept lat="49.156208" lon="2.489162"><ele>45.76</ele></rtept><rtept lat="49.15634" lon="2.488561"><ele>45.5</ele></rtept><rtept lat="49.15704" lon="2.487293"><ele>44.45</ele></rtept><rtept lat="49.15719" lon="2.486935"><ele>44.42</ele></rtept><rtept lat="49.157375" lon="2.486037"><ele>44.79</ele></rtept><rtept lat="49.157104" lon="2.485296"><ele>44.91</ele></rtept><rtept lat="49.156464" lon="2.484529"><ele>45.58</ele></rtept><rtept lat="49.156384" lon="2.484416"><ele>45.6</ele></rtept><rtept lat="49.15589" lon="2.483715"><ele>45.74</ele></rtept><rtept lat="49.155598" lon="2.482978"><ele>46.21</ele></rtept><rtept lat="49.155373" lon="2.482277"><ele>46.22</ele></rtept><rtept lat="49.15528" lon="2.481282"><ele>45.34</ele></rtept><rtept lat="49.155228" lon="2.479682"><ele>43.95</ele></rtept><rtept lat="49.155163" lon="2.479468"><ele>44.0</ele></rtept><rtept lat="49.155163" lon="2.479467"><ele>44.0</ele></rtept><rtept lat="49.15516" lon="2.479446"><ele>44.0</ele></rtept><rtept lat="49.155117" lon="2.479302"><ele>43.96</ele></rtept><rtept lat="49.15509" lon="2.479135"><ele>43.78</ele></rtept><rtept lat="49.155025" lon="2.478707"><ele>43.04</ele></rtept><rtept lat="49.15492" lon="2.478246"><ele>43.01</ele></rtept><rtept lat="49.154785" lon="2.477802"><ele>42.91</ele></rtept><rtept lat="49.15483" lon="2.477616"><ele>42.27</ele></rtept><rtept lat="49.15484" lon="2.47743"><ele>41.99</ele></rtept><rtept lat="49.15479" lon="2.477283"><ele>41.89</ele></rtept><rtept lat="49.15465" lon="2.477042"><ele>41.8</ele></rtept><rtept lat="49.154045" lon="2.476081"><ele>41.81</ele></rtept><rtept lat="49.15349" lon="2.474988"><ele>41.68</ele></rtept><rtept lat="49.15352" lon="2.474857"><ele>41.11</ele></rtept><rtept lat="49.153507" lon="2.474769"><ele>41.08</ele></rtept><rtept lat="49.152885" lon="2.473734"><ele>40.62</ele></rtept><rtept lat="49.152573" lon="2.473257"><ele>40.77</ele></rtept><rtept lat="49.152035" lon="2.472597"><ele>40.81</ele></rtept><rtept lat="49.151535" lon="2.471607"><ele>40.82</ele></rtept><rtept lat="49.15138" lon="2.471339"><ele>40.94</ele></rtept><rtept lat="49.151245" lon="2.471164"><ele>40.92</ele></rtept><rtept lat="49.15114" lon="2.4709"><ele>40.98</ele></rtept><rtept lat="49.151478" lon="2.469985"><ele>39.95</ele></rtept><rtept lat="49.152393" lon="2.467877"><ele>40.64</ele></rtept><rtept lat="49.152542" lon="2.467519"><ele>41.2</ele></rtept><rtept lat="49.152557" lon="2.467434"><ele>41.32</ele></rtept><rtept lat="49.152534" lon="2.46734"><ele>41.14</ele></rtept><rtept lat="49.152496" lon="2.467265"><ele>41.03</ele></rtept><rtept lat="49.152447" lon="2.467203"><ele>41.0</ele></rtept><rtept lat="49.15156" lon="2.467985"><ele>39.05</ele></rtept><rtept lat="49.151382" lon="2.468016"><ele>38.0</ele></rtept><rtept lat="49.149906" lon="2.46813"><ele>38.0</ele></rtept><rtept lat="49.14989" lon="2.468132"><ele>38.0</ele></rtept><rtept lat="49.14989" lon="2.4681225"><ele>38.0</ele></rtept><rtept lat="49.14989" lon="2.468132"><ele>38.0</ele></rtept><rtept lat="49.14583" lon="2.468484"><ele>39.0</ele></rtept><rtept lat="49.145786" lon="2.467626"><ele>38.96</ele></rtept><rtept lat="49.14577" lon="2.467453"><ele>38.88</ele></rtept><rtept lat="49.14567" lon="2.467371"><ele>38.52</ele></rtept><rtept lat="49.14514" lon="2.467236"><ele>38.34</ele></rtept><rtept lat="49.145065" lon="2.46717"><ele>38.24</ele></rtept><rtept lat="49.144993" lon="2.467185"><ele>38.23</ele></rtept><rtept lat="49.14485" lon="2.467159"><ele>38.03</ele></rtept><rtept lat="49.144814" lon="2.467235"><ele>38.37</ele></rtept><rtept lat="49.14477" lon="2.467276"><ele>38.64</ele></rtept><rtept lat="49.144695" lon="2.467311"><ele>39.04</ele></rtept><rtept lat="49.144264" lon="2.467402"><ele>41.22</ele></rtept><rtept lat="49.144173" lon="2.467848"><ele>42.16</ele></rtept><rtept lat="49.144127" lon="2.467972"><ele>42.57</ele></rtept><rtept lat="49.144066" lon="2.468026"><ele>43.0</ele></rtept><rtept lat="49.14394" lon="2.468096"><ele>43.0</ele></rtept><rtept lat="49.143818" lon="2.468196"><ele>43.05</ele></rtept><rtept lat="49.143627" lon="2.468301"><ele>44.0</ele></rtept><rtept lat="49.143414" lon="2.468313"><ele>43.97</ele></rtept><rtept lat="49.143322" lon="2.468354"><ele>43.88</ele></rtept><rtept lat="49.143074" lon="2.468394"><ele>44.05</ele></rtept><rtept lat="49.142223" lon="2.468204"><ele>44.79</ele></rtept><rtept lat="49.142185" lon="2.468209"><ele>44.7</ele></rtept><rtept lat="49.142113" lon="2.468287"><ele>44.27</ele></rtept><rtept lat="49.142014" lon="2.468371"><ele>44.13</ele></rtept><rtept lat="49.141445" lon="2.468559"><ele>45.29</ele></rtept><rtept lat="49.14099" lon="2.468729"><ele>46.48</ele></rtept><rtept lat="49.139965" lon="2.46915"><ele>48.68</ele></rtept><rtept lat="49.139248" lon="2.469433"><ele>49.61</ele></rtept><rtept lat="49.1392" lon="2.46944"><ele>49.74</ele></rtept><rtept lat="49.139183" lon="2.4694"><ele>49.89</ele></rtept><rtept lat="49.13916" lon="2.46937"><ele>49.99</ele></rtept><rtept lat="49.139133" lon="2.469353"><ele>50.07</ele></rtept><rtept lat="49.139114" lon="2.46935"><ele>50.07</ele></rtept><rtept lat="49.139072" lon="2.469368"><ele>50.0</ele></rtept><rtept lat="49.13905" lon="2.469395"><ele>50.0</ele></rtept><rtept lat="49.139034" lon="2.469432"><ele>50.0</ele></rtept><rtept lat="49.139027" lon="2.469473"><ele>50.0</ele></rtept><rtept lat="49.13903" lon="2.469517"><ele>50.0</ele></rtept><rtept lat="49.13896" lon="2.46957"><ele>49.98</ele></rtept><rtept lat="49.138214" lon="2.470034"><ele>53.02</ele></rtept><rtept lat="49.137894" lon="2.470173"><ele>54.0</ele></rtept><rtept lat="49.137157" lon="2.470524"><ele>55.0</ele></rtept><rtept lat="49.136692" lon="2.470808"><ele>56.0</ele></rtept><rtept lat="49.135925" lon="2.471161"><ele>59.5</ele></rtept><rtept lat="49.13545" lon="2.471513"><ele>63.57</ele></rtept><rtept lat="49.135387" lon="2.4713216"><ele>63.57</ele></rtept><rtept lat="49.13545" lon="2.471513"><ele>63.57</ele></rtept><rtept lat="49.135113" lon="2.471769"><ele>66.97</ele></rtept><rtept lat="49.134785" lon="2.471537"><ele>66.85</ele></rtept><rtept lat="49.133415" lon="2.470512"><ele>71.93</ele></rtept><rtept lat="49.133003" lon="2.470208"><ele>74.0</ele></rtept><rtept lat="49.132256" lon="2.469654"><ele>75.0</ele></rtept><rtept lat="49.132233" lon="2.469739"><ele>75.1</ele></rtept><rtept lat="49.132126" lon="2.469946"><ele>75.8</ele></rtept><rtept lat="49.132053" lon="2.4698584"><ele>75.8</ele></rtept><rtept lat="49.132126" lon="2.469946"><ele>75.8</ele></rtept><rtept lat="49.132046" lon="2.470107"><ele>76.34</ele></rtept><rtept lat="49.13192" lon="2.470599"><ele>76.77</ele></rtept><rtept lat="49.1319" lon="2.470783"><ele>76.96</ele></rtept><rtept lat="49.13188" lon="2.471398"><ele>77.25</ele></rtept><rtept lat="49.13186" lon="2.471527"><ele>77.23</ele></rtept><rtept lat="49.131695" lon="2.47209"><ele>77.78</ele></rtept><rtept lat="49.131653" lon="2.47213"><ele>77.62</ele></rtept><rtept lat="49.13147" lon="2.472206"><ele>77.38</ele></rtept><rtept lat="49.131252" lon="2.472244"><ele>77.16</ele></rtept><rtept lat="49.1311" lon="2.472223"><ele>77.15</ele></rtept><rtept lat="49.131035" lon="2.472236"><ele>77.1</ele></rtept><rtept lat="49.130875" lon="2.472366"><ele>77.29</ele></rtept><rtept lat="49.13075" lon="2.472565"><ele>77.9</ele></rtept><rtept lat="49.130722" lon="2.472913"><ele>81.29</ele></rtept><rtept lat="49.130745" lon="2.473071"><ele>83.22</ele></rtept><rtept lat="49.13074" lon="2.47318"><ele>84.45</ele></rtept><rtept lat="49.130714" lon="2.47324"><ele>85.42</ele></rtept><rtept lat="49.1306" lon="2.473344"><ele>88.08</ele></rtept><rtept lat="49.13056" lon="2.473386"><ele>88.94</ele></rtept><rtept lat="49.130535" lon="2.473442"><ele>89.82</ele></rtept><rtept lat="49.130535" lon="2.473526"><ele>90.89</ele></rtept><rtept lat="49.130543" lon="2.473581"><ele>91.59</ele></rtept><rtept lat="49.13071" lon="2.473852"><ele>96.29</ele></rtept><rtept lat="49.130726" lon="2.473897"><ele>97.08</ele></rtept><rtept lat="49.130753" lon="2.473983"><ele>98.62</ele></rtept><rtept lat="49.13087" lon="2.474109"><ele>100.44</ele></rtept><rtept lat="49.13106" lon="2.474123"><ele>102.41</ele></rtept><rtept lat="49.13118" lon="2.474149"><ele>103.81</ele></rtept><rtept lat="49.13119" lon="2.474179"><ele>104.42</ele></rtept><rtept lat="49.131187" lon="2.474233"><ele>105.62</ele></rtept><rtept lat="49.13112" lon="2.47431"><ele>106.48</ele></rtept><rtept lat="49.131035" lon="2.474339"><ele>107.23</ele></rtept><rtept lat="49.130962" lon="2.474397"><ele>108.15</ele></rtept><rtept lat="49.130825" lon="2.474475"><ele>109.86</ele></rtept><rtept lat="49.130737" lon="2.474489"><ele>110.96</ele></rtept><rtept lat="49.130615" lon="2.474579"><ele>113.62</ele></rtept><rtept lat="49.130608" lon="2.474608"><ele>114.17</ele></rtept><rtept lat="49.13063" lon="2.474737"><ele>116.02</ele></rtept><rtept lat="49.13072" lon="2.474896"><ele>118.02</ele></rtept><rtept lat="49.13081" lon="2.475149"><ele>120.44</ele></rtept><rtept lat="49.130985" lon="2.475342"><ele>122.45</ele></rtept><rtept lat="49.13087" lon="2.475728"><ele>123.47</ele></rtept><rtept lat="49.130802" lon="2.475876"><ele>123.88</ele></rtept><rtept lat="49.130653" lon="2.47629"><ele>124.54</ele></rtept><rtept lat="49.13057" lon="2.476635"><ele>124.99</ele></rtept><rtept lat="49.130325" lon="2.476865"><ele>125.0</ele></rtept><rtept lat="49.12845" lon="2.475239"><ele>125.0</ele></rtept><rtept lat="49.126644" lon="2.473665"><ele>120.89</ele></rtept><rtept lat="49.126606" lon="2.4737656"><ele>120.89</ele></rtept><rtept lat="49.126644" lon="2.473665"><ele>120.89</ele></rtept><rtept lat="49.124966" lon="2.472191"><ele>119.43</ele></rtept><rtept lat="49.12505" lon="2.471767"><ele>116.97</ele></rtept><rtept lat="49.12483" lon="2.470996"><ele>109.99</ele></rtept><rtept lat="49.124744" lon="2.470075"><ele>100.31</ele></rtept><rtept lat="49.124763" lon="2.469995"><ele>99.34</ele></rtept><rtept lat="49.124805" lon="2.469927"><ele>98.31</ele></rtept><rtept lat="49.12487" lon="2.46991"><ele>97.09</ele></rtept><rtept lat="49.124985" lon="2.469909"><ele>94.91</ele></rtept><rtept lat="49.125114" lon="2.469933"><ele>92.6</ele></rtept><rtept lat="49.12524" lon="2.469883"><ele>89.88</ele></rtept><rtept lat="49.12538" lon="2.468918"><ele>79.65</ele></rtept><rtept lat="49.12552" lon="2.467479"><ele>65.06</ele></rtept><rtept lat="49.125847" lon="2.464914"><ele>58.0</ele></rtept><rtept lat="49.126755" lon="2.46557"><ele>58.36</ele></rtept><rtept lat="49.126823" lon="2.4653435"><ele>58.36</ele></rtept><rtept lat="49.126755" lon="2.46557"><ele>58.36</ele></rtept><rtept lat="49.12771" lon="2.466259"><ele>58.75</ele></rtept><rtept lat="49.12895" lon="2.467207"><ele>61.08</ele></rtept><rtept lat="49.130104" lon="2.46805"><ele>65.79</ele></rtept><rtept lat="49.132256" lon="2.469654"><ele>75.0</ele></rtept><rtept lat="49.134785" lon="2.471537"><ele>66.85</ele></rtept><rtept lat="49.135113" lon="2.471769"><ele>66.97</ele></rtept><rtept lat="49.13504" lon="2.471829"><ele>67.67</ele></rtept><rtept lat="49.135433" lon="2.472359"><ele>66.73</ele></rtept><rtept lat="49.135723" lon="2.472802"><ele>65.45</ele></rtept><rtept lat="49.1364" lon="2.475229"><ele>62.36</ele></rtept><rtept lat="49.136486" lon="2.475761"><ele>63.69</ele></rtept><rtept lat="49.136574" lon="2.476357"><ele>64.65</ele></rtept><rtept lat="49.136703" lon="2.477157"><ele>63.95</ele></rtept><rtept lat="49.136753" lon="2.477347"><ele>63.29</ele></rtept><rtept lat="49.13697" lon="2.477854"><ele>61.19</ele></rtept><rtept lat="49.137047" lon="2.47816"><ele>60.0</ele></rtept><rtept lat="49.137177" lon="2.478602"><ele>58.65</ele></rtept><rtept lat="49.137245" lon="2.478898"><ele>58.42</ele></rtept><rtept lat="49.13726" lon="2.479039"><ele>59.11</ele></rtept><rtept lat="49.13727" lon="2.479463"><ele>60.62</ele></rtept><rtept lat="49.137306" lon="2.480075"><ele>62.21</ele></rtept><rtept lat="49.13734" lon="2.480486"><ele>62.66</ele></rtept><rtept lat="49.137352" lon="2.480886"><ele>62.61</ele></rtept><rtept lat="49.137352" lon="2.481304"><ele>63.38</ele></rtept><rtept lat="49.137264" lon="2.48233"><ele>66.96</ele></rtept><rtept lat="49.137253" lon="2.482808"><ele>70.21</ele></rtept><rtept lat="49.137245" lon="2.482905"><ele>71.2</ele></rtept><rtept lat="49.13723" lon="2.48296"><ele>71.98</ele></rtept><rtept lat="49.13731" lon="2.483167"><ele>73.55</ele></rtept><rtept lat="49.137383" lon="2.483296"><ele>74.46</ele></rtept><rtept lat="49.13747" lon="2.483388"><ele>75.33</ele></rtept><rtept lat="49.13761" lon="2.48349"><ele>76.84</ele></rtept><rtept lat="49.138348" lon="2.483854"><ele>84.91</ele></rtept><rtept lat="49.138416" lon="2.48391"><ele>85.85</ele></rtept><rtept lat="49.138523" lon="2.484074"><ele>87.72</ele></rtept><rtept lat="49.138626" lon="2.484523"><ele>89.5</ele></rtept><rtept lat="49.138966" lon="2.484585"><ele>88.0</ele></rtept><rtept lat="49.139027" lon="2.484701"><ele>88.0</ele></rtept><rtept lat="49.139053" lon="2.484802"><ele>88.0</ele></rtept><rtept lat="49.139065" lon="2.484917"><ele>88.0</ele></rtept><rtept lat="49.139023" lon="2.487179"><ele>86.79</ele></rtept><rtept lat="49.13904" lon="2.48745"><ele>86.2</ele></rtept><rtept lat="49.13908" lon="2.487663"><ele>85.79</ele></rtept><rtept lat="49.139187" lon="2.487989"><ele>85.1</ele></rtept><rtept lat="49.139664" lon="2.489244"><ele>85.28</ele></rtept><rtept lat="49.13971" lon="2.489402"><ele>84.91</ele></rtept><rtept lat="49.13973" lon="2.489496"><ele>84.68</ele></rtept><rtept lat="49.139664" lon="2.489761"><ele>84.45</ele></rtept><rtept lat="49.139633" lon="2.489858"><ele>84.55</ele></rtept><rtept lat="49.13957" lon="2.489996"><ele>84.93</ele></rtept><rtept lat="49.139465" lon="2.490115"><ele>85.01</ele></rtept><rtept lat="49.139236" lon="2.49031"><ele>86.02</ele></rtept><rtept lat="49.139072" lon="2.489916"><ele>87.64</ele></rtept><rtept lat="49.138897" lon="2.490083"><ele>87.87</ele></rtept></rte></gpx>