<?xml version="1.0" encoding="UTF-8" standalone="no"?><gpx xmlns="http://www.topografix.com/GPX/1/1" xmlns:xsi="http://www.w3.org/2001/XMLSchema-instance" creator="Sports Tracker" version="1.1" xsi:schemaLocation="http://www.topografix.com/GPX/1/1 http://www.topografix.com/GPX/1/1/gpx.xsd"><metadata><name>Ultra des 3 forêts 50K</name><author><name>malotalibart</name></author></metadata><wpt lat="49.30934" lon="2.60291"><name>Begin</name><desc>Auto-generated</desc><type>Begin</type></wpt><wpt lat="49.29665" lon="2.615072"><type>Left_turn</type></wpt><wpt lat="49.296604" lon="2.615085"><name>sortie de secours : gare de pont saint Maxence pas trop loin</name><type>Waypoint</type></wpt><wpt lat="49.2966" lon="2.6150749"><name>sortie de secours : gare de pont saint Maxence pas trop loin</name><type>Waypoint</type></wpt><wpt lat="49.296604" lon="2.615085"><name>sortie de secours : gare de pont saint Maxence pas trop loin</name><type>Waypoint</type></wpt><wpt lat="49.292255" lon="2.618053"><type>Right_turn</type></wpt><wpt lat="49.291397" lon="2.615237"><type>Left_turn</type></wpt><wpt lat="49.288933" lon="2.61632"><name>Waypoint 1</name><desc>Auto-generated</desc><type>Waypoint</type></wpt><wpt lat="49.285088" lon="2.619744"><type>Slight_left_turn</type></wpt><wpt lat="49.28446" lon="2.621324"><type>Sharp_right_turn</type></wpt><wpt lat="49.279613" lon="2.611162"><name>Waypoint 2</name><desc>Auto-generated</desc><type>Waypoint</type></wpt><wpt lat="49.277504" lon="2.606917"><type>Right_at_fork_turn</type></wpt><wpt lat="49.278145" lon="2.587932"><name>Waypoint 3</name><desc>Auto-generated</desc><type>Waypoint</type></wpt><wpt lat="49.278614" lon="2.585455"><type>Right_turn</type></wpt><wpt lat="49.289227" lon="2.5846784"><name>Waypoint 4</name><desc>Auto-generated</desc><type>Waypoint</type></wpt><wpt lat="49.28965" lon="2.584631"><type>Sharp_left_turn</type></wpt><wpt lat="49.286785" lon="2.572174"><name>Waypoint 5</name><desc>Auto-generated</desc><type>Waypoint</type></wpt><wpt lat="49.286743" lon="2.572113"><type>Right_at_fork_turn</type></wpt><wpt lat="49.284733" lon="2.563425"><type>Left_at_fork_turn</type></wpt><wpt lat="49.28087" lon="2.557529"><type>Left_turn</type></wpt><wpt lat="49.275345" lon="2.558031"><name>Waypoint 6</name><desc>Auto-generated</desc><type>Waypoint</type></wpt><wpt lat="49.27345" lon="2.558581"><type>Left_turn</type></wpt><wpt lat="49.272617" lon="2.561662"><type>Right_at_fork_turn</type></wpt><wpt lat="49.269417" lon="2.573054"><type>Sharp_right_turn</type></wpt><wpt lat="49.264267" lon="2.566067"><type>Left_turn</type></wpt><wpt lat="49.250195" lon="2.57194"><type>Right_turn</type></wpt><wpt lat="49.241375" lon="2.566832"><type>Right_turn</type></wpt><wpt lat="49.238613" lon="2.556054"><type>Right_turn</type></wpt><wpt lat="49.238407" lon="2.553353"><name>Waypoint 7</name><desc>Auto-generated</desc><type>Waypoint</type></wpt><wpt lat="49.238358" lon="2.552829"><type>Left_turn</type></wpt><wpt lat="49.234226" lon="2.549732"><type>Right_turn</type></wpt><wpt lat="49.23414" lon="2.5488"><type>Left_turn</type></wpt><wpt lat="49.23263" lon="2.547791"><type>Left_at_fork_turn</type></wpt><wpt lat="49.230602" lon="2.546193"><type>Slight_right_turn</type></wpt><wpt lat="49.230453" lon="2.545996"><type>Left_turn</type></wpt><wpt lat="49.229603" lon="2.548237"><name>Waypoint 8</name><desc>Auto-generated</desc><type>Waypoint</type></wpt><wpt lat="49.229565" lon="2.5484235"><name>point d'eau : cimetière Aumont</name><type>Waypoint</type></wpt><wpt lat="49.229424" lon="2.549204"><name>Waypoint 9</name><desc>Auto-generated</desc><type>Waypoint</type></wpt><wpt lat="49.22934" lon="2.550245"><type>Roundabout_exit_1_turn</type></wpt><wpt lat="49.226437" lon="2.551393"><type>Left_at_fork_turn</type></wpt><wpt lat="49.21974" lon="2.561751"><type>Left_turn</type></wpt><wpt lat="49.224064" lon="2.575439"><type>Right_turn</type></wpt><wpt lat="49.22007" lon="2.577715"><name>Waypoint 10</name><desc>Auto-generated</desc><type>Waypoint</type></wpt><wpt lat="49.21949" lon="2.578028"><type>Right_at_fork_turn</type></wpt><wpt lat="49.21084" lon="2.581545"><type>Right_turn</type></wpt><wpt lat="49.21082" lon="2.581513"><type>Left_turn</type></wpt><wpt lat="49.209827" lon="2.579994"><name>Waypoint 11</name><desc>Auto-generated</desc><type>Waypoint</type></wpt><wpt lat="49.20948" lon="2.579486"><type>Left_turn</type></wpt><wpt lat="49.20947" lon="2.579528"><type>Right_turn</type></wpt><wpt lat="49.206562" lon="2.578323"><type>Roundabout_exit_2_turn</type></wpt><wpt lat="49.206314" lon="2.578376"><type>Right_turn</type></wpt><wpt lat="49.205788" lon="2.57783"><name>Arènes de Senlis</name><type>Waypoint</type></wpt><wpt lat="49.205784" lon="2.5778382"><name>Arènes de Senlis</name><type>Waypoint</type></wpt><wpt lat="49.206135" lon="2.5781553"><name>Waypoint 12</name><desc>Auto-generated</desc><type>Waypoint</type></wpt><wpt lat="49.206455" lon="2.578611"><type>Right_turn</type></wpt><wpt lat="49.206093" lon="2.57991"><type>Left_turn</type></wpt><wpt lat="49.206112" lon="2.579922"><type>Right_turn</type></wpt><wpt lat="49.20595" lon="2.580492"><type>Left_turn</type></wpt><wpt lat="49.20642" lon="2.580842"><type>Right_turn</type></wpt><wpt lat="49.206303" lon="2.582542"><name>Waypoint 13</name><desc>Auto-generated</desc><type>Waypoint</type></wpt><wpt lat="49.205994" lon="2.584142"><type>Sharp_left_turn</type></wpt><wpt lat="49.207073" lon="2.585178"><type>Right_turn</type></wpt><wpt lat="49.207066" lon="2.5852"><type>Left_turn</type></wpt><wpt lat="49.207085" lon="2.585212"><type>Right_turn</type></wpt><wpt lat="49.207077" lon="2.585232"><type>Left_turn</type></wpt><wpt lat="49.207417" lon="2.585354"><name>Waypoint 14</name><desc>Auto-generated</desc><type>Waypoint</type></wpt><wpt lat="49.2078" lon="2.585563"><type>Right_turn</type></wpt><wpt lat="49.207703" lon="2.586004"><type>Right_at_fork_turn</type></wpt><wpt lat="49.207233" lon="2.586373"><name>Cathédrale de Senis</name><type>Waypoint</type></wpt><wpt lat="49.206985" lon="2.586707"><name>Waypoint 15</name><desc>Auto-generated</desc><type>Waypoint</type></wpt><wpt lat="49.2063" lon="2.587132"><type>Slight_right_turn</type></wpt><wpt lat="49.206017" lon="2.587034"><type>Left_turn</type></wpt><wpt lat="49.20491" lon="2.590714"><type>Right_turn</type></wpt><wpt lat="49.204414" lon="2.590758"><name>Sortie de secours : bus pour rejoindre les gares</name><type>Waypoint</type></wpt><wpt lat="49.20297" lon="2.590973"><type>Right_turn</type></wpt><wpt lat="49.202847" lon="2.590591"><type>Sharp_left_turn</type></wpt><wpt lat="49.201385" lon="2.591033"><type>Left_turn</type></wpt><wpt lat="49.19849" lon="2.59327"><type>Sharp_right_turn</type></wpt><wpt lat="49.191135" lon="2.590451"><name>Waypoint 16</name><desc>Auto-generated</desc><type>Waypoint</type></wpt><wpt lat="49.188744" lon="2.590023"><type>Sharp_right_turn</type></wpt><wpt lat="49.19153" lon="2.574479"><type>Roundabout_exit_2_turn</type></wpt><wpt lat="49.191525" lon="2.566182"><name>Waypoint 17</name><desc>Auto-generated</desc><type>Waypoint</type></wpt><wpt lat="49.19173" lon="2.561016"><type>Right_at_fork_turn</type></wpt><wpt lat="49.192093" lon="2.559899"><type>Left_at_fork_turn</type></wpt><wpt lat="49.19287" lon="2.557484"><type>Left_turn</type></wpt><wpt lat="49.190907" lon="2.546993"><type>Slight_left_turn</type></wpt><wpt lat="49.191147" lon="2.5317314"><name>Waypoint 18</name><desc>Auto-generated</desc><type>Waypoint</type></wpt><wpt lat="49.19066" lon="2.512395"><type>Sharp_right_turn</type></wpt><wpt lat="49.190712" lon="2.512433"><type>Left_turn</type></wpt><wpt lat="49.191967" lon="2.50752"><type>Roundabout_exit_1_turn</type></wpt><wpt lat="49.192093" lon="2.506809"><type>Left_at_fork_turn</type></wpt><wpt lat="49.191303" lon="2.505088"><name>Waypoint 19</name><desc>Auto-generated</desc><type>Waypoint</type></wpt><wpt lat="49.189835" lon="2.488718"><name>Waypoint 20</name><desc>Auto-generated</desc><type>Waypoint</type></wpt><wpt lat="49.19146" lon="2.485158"><type>Right_turn</type></wpt><wpt lat="49.19176" lon="2.484616"><type>Left_at_fork_turn</type></wpt><wpt lat="49.1919" lon="2.4843993"><name>Château de Chantilly</name><type>Waypoint</type></wpt><wpt lat="49.19299" lon="2.482284"><type>Right_at_fork_turn</type></wpt><wpt lat="49.193134" lon="2.481929"><type>Left_at_fork_turn</type></wpt><wpt lat="49.193733" lon="2.480488"><type>Left_turn</type></wpt><wpt lat="49.19347" lon="2.480354"><type>Right_turn</type></wpt><wpt lat="49.193455" lon="2.480006"><name>Waypoint 21</name><desc>Auto-generated</desc><type>Waypoint</type></wpt><wpt lat="49.193413" lon="2.477636"><type>Right_turn</type></wpt><wpt lat="49.193447" lon="2.477632"><type>Left_turn</type></wpt><wpt lat="49.19336" lon="2.473871"><type>Left_at_fork_turn</type></wpt><wpt lat="49.19041" lon="2.466377"><type>Right_at_fork_turn</type></wpt><wpt lat="49.1901" lon="2.46539"><type>Right_turn</type></wpt><wpt lat="49.190136" lon="2.465295"><type>Left_turn</type></wpt><wpt lat="49.189774" lon="2.46316"><type>Left_turn</type></wpt><wpt lat="49.1881" lon="2.462091"><name>Waypoint 22</name><desc>Auto-generated</desc><type>Waypoint</type></wpt><wpt lat="49.187115" lon="2.4614756"><name>sortie de secours : Gare de Chantilly</name><type>Waypoint</type></wpt><wpt lat="49.18651" lon="2.461145"><type>Left_at_fork_turn</type></wpt><wpt lat="49.18606" lon="2.461225"><type>Sharp_left_turn</type></wpt><wpt lat="49.18599" lon="2.462341"><type>Right_at_fork_turn</type></wpt><wpt lat="49.183865" lon="2.469494"><type>Right_turn</type></wpt><wpt lat="49.1773" lon="2.470717"><name>Waypoint 23</name><desc>Auto-generated</desc><type>Waypoint</type></wpt><wpt lat="49.168545" lon="2.471906"><type>Left_turn</type></wpt><wpt lat="49.16336" lon="2.480898"><name>Waypoint 24</name><desc>Auto-generated</desc><type>Waypoint</type></wpt><wpt lat="49.162605" lon="2.482204"><type>Right_turn</type></wpt><wpt lat="49.157516" lon="2.481172"><type>Left_turn</type></wpt><wpt lat="49.157238" lon="2.481859"><type>Slight_left_turn</type></wpt><wpt lat="49.157646" lon="2.4828238"><name>Waypoint 25</name><desc>Auto-generated</desc><type>Waypoint</type></wpt><wpt lat="49.15891" lon="2.484794"><name>Étangs de Comelles</name><type>Waypoint</type></wpt><wpt lat="49.159157" lon="2.487247"><type>Left_turn</type></wpt><wpt lat="49.15919" lon="2.487365"><type>Right_turn</type></wpt><wpt lat="49.158436" lon="2.4887896"><name>Waypoint 26</name><desc>Auto-generated</desc><type>Waypoint</type></wpt><wpt lat="49.158005" lon="2.4917576"><name>Waypoint 27</name><desc>Auto-generated</desc><type>Waypoint</type></wpt><wpt lat="49.158302" lon="2.495265"><type>Right_at_fork_turn</type></wpt><wpt lat="49.15818" lon="2.5005746"><name>Waypoint 28</name><desc>Auto-generated</desc><type>Waypoint</type></wpt><wpt lat="49.15807" lon="2.501344"><type>Right_turn</type></wpt><wpt lat="49.158" lon="2.501272"><type>Left_at_fork_turn</type></wpt><wpt lat="49.156837" lon="2.500241"><type>Right_turn</type></wpt><wpt lat="49.156887" lon="2.5001585"><name>Waypoint 29</name><desc>Auto-generated</desc><type>Waypoint</type></wpt><wpt lat="49.156834" lon="2.49664"><name>Waypoint 30</name><desc>Auto-generated</desc><type>Waypoint</type></wpt><wpt lat="49.15613" lon="2.490368"><name>Waypoint 31</name><desc>Auto-generated</desc><type>Waypoint</type></wpt><wpt lat="49.157375" lon="2.486037"><type>Left_turn</type></wpt><wpt lat="49.156384" lon="2.484416"><name>Waypoint 32</name><desc>Auto-generated</desc><type>Waypoint</type></wpt><wpt lat="49.155163" lon="2.479468"><name>Waypoint 33</name><desc>Auto-generated</desc><type>Waypoint</type></wpt><wpt lat="49.155216" lon="2.479635"><type>Sharp_right_turn</type></wpt><wpt lat="49.1536" lon="2.479838"><type>Right_turn</type></wpt><wpt lat="49.15348" lon="2.479601"><type>Left_turn</type></wpt><wpt lat="49.152695" lon="2.480741"><name>Waypoint 34</name><desc>Auto-generated</desc><type>Waypoint</type></wpt><wpt lat="49.148647" lon="2.486616"><type>Slight_left_turn</type></wpt><wpt lat="49.14724" lon="2.491782"><type>Right_turn</type></wpt><wpt lat="49.142082" lon="2.487133"><type>Left_turn</type></wpt><wpt lat="49.140194" lon="2.489144"><name>Waypoint 35</name><desc>Auto-generated</desc><type>Waypoint</type></wpt><wpt lat="49.13973" lon="2.489496"><type>Right_turn</type></wpt><wpt lat="49.139484" lon="2.488777"><type>Left_turn</type></wpt><wpt lat="49.138893" lon="2.488971"><type>Right_turn</type></wpt><wpt lat="49.138767" lon="2.488632"><type>Sharp_left_turn</type></wpt><wpt lat="49.137897" lon="2.489428"><name>End</name><desc>Auto-generated</desc><type>End</type></wpt><rte><rtept lat="49.30934" lon="2.60291"><ele>32.0</ele></rtept><rtept lat="49.307613" lon="2.603029"><ele>30.0</ele></rtept><rtept lat="49.303375" lon="2.603239"><ele>31.02</ele></rtept><rtept lat="49.30334" lon="2.604364"><ele>34.46</ele></rtept><rtept lat="49.302486" lon="2.604397"><ele>35.09</ele></rtept><rtept lat="49.30242" lon="2.60428"><ele>35.4</ele></rtept><rtept lat="49.302372" lon="2.604293"><ele>35.48</ele></rtept><rtept lat="49.30233" lon="2.604421"><ele>35.94</ele></rtept><rtept lat="49.302353" lon="2.604489"><ele>35.96</ele></rtept><rtept lat="49.30245" lon="2.604508"><ele>35.44</ele></rtept><rtept lat="49.30249" lon="2.604632"><ele>34.25</ele></rtept><rtept lat="49.30252" lon="2.605505"><ele>30.57</ele></rtept><rtept lat="49.30265" lon="2.606057"><ele>30.69</ele></rtept><rtept lat="49.302807" lon="2.60697"><ele>31.0</ele></rtept><rtept lat="49.303143" lon="2.608178"><ele>31.0</ele></rtept><rtept lat="49.301807" lon="2.608678"><ele>35.0</ele></rtept><rtept lat="49.30179" lon="2.608592"><ele>35.04</ele></rtept><rtept lat="49.301018" lon="2.608579"><ele>42.37</ele></rtept><rtept lat="49.3006" lon="2.60825"><ele>48.55</ele></rtept><rtept lat="49.300484" lon="2.60824"><ele>50.33</ele></rtept><rtept lat="49.30003" lon="2.608035"><ele>58.56</ele></rtept><rtept lat="49.299885" lon="2.608132"><ele>60.48</ele></rtept><rtept lat="49.299755" lon="2.608103"><ele>64.19</ele></rtept><rtept lat="49.299225" lon="2.607572"><ele>67.58</ele></rtept><rtept lat="49.29892" lon="2.607433"><ele>70.61</ele></rtept><rtept lat="49.29868" lon="2.607439"><ele>70.86</ele></rtept><rtept lat="49.29821" lon="2.607722"><ele>80.97</ele></rtept><rtept lat="49.29803" lon="2.607993"><ele>84.58</ele></rtept><rtept lat="49.297955" lon="2.608272"><ele>86.88</ele></rtept><rtept lat="49.297836" lon="2.608461"><ele>88.32</ele></rtept><rtept lat="49.297596" lon="2.608586"><ele>89.2</ele></rtept><rtept lat="49.29794" lon="2.609809"><ele>91.14</ele></rtept><rtept lat="49.298164" lon="2.610625"><ele>97.57</ele></rtept><rtept lat="49.297913" lon="2.610806"><ele>101.01</ele></rtept><rtept lat="49.297653" lon="2.611076"><ele>102.0</ele></rtept><rtept lat="49.29765" lon="2.611934"><ele>97.87</ele></rtept><rtept lat="49.297466" lon="2.613295"><ele>95.07</ele></rtept><rtept lat="49.29729" lon="2.614367"><ele>96.81</ele></rtept><rtept lat="49.29699" lon="2.614812"><ele>95.93</ele></rtept><rtept lat="49.29665" lon="2.615072"><ele>95.13</ele></rtept><rtept lat="49.296444" lon="2.615131"><ele>97.73</ele></rtept><rtept lat="49.29665" lon="2.615072"><ele>95.13</ele></rtept><rtept lat="49.296604" lon="2.615085"><ele>95.58</ele></rtept><rtept lat="49.2966" lon="2.6150749"><ele>95.58</ele></rtept><rtept lat="49.296604" lon="2.615085"><ele>95.58</ele></rtept><rtept lat="49.29589" lon="2.615288"><ele>102.44</ele></rtept><rtept lat="49.295147" lon="2.615714"><ele>104.0</ele></rtept><rtept lat="49.29319" lon="2.617121"><ele>105.01</ele></rtept><rtept lat="49.292255" lon="2.618053"><ele>104.47</ele></rtept><rtept lat="49.291912" lon="2.617382"><ele>104.0</ele></rtept><rtept lat="49.291676" lon="2.617029"><ele>103.24</ele></rtept><rtept lat="49.291508" lon="2.616582"><ele>102.45</ele></rtept><rtept lat="49.291397" lon="2.615237"><ele>99.34</ele></rtept><rtept lat="49.290535" lon="2.615135"><ele>96.92</ele></rtept><rtept lat="49.29029" lon="2.615223"><ele>97.34</ele></rtept><rtept lat="49.28894" lon="2.615885"><ele>102.06</ele></rtept><rtept lat="49.2888" lon="2.616038"><ele>102.19</ele></rtept><rtept lat="49.288933" lon="2.61632"><ele>102.19</ele></rtept><rtept lat="49.2888" lon="2.616038"><ele>102.19</ele></rtept><rtept lat="49.28808" lon="2.616837"><ele>102.89</ele></rtept><rtept lat="49.287727" lon="2.61699"><ele>102.68</ele></rtept><rtept lat="49.286793" lon="2.618088"><ele>100.0</ele></rtept><rtept lat="49.285088" lon="2.619744"><ele>87.31</ele></rtept><rtept lat="49.284874" lon="2.620486"><ele>92.77</ele></rtept><rtept lat="49.28446" lon="2.621324"><ele>98.5</ele></rtept><rtept lat="49.28378" lon="2.620006"><ele>102.07</ele></rtept><rtept lat="49.281746" lon="2.615656"><ele>102.54</ele></rtept><rtept lat="49.280975" lon="2.614003"><ele>90.11</ele></rtept><rtept lat="49.280533" lon="2.613054"><ele>96.82</ele></rtept><rtept lat="49.279613" lon="2.611162"><ele>102.14</ele></rtept><rtept lat="49.277664" lon="2.607144"><ele>103.15</ele></rtept><rtept lat="49.277504" lon="2.606917"><ele>104.0</ele></rtept><rtept lat="49.277454" lon="2.606148"><ele>104.0</ele></rtept><rtept lat="49.277405" lon="2.602297"><ele>105.5</ele></rtept><rtept lat="49.277336" lon="2.601697"><ele>105.82</ele></rtept><rtept lat="49.27722" lon="2.59469"><ele>109.35</ele></rtept><rtept lat="49.277176" lon="2.593771"><ele>110.6</ele></rtept><rtept lat="49.27719" lon="2.593087"><ele>111.2</ele></rtept><rtept lat="49.277653" lon="2.590575"><ele>111.09</ele></rtept><rtept lat="49.278145" lon="2.587932"><ele>106.28</ele></rtept><rtept lat="49.278614" lon="2.585455"><ele>106.0</ele></rtept><rtept lat="49.2836" lon="2.585219"><ele>104.0</ele></rtept><rtept lat="49.28537" lon="2.585061"><ele>99.95</ele></rtept><rtept lat="49.28662" lon="2.584948"><ele>88.31</ele></rtept><rtept lat="49.288136" lon="2.584789"><ele>85.15</ele></rtept><rtept lat="49.289227" lon="2.5846784"><ele>69.44</ele></rtept><rtept lat="49.28965" lon="2.584631"><ele>63.36</ele></rtept><rtept lat="49.289566" lon="2.58422"><ele>68.72</ele></rtept><rtept lat="49.28944" lon="2.584104"><ele>72.08</ele></rtept><rtept lat="49.289448" lon="2.583935"><ele>72.47</ele></rtept><rtept lat="49.289837" lon="2.583381"><ele>72.45</ele></rtept><rtept lat="49.289837" lon="2.583115"><ele>73.16</ele></rtept><rtept lat="49.289745" lon="2.582908"><ele>74.12</ele></rtept><rtept lat="49.289062" lon="2.582815"><ele>81.64</ele></rtept><rtept lat="49.28808" lon="2.582781"><ele>89.43</ele></rtept><rtept lat="49.28774" lon="2.582585"><ele>91.45</ele></rtept><rtept lat="49.287445" lon="2.58225"><ele>93.2</ele></rtept><rtept lat="49.287354" lon="2.581846"><ele>94.2</ele></rtept><rtept lat="49.287376" lon="2.581212"><ele>94.68</ele></rtept><rtept lat="49.287563" lon="2.580715"><ele>93.79</ele></rtept><rtept lat="49.288597" lon="2.580231"><ele>91.6</ele></rtept><rtept lat="49.28832" lon="2.579089"><ele>96.18</ele></rtept><rtept lat="49.28821" lon="2.578464"><ele>92.61</ele></rtept><rtept lat="49.287857" lon="2.576982"><ele>66.4</ele></rtept><rtept lat="49.287247" lon="2.574529"><ele>57.03</ele></rtept><rtept lat="49.28721" lon="2.57432"><ele>59.57</ele></rtept><rtept lat="49.28729" lon="2.57426"><ele>60.42</ele></rtept><rtept lat="49.287373" lon="2.574256"><ele>60.64</ele></rtept><rtept lat="49.288403" lon="2.574529"><ele>63.28</ele></rtept><rtept lat="49.288464" lon="2.574524"><ele>63.71</ele></rtept><rtept lat="49.288486" lon="2.574458"><ele>64.12</ele></rtept><rtept lat="49.286785" lon="2.572174"><ele>95.42</ele></rtept><rtept lat="49.286743" lon="2.572113"><ele>96.14</ele></rtept><rtept lat="49.284733" lon="2.563425"><ele>102.0</ele></rtept><rtept lat="49.28087" lon="2.557529"><ele>98.0</ele></rtept><rtept lat="49.28015" lon="2.557878"><ele>97.22</ele></rtept><rtept lat="49.279457" lon="2.557904"><ele>96.9</ele></rtept><rtept lat="49.278957" lon="2.558014"><ele>96.23</ele></rtept><rtept lat="49.27869" lon="2.557944"><ele>95.61</ele></rtept><rtept lat="49.278416" lon="2.557947"><ele>94.81</ele></rtept><rtept lat="49.278103" lon="2.558015"><ele>93.83</ele></rtept><rtept lat="49.277832" lon="2.558143"><ele>94.21</ele></rtept><rtept lat="49.277534" lon="2.558219"><ele>94.68</ele></rtept><rtept lat="49.277294" lon="2.558214"><ele>94.81</ele></rtept><rtept lat="49.27653" lon="2.558043"><ele>94.71</ele></rtept><rtept lat="49.276024" lon="2.557856"><ele>94.64</ele></rtept><rtept lat="49.27557" lon="2.557919"><ele>94.76</ele></rtept><rtept lat="49.275345" lon="2.558031"><ele>95.05</ele></rtept><rtept lat="49.274742" lon="2.558301"><ele>96.0</ele></rtept><rtept lat="49.274223" lon="2.55838"><ele>96.88</ele></rtept><rtept lat="49.27345" lon="2.558581"><ele>97.0</ele></rtept><rtept lat="49.27271" lon="2.561212"><ele>97.68</ele></rtept><rtept lat="49.272617" lon="2.561662"><ele>98.0</ele></rtept><rtept lat="49.27061" lon="2.568522"><ele>101.0</ele></rtept><rtept lat="49.269417" lon="2.573054"><ele>102.0</ele></rtept><rtept lat="49.264267" lon="2.566067"><ele>97.0</ele></rtept><rtept lat="49.26399" lon="2.566188"><ele>96.25</ele></rtept><rtept lat="49.26307" lon="2.566759"><ele>96.0</ele></rtept><rtept lat="49.262516" lon="2.567264"><ele>96.0</ele></rtept><rtept lat="49.262077" lon="2.567572"><ele>96.0</ele></rtept><rtept lat="49.261333" lon="2.567981"><ele>95.36</ele></rtept><rtept lat="49.26084" lon="2.568151"><ele>94.37</ele></rtept><rtept lat="49.26018" lon="2.568143"><ele>93.26</ele></rtept><rtept lat="49.25953" lon="2.567913"><ele>93.25</ele></rtept><rtept lat="49.258484" lon="2.56745"><ele>94.59</ele></rtept><rtept lat="49.257786" lon="2.567036"><ele>94.29</ele></rtept><rtept lat="49.25732" lon="2.566711"><ele>93.0</ele></rtept><rtept lat="49.257187" lon="2.56669"><ele>93.0</ele></rtept><rtept lat="49.256344" lon="2.56679"><ele>93.06</ele></rtept><rtept lat="49.255955" lon="2.567049"><ele>93.36</ele></rtept><rtept lat="49.25567" lon="2.567319"><ele>93.61</ele></rtept><rtept lat="49.255478" lon="2.567631"><ele>93.82</ele></rtept><rtept lat="49.254944" lon="2.568066"><ele>94.03</ele></rtept><rtept lat="49.254505" lon="2.568327"><ele>94.28</ele></rtept><rtept lat="49.25403" lon="2.568882"><ele>94.72</ele></rtept><rtept lat="49.253475" lon="2.569299"><ele>95.0</ele></rtept><rtept lat="49.252716" lon="2.569611"><ele>95.39</ele></rtept><rtept lat="49.252434" lon="2.569915"><ele>95.55</ele></rtept><rtept lat="49.25213" lon="2.570153"><ele>95.3</ele></rtept><rtept lat="49.251694" lon="2.570344"><ele>94.77</ele></rtept><rtept lat="49.25143" lon="2.570561"><ele>94.38</ele></rtept><rtept lat="49.250996" lon="2.571071"><ele>94.45</ele></rtept><rtept lat="49.250732" lon="2.57119"><ele>94.83</ele></rtept><rtept lat="49.250195" lon="2.57194"><ele>96.0</ele></rtept><rtept lat="49.248398" lon="2.570872"><ele>100.0</ele></rtept><rtept lat="49.246017" lon="2.569454"><ele>120.24</ele></rtept><rtept lat="49.245052" lon="2.568961"><ele>130.27</ele></rtept><rtept lat="49.243004" lon="2.567784"><ele>140.0</ele></rtept><rtept lat="49.242397" lon="2.567396"><ele>140.0</ele></rtept><rtept lat="49.241375" lon="2.566832"><ele>138.0</ele></rtept><rtept lat="49.24088" lon="2.564695"><ele>139.44</ele></rtept><rtept lat="49.240784" lon="2.564371"><ele>139.61</ele></rtept><rtept lat="49.240177" lon="2.562894"><ele>138.54</ele></rtept><rtept lat="49.24013" lon="2.562693"><ele>138.36</ele></rtept><rtept lat="49.240124" lon="2.562476"><ele>138.17</ele></rtept><rtept lat="49.240185" lon="2.561612"><ele>137.43</ele></rtept><rtept lat="49.240273" lon="2.561286"><ele>137.17</ele></rtept><rtept lat="49.241257" lon="2.559557"><ele>136.93</ele></rtept><rtept lat="49.241302" lon="2.559439"><ele>136.96</ele></rtept><rtept lat="49.241295" lon="2.55931"><ele>136.99</ele></rtept><rtept lat="49.24127" lon="2.559226"><ele>137.01</ele></rtept><rtept lat="49.24086" lon="2.558678"><ele>136.73</ele></rtept><rtept lat="49.238613" lon="2.556054"><ele>136.0</ele></rtept><rtept lat="49.238407" lon="2.553353"><ele>137.99</ele></rtept><rtept lat="49.238358" lon="2.552829"><ele>138.0</ele></rtept><rtept lat="49.23823" lon="2.55281"><ele>138.0</ele></rtept><rtept lat="49.23809" lon="2.552683"><ele>137.74</ele></rtept><rtept lat="49.23773" lon="2.552224"><ele>136.89</ele></rtept><rtept lat="49.237335" lon="2.551909"><ele>136.0</ele></rtept><rtept lat="49.236885" lon="2.551789"><ele>135.1</ele></rtept><rtept lat="49.23633" lon="2.551352"><ele>134.03</ele></rtept><rtept lat="49.236004" lon="2.551045"><ele>133.97</ele></rtept><rtept lat="49.235558" lon="2.550807"><ele>133.4</ele></rtept><rtept lat="49.23512" lon="2.550416"><ele>132.8</ele></rtept><rtept lat="49.23489" lon="2.550313"><ele>132.49</ele></rtept><rtept lat="49.234226" lon="2.549732"><ele>131.0</ele></rtept><rtept lat="49.23417" lon="2.549359"><ele>130.6</ele></rtept><rtept lat="49.23414" lon="2.5488"><ele>128.67</ele></rtept><rtept lat="49.23384" lon="2.548751"><ele>127.55</ele></rtept><rtept lat="49.233448" lon="2.548605"><ele>125.05</ele></rtept><rtept lat="49.23329" lon="2.548505"><ele>124.29</ele></rtept><rtept lat="49.232857" lon="2.548072"><ele>121.65</ele></rtept><rtept lat="49.23263" lon="2.547791"><ele>119.23</ele></rtept><rtept lat="49.232414" lon="2.547568"><ele>118.29</ele></rtept><rtept lat="49.232204" lon="2.547491"><ele>117.06</ele></rtept><rtept lat="49.23193" lon="2.547481"><ele>114.99</ele></rtept><rtept lat="49.231766" lon="2.547539"><ele>113.58</ele></rtept><rtept lat="49.231537" lon="2.547361"><ele>111.09</ele></rtept><rtept lat="49.231335" lon="2.546973"><ele>107.68</ele></rtept><rtept lat="49.230953" lon="2.546369"><ele>102.0</ele></rtept><rtept lat="49.230602" lon="2.546193"><ele>101.0</ele></rtept><rtept lat="49.230453" lon="2.545996"><ele>101.0</ele></rtept><rtept lat="49.230034" lon="2.546965"><ele>97.58</ele></rtept><rtept lat="49.229603" lon="2.548237"><ele>93.62</ele></rtept><rtept lat="49.229565" lon="2.5484235"><ele>93.32183</ele></rtept><rtept lat="49.229424" lon="2.549204"><ele>92.33</ele></rtept><rtept lat="49.229332" lon="2.549973"><ele>90.88</ele></rtept><rtept lat="49.22934" lon="2.550245"><ele>89.86</ele></rtept><rtept lat="49.22925" lon="2.550418"><ele>88.91</ele></rtept><rtept lat="49.22788" lon="2.550721"><ele>84.11</ele></rtept><rtept lat="49.226437" lon="2.551393"><ele>82.09</ele></rtept><rtept lat="49.226345" lon="2.551527"><ele>82.07</ele></rtept><rtept lat="49.225807" lon="2.552014"><ele>82.49</ele></rtept><rtept lat="49.22535" lon="2.552335"><ele>82.52</ele></rtept><rtept lat="49.224834" lon="2.552581"><ele>82.18</ele></rtept><rtept lat="49.22419" lon="2.553024"><ele>82.02</ele></rtept><rtept lat="49.223103" lon="2.554189"><ele>82.0</ele></rtept><rtept lat="49.222454" lon="2.554975"><ele>81.48</ele></rtept><rtept lat="49.22215" lon="2.555557"><ele>80.9</ele></rtept><rtept lat="49.220646" lon="2.558965"><ele>77.93</ele></rtept><rtept lat="49.22013" lon="2.560049"><ele>77.09</ele></rtept><rtept lat="49.220013" lon="2.560416"><ele>76.68</ele></rtept><rtept lat="49.21996" lon="2.560874"><ele>76.14</ele></rtept><rtept lat="49.21974" lon="2.561751"><ele>75.0</ele></rtept><rtept lat="49.221073" lon="2.566075"><ele>70.22</ele></rtept><rtept lat="49.221577" lon="2.567798"><ele>77.26</ele></rtept><rtept lat="49.223053" lon="2.572508"><ele>94.24</ele></rtept><rtept lat="49.224064" lon="2.575439"><ele>90.28</ele></rtept><rtept lat="49.223675" lon="2.575707"><ele>88.23</ele></rtept><rtept lat="49.222626" lon="2.576308"><ele>85.38</ele></rtept><rtept lat="49.221786" lon="2.576717"><ele>83.51</ele></rtept><rtept lat="49.22007" lon="2.577715"><ele>79.71</ele></rtept><rtept lat="49.21949" lon="2.578028"><ele>79.0</ele></rtept><rtept lat="49.219208" lon="2.578078"><ele>78.34</ele></rtept><rtept lat="49.218933" lon="2.578046"><ele>77.86</ele></rtept><rtept lat="49.21782" lon="2.577671"><ele>75.8</ele></rtept><rtept lat="49.216785" lon="2.577497"><ele>74.09</ele></rtept><rtept lat="49.216476" lon="2.577555"><ele>73.64</ele></rtept><rtept lat="49.214867" lon="2.57837"><ele>70.69</ele></rtept><rtept lat="49.214455" lon="2.578413"><ele>68.92</ele></rtept><rtept lat="49.214355" lon="2.578377"><ele>68.01</ele></rtept><rtept lat="49.213867" lon="2.578608"><ele>63.6</ele></rtept><rtept lat="49.212982" lon="2.579339"><ele>58.0</ele></rtept><rtept lat="49.21207" lon="2.579838"><ele>56.8</ele></rtept><rtept lat="49.21168" lon="2.580131"><ele>55.78</ele></rtept><rtept lat="49.211582" lon="2.580263"><ele>56.81</ele></rtept><rtept lat="49.21122" lon="2.581026"><ele>58.46</ele></rtept><rtept lat="49.21084" lon="2.581545"><ele>61.46</ele></rtept><rtept lat="49.21082" lon="2.581513"><ele>61.05</ele></rtept><rtept lat="49.21077" lon="2.581585"><ele>61.09</ele></rtept><rtept lat="49.209827" lon="2.579994"><ele>68.64</ele></rtept><rtept lat="49.20965" lon="2.579668"><ele>70.11</ele></rtept><rtept lat="49.20948" lon="2.579486"><ele>70.09</ele></rtept><rtept lat="49.20947" lon="2.579528"><ele>70.23</ele></rtept><rtept lat="49.208748" lon="2.579019"><ele>72.11</ele></rtept><rtept lat="49.20781" lon="2.579041"><ele>74.0</ele></rtept><rtept lat="49.207054" lon="2.578549"><ele>73.82</ele></rtept><rtept lat="49.206562" lon="2.578323"><ele>73.0</ele></rtept><rtept lat="49.206554" lon="2.578384"><ele>73.0</ele></rtept><rtept lat="49.206505" lon="2.578433"><ele>73.0</ele></rtept><rtept lat="49.206432" lon="2.578358"><ele>72.5</ele></rtept><rtept lat="49.206314" lon="2.578376"><ele>72.0</ele></rtept><rtept lat="49.206287" lon="2.578277"><ele>71.96</ele></rtept><rtept lat="49.205788" lon="2.57783"><ele>69.75</ele></rtept><rtept lat="49.205784" lon="2.5778382"><ele>69.75</ele></rtept><rtept lat="49.206135" lon="2.5781553"><ele>71.29</ele></rtept><rtept lat="49.206287" lon="2.578277"><ele>71.96</ele></rtept><rtept lat="49.206337" lon="2.578469"><ele>72.22</ele></rtept><rtept lat="49.206455" lon="2.578611"><ele>73.0</ele></rtept><rtept lat="49.206093" lon="2.57991"><ele>71.85</ele></rtept><rtept lat="49.206112" lon="2.579922"><ele>71.93</ele></rtept><rtept lat="49.20595" lon="2.580492"><ele>72.0</ele></rtept><rtept lat="49.20642" lon="2.580842"><ele>73.0</ele></rtept><rtept lat="49.206264" lon="2.581545"><ele>73.95</ele></rtept><rtept lat="49.206276" lon="2.582308"><ele>74.16</ele></rtept><rtept lat="49.206303" lon="2.582542"><ele>75.27</ele></rtept><rtept lat="49.20633" lon="2.582717"><ele>76.0</ele></rtept><rtept lat="49.20632" lon="2.582933"><ele>76.0</ele></rtept><rtept lat="49.206413" lon="2.583136"><ele>75.89</ele></rtept><rtept lat="49.206436" lon="2.583277"><ele>75.75</ele></rtept><rtept lat="49.206295" lon="2.58381"><ele>74.95</ele></rtept><rtept lat="49.206207" lon="2.583934"><ele>74.49</ele></rtept><rtept lat="49.206085" lon="2.583976"><ele>74.05</ele></rtept><rtept lat="49.205994" lon="2.584142"><ele>73.62</ele></rtept><rtept lat="49.20682" lon="2.58473"><ele>76.99</ele></rtept><rtept lat="49.206898" lon="2.584826"><ele>77.33</ele></rtept><rtept lat="49.20697" lon="2.585094"><ele>77.95</ele></rtept><rtept lat="49.207073" lon="2.585178"><ele>78.0</ele></rtept><rtept lat="49.207066" lon="2.5852"><ele>78.0</ele></rtept><rtept lat="49.207085" lon="2.585212"><ele>78.0</ele></rtept><rtept lat="49.207077" lon="2.585232"><ele>78.0</ele></rtept><rtept lat="49.207165" lon="2.585301"><ele>78.09</ele></rtept><rtept lat="49.207417" lon="2.585354"><ele>78.48</ele></rtept><rtept lat="49.2078" lon="2.585563"><ele>78.3</ele></rtept><rtept lat="49.207703" lon="2.586004"><ele>77.97</ele></rtept><rtept lat="49.207233" lon="2.586373"><ele>76.032265</ele></rtept><rtept lat="49.206985" lon="2.586707"><ele>75.14</ele></rtept><rtept lat="49.2068" lon="2.586922"><ele>74.51</ele></rtept><rtept lat="49.206676" lon="2.586999"><ele>74.18</ele></rtept><rtept lat="49.2063" lon="2.587132"><ele>73.09</ele></rtept><rtept lat="49.206017" lon="2.587034"><ele>72.71</ele></rtept><rtept lat="49.205776" lon="2.587686"><ele>70.08</ele></rtept><rtept lat="49.205284" lon="2.589414"><ele>67.0</ele></rtept><rtept lat="49.20502" lon="2.590231"><ele>66.0</ele></rtept><rtept lat="49.20491" lon="2.590714"><ele>65.0</ele></rtept><rtept lat="49.204414" lon="2.590758"><ele>65.0</ele></rtept><rtept lat="49.20297" lon="2.590973"><ele>63.79</ele></rtept><rtept lat="49.202957" lon="2.590858"><ele>61.4</ele></rtept><rtept lat="49.20283" lon="2.590797"><ele>58.82</ele></rtept><rtept lat="49.202847" lon="2.590591"><ele>58.04</ele></rtept><rtept lat="49.202454" lon="2.590763"><ele>58.04</ele></rtept><rtept lat="49.202335" lon="2.590895"><ele>55.67</ele></rtept><rtept lat="49.201836" lon="2.591119"><ele>55.12</ele></rtept><rtept lat="49.20175" lon="2.591139"><ele>54.84</ele></rtept><rtept lat="49.201385" lon="2.591033"><ele>53.76</ele></rtept><rtept lat="49.20104" lon="2.591538"><ele>53.82</ele></rtept><rtept lat="49.199715" lon="2.592222"><ele>55.08</ele></rtept><rtept lat="49.199593" lon="2.592343"><ele>56.0</ele></rtept><rtept lat="49.199043" lon="2.592641"><ele>57.5</ele></rtept><rtept lat="49.19849" lon="2.59327"><ele>60.17</ele></rtept><rtept lat="49.198483" lon="2.5931"><ele>60.1</ele></rtept><rtept lat="49.19806" lon="2.592768"><ele>61.01</ele></rtept><rtept lat="49.197254" lon="2.591994"><ele>62.01</ele></rtept><rtept lat="49.19685" lon="2.591774"><ele>62.07</ele></rtept><rtept lat="49.195015" lon="2.591111"><ele>62.41</ele></rtept><rtept lat="49.193558" lon="2.59106"><ele>62.0</ele></rtept><rtept lat="49.192577" lon="2.590867"><ele>61.31</ele></rtept><rtept lat="49.191135" lon="2.590451"><ele>61.0</ele></rtept><rtept lat="49.19041" lon="2.590125"><ele>61.0</ele></rtept><rtept lat="49.189777" lon="2.589956"><ele>61.0</ele></rtept><rtept lat="49.18919" lon="2.58992"><ele>61.25</ele></rtept><rtept lat="49.188744" lon="2.590023"><ele>62.0</ele></rtept><rtept lat="49.18935" lon="2.586811"><ele>59.01</ele></rtept><rtept lat="49.18886" lon="2.585657"><ele>59.03</ele></rtept><rtept lat="49.18927" lon="2.583594"><ele>59.93</ele></rtept><rtept lat="49.18973" lon="2.582003"><ele>60.0</ele></rtept><rtept lat="49.191532" lon="2.574762"><ele>62.04</ele></rtept><rtept lat="49.191578" lon="2.574562"><ele>62.37</ele></rtept><rtept lat="49.19153" lon="2.574479"><ele>62.86</ele></rtept><rtept lat="49.191597" lon="2.574291"><ele>62.86</ele></rtept><rtept lat="49.191555" lon="2.573753"><ele>62.03</ele></rtept><rtept lat="49.191654" lon="2.573001"><ele>63.0</ele></rtept><rtept lat="49.191605" lon="2.570774"><ele>64.0</ele></rtept><rtept lat="49.19154" lon="2.569481"><ele>64.0</ele></rtept><rtept lat="49.191505" lon="2.566481"><ele>64.0</ele></rtept><rtept lat="49.191525" lon="2.566182"><ele>63.64</ele></rtept><rtept lat="49.191555" lon="2.565657"><ele>63.0</ele></rtept><rtept lat="49.19177" lon="2.564632"><ele>61.84</ele></rtept><rtept lat="49.191788" lon="2.564308"><ele>61.0</ele></rtept><rtept lat="49.19177" lon="2.561669"><ele>58.66</ele></rtept><rtept lat="49.19173" lon="2.561016"><ele>58.0</ele></rtept><rtept lat="49.192093" lon="2.559899"><ele>57.0</ele></rtept><rtept lat="49.19287" lon="2.557484"><ele>57.0</ele></rtept><rtept lat="49.19217" lon="2.555778"><ele>57.55</ele></rtept><rtept lat="49.191216" lon="2.554512"><ele>58.85</ele></rtept><rtept lat="49.19111" lon="2.554021"><ele>58.96</ele></rtept><rtept lat="49.191017" lon="2.552902"><ele>59.07</ele></rtept><rtept lat="49.191082" lon="2.551167"><ele>59.77</ele></rtept><rtept lat="49.19101" lon="2.548657"><ele>59.28</ele></rtept><rtept lat="49.190907" lon="2.546993"><ele>59.0</ele></rtept><rtept lat="49.190422" lon="2.545472"><ele>55.55</ele></rtept><rtept lat="49.190323" lon="2.545086"><ele>53.27</ele></rtept><rtept lat="49.190296" lon="2.544753"><ele>51.18</ele></rtept><rtept lat="49.190426" lon="2.5442"><ele>49.48</ele></rtept><rtept lat="49.190434" lon="2.543583"><ele>48.08</ele></rtept><rtept lat="49.190273" lon="2.542787"><ele>49.07</ele></rtept><rtept lat="49.19018" lon="2.541501"><ele>49.86</ele></rtept><rtept lat="49.190243" lon="2.540721"><ele>49.87</ele></rtept><rtept lat="49.19079" lon="2.536538"><ele>55.0</ele></rtept><rtept lat="49.191208" lon="2.532893"><ele>56.98</ele></rtept><rtept lat="49.191177" lon="2.531729"><ele>56.99</ele></rtept><rtept lat="49.191147" lon="2.5317314"><ele>56.99</ele></rtept><rtept lat="49.191177" lon="2.531729"><ele>56.99</ele></rtept><rtept lat="49.191147" lon="2.53023"><ele>56.6</ele></rtept><rtept lat="49.191006" lon="2.526264"><ele>55.08</ele></rtept><rtept lat="49.19088" lon="2.524419"><ele>54.96</ele></rtept><rtept lat="49.190628" lon="2.52162"><ele>54.06</ele></rtept><rtept lat="49.19051" lon="2.519563"><ele>54.88</ele></rtept><rtept lat="49.190567" lon="2.514476"><ele>56.0</ele></rtept><rtept lat="49.19066" lon="2.512395"><ele>55.0</ele></rtept><rtept lat="49.190712" lon="2.512433"><ele>55.0</ele></rtept><rtept lat="49.191383" lon="2.509868"><ele>53.0</ele></rtept><rtept lat="49.191967" lon="2.50752"><ele>48.87</ele></rtept><rtept lat="49.192017" lon="2.507287"><ele>48.08</ele></rtept><rtept lat="49.192074" lon="2.507224"><ele>48.0</ele></rtept><rtept lat="49.192093" lon="2.506809"><ele>48.0</ele></rtept><rtept lat="49.191303" lon="2.505088"><ele>49.41</ele></rtept><rtept lat="49.19051" lon="2.503237"><ele>51.95</ele></rtept><rtept lat="49.190014" lon="2.5008"><ele>54.0</ele></rtept><rtept lat="49.189445" lon="2.498309"><ele>54.0</ele></rtept><rtept lat="49.18936" lon="2.497693"><ele>54.0</ele></rtept><rtept lat="49.189365" lon="2.497072"><ele>54.0</ele></rtept><rtept lat="49.189537" lon="2.494244"><ele>53.82</ele></rtept><rtept lat="49.189503" lon="2.493747"><ele>53.54</ele></rtept><rtept lat="49.18942" lon="2.493476"><ele>53.0</ele></rtept><rtept lat="49.18944" lon="2.49322"><ele>53.0</ele></rtept><rtept lat="49.189342" lon="2.492317"><ele>52.71</ele></rtept><rtept lat="49.18926" lon="2.490035"><ele>46.67</ele></rtept><rtept lat="49.189575" lon="2.489357"><ele>44.32</ele></rtept><rtept lat="49.189835" lon="2.488718"><ele>45.32</ele></rtept><rtept lat="49.190037" lon="2.488107"><ele>47.0</ele></rtept><rtept lat="49.190414" lon="2.487328"><ele>47.92</ele></rtept><rtept lat="49.190895" lon="2.486551"><ele>47.06</ele></rtept><rtept lat="49.19139" lon="2.485869"><ele>45.32</ele></rtept><rtept lat="49.191475" lon="2.485506"><ele>45.42</ele></rtept><rtept lat="49.19146" lon="2.485158"><ele>46.0</ele></rtept><rtept lat="49.191586" lon="2.485071"><ele>45.6</ele></rtept><rtept lat="49.191715" lon="2.484681"><ele>44.82</ele></rtept><rtept lat="49.19176" lon="2.484616"><ele>44.38</ele></rtept><rtept lat="49.1919" lon="2.4843993"><ele>45.173046</ele></rtept><rtept lat="49.192284" lon="2.483598"><ele>45.66</ele></rtept><rtept lat="49.19299" lon="2.482284"><ele>47.1</ele></rtept><rtept lat="49.193134" lon="2.481929"><ele>48.0</ele></rtept><rtept lat="49.193733" lon="2.480488"><ele>51.33</ele></rtept><rtept lat="49.19364" lon="2.480391"><ele>51.86</ele></rtept><rtept lat="49.19347" lon="2.480354"><ele>52.0</ele></rtept><rtept lat="49.193455" lon="2.480006"><ele>52.01</ele></rtept><rtept lat="49.193417" lon="2.479144"><ele>52.03</ele></rtept><rtept lat="49.193413" lon="2.477636"><ele>52.3</ele></rtept><rtept lat="49.193447" lon="2.477632"><ele>52.04</ele></rtept><rtept lat="49.19336" lon="2.473871"><ele>54.96</ele></rtept><rtept lat="49.193302" lon="2.473696"><ele>54.99</ele></rtept><rtept lat="49.192715" lon="2.472951"><ele>55.54</ele></rtept><rtept lat="49.192543" lon="2.472562"><ele>56.0</ele></rtept><rtept lat="49.192505" lon="2.470773"><ele>56.0</ele></rtept><rtept lat="49.192013" lon="2.468909"><ele>55.86</ele></rtept><rtept lat="49.19041" lon="2.466377"><ele>56.0</ele></rtept><rtept lat="49.1901" lon="2.46539"><ele>56.0</ele></rtept><rtept lat="49.190136" lon="2.465295"><ele>56.0</ele></rtept><rtept lat="49.190052" lon="2.464963"><ele>56.0</ele></rtept><rtept lat="49.18996" lon="2.463979"><ele>55.99</ele></rtept><rtept lat="49.189774" lon="2.46316"><ele>55.67</ele></rtept><rtept lat="49.1881" lon="2.462091"><ele>56.64</ele></rtept><rtept lat="49.187115" lon="2.4614756"><ele>56.87004</ele></rtept><rtept lat="49.186558" lon="2.461128"><ele>57.0</ele></rtept><rtept lat="49.18651" lon="2.461145"><ele>57.0</ele></rtept><rtept lat="49.186096" lon="2.461272"><ele>58.0</ele></rtept><rtept lat="49.18606" lon="2.461225"><ele>58.0</ele></rtept><rtept lat="49.18599" lon="2.462341"><ele>58.0</ele></rtept><rtept lat="49.185345" lon="2.46329"><ele>58.67</ele></rtept><rtept lat="49.183865" lon="2.469494"><ele>58.0</ele></rtept><rtept lat="49.18114" lon="2.47018"><ele>58.63</ele></rtept><rtept lat="49.1773" lon="2.470717"><ele>62.63</ele></rtept><rtept lat="49.175976" lon="2.470902"><ele>64.0</ele></rtept><rtept lat="49.17496" lon="2.471103"><ele>65.0</ele></rtept><rtept lat="49.16901" lon="2.471891"><ele>67.0</ele></rtept><rtept lat="49.168545" lon="2.471906"><ele>68.0</ele></rtept><rtept lat="49.16611" lon="2.476229"><ele>68.0</ele></rtept><rtept lat="49.1655" lon="2.477209"><ele>69.0</ele></rtept><rtept lat="49.16336" lon="2.480898"><ele>65.88</ele></rtept><rtept lat="49.162605" lon="2.482204"><ele>64.78</ele></rtept><rtept lat="49.15833" lon="2.48135"><ele>65.76</ele></rtept><rtept lat="49.157654" lon="2.481239"><ele>61.62</ele></rtept><rtept lat="49.157516" lon="2.481172"><ele>60.59</ele></rtept><rtept lat="49.157433" lon="2.481254"><ele>59.52</ele></rtept><rtept lat="49.157375" lon="2.481404"><ele>58.13</ele></rtept><rtept lat="49.157368" lon="2.481522"><ele>56.99</ele></rtept><rtept lat="49.157238" lon="2.481859"><ele>52.84</ele></rtept><rtept lat="49.157303" lon="2.482245"><ele>52.98</ele></rtept><rtept lat="49.15749" lon="2.482529"><ele>54.11</ele></rtept><rtept lat="49.157642" lon="2.482628"><ele>54.21</ele></rtept><rtept lat="49.157692" lon="2.482792"><ele>54.38</ele></rtept><rtept lat="49.157646" lon="2.4828238"><ele>54.38</ele></rtept><rtept lat="49.157692" lon="2.482792"><ele>54.38</ele></rtept><rtept lat="49.15772" lon="2.482879"><ele>54.47</ele></rtept><rtept lat="49.158577" lon="2.483801"><ele>54.1</ele></rtept><rtept lat="49.158672" lon="2.483962"><ele>53.95</ele></rtept><rtept lat="49.15891" lon="2.484794"><ele>53.472473</ele></rtept><rtept lat="49.15891" lon="2.484793"><ele>53.47</ele></rtept><rtept lat="49.159126" lon="2.485987"><ele>53.97</ele></rtept><rtept lat="49.15913" lon="2.486487"><ele>53.7</ele></rtept><rtept lat="49.159153" lon="2.486549"><ele>53.64</ele></rtept><rtept lat="49.159225" lon="2.486463"><ele>53.54</ele></rtept><rtept lat="49.159256" lon="2.486481"><ele>53.48</ele></rtept><rtept lat="49.15928" lon="2.486583"><ele>53.29</ele></rtept><rtept lat="49.159252" lon="2.486813"><ele>53.09</ele></rtept><rtept lat="49.159283" lon="2.487043"><ele>51.97</ele></rtept><rtept lat="49.159157" lon="2.487247"><ele>52.0</ele></rtept><rtept lat="49.15919" lon="2.487365"><ele>53.57</ele></rtept><rtept lat="49.159016" lon="2.487605"><ele>54.51</ele></rtept><rtept lat="49.15889" lon="2.48781"><ele>54.93</ele></rtept><rtept lat="49.158825" lon="2.487968"><ele>55.04</ele></rtept><rtept lat="49.15879" lon="2.488204"><ele>55.18</ele></rtept><rtept lat="49.15868" lon="2.488454"><ele>55.47</ele></rtept><rtept lat="49.158516" lon="2.488554"><ele>55.59</ele></rtept><rtept lat="49.15847" lon="2.488691"><ele>55.56</ele></rtept><rtept lat="49.158447" lon="2.488795"><ele>55.8</ele></rtept><rtept lat="49.158436" lon="2.4887896"><ele>55.8</ele></rtept><rtept lat="49.158447" lon="2.488795"><ele>55.8</ele></rtept><rtept lat="49.15842" lon="2.488917"><ele>56.07</ele></rtept><rtept lat="49.158367" lon="2.489051"><ele>56.45</ele></rtept><rtept lat="49.15817" lon="2.489167"><ele>55.0</ele></rtept><rtept lat="49.158047" lon="2.489178"><ele>54.78</ele></rtept><rtept lat="49.157963" lon="2.489294"><ele>55.04</ele></rtept><rtept lat="49.157875" lon="2.48965"><ele>55.26</ele></rtept><rtept lat="49.157837" lon="2.489901"><ele>55.19</ele></rtept><rtept lat="49.157837" lon="2.490127"><ele>55.37</ele></rtept><rtept lat="49.157787" lon="2.490613"><ele>56.13</ele></rtept><rtept lat="49.157833" lon="2.490857"><ele>56.25</ele></rtept><rtept lat="49.157955" lon="2.491227"><ele>56.11</ele></rtept><rtept lat="49.158016" lon="2.491508"><ele>55.92</ele></rtept><rtept lat="49.15801" lon="2.491758"><ele>55.88</ele></rtept><rtept lat="49.158005" lon="2.4917576"><ele>55.88</ele></rtept><rtept lat="49.158005" lon="2.491981"><ele>55.85</ele></rtept><rtept lat="49.158077" lon="2.492471"><ele>55.41</ele></rtept><rtept lat="49.158215" lon="2.492858"><ele>54.89</ele></rtept><rtept lat="49.158264" lon="2.493269"><ele>54.8</ele></rtept><rtept lat="49.158264" lon="2.493626"><ele>54.81</ele></rtept><rtept lat="49.158337" lon="2.494023"><ele>54.57</ele></rtept><rtept lat="49.158302" lon="2.495265"><ele>53.26</ele></rtept><rtept lat="49.158222" lon="2.496229"><ele>54.91</ele></rtept><rtept lat="49.158222" lon="2.496551"><ele>55.57</ele></rtept><rtept lat="49.158333" lon="2.497155"><ele>56.45</ele></rtept><rtept lat="49.158344" lon="2.497412"><ele>56.89</ele></rtept><rtept lat="49.158325" lon="2.497765"><ele>56.98</ele></rtept><rtept lat="49.158195" lon="2.498444"><ele>54.73</ele></rtept><rtept lat="49.158245" lon="2.498701"><ele>54.21</ele></rtept><rtept lat="49.158146" lon="2.499578"><ele>53.36</ele></rtept><rtept lat="49.158234" lon="2.500483"><ele>52.24</ele></rtept><rtept lat="49.15822" lon="2.500587"><ele>52.04</ele></rtept><rtept lat="49.15818" lon="2.5005746"><ele>52.04</ele></rtept><rtept lat="49.15822" lon="2.500587"><ele>52.04</ele></rtept><rtept lat="49.15819" lon="2.501062"><ele>50.83</ele></rtept><rtept lat="49.15807" lon="2.501344"><ele>48.72</ele></rtept><rtept lat="49.158" lon="2.501272"><ele>48.1</ele></rtept><rtept lat="49.156837" lon="2.500241"><ele>48.21</ele></rtept><rtept lat="49.156853" lon="2.500146"><ele>48.03</ele></rtept><rtept lat="49.156887" lon="2.5001585"><ele>48.03</ele></rtept><rtept lat="49.156853" lon="2.500146"><ele>48.03</ele></rtept><rtept lat="49.15704" lon="2.498916"><ele>45.66</ele></rtept><rtept lat="49.157093" lon="2.498311"><ele>45.58</ele></rtept><rtept lat="49.157047" lon="2.497448"><ele>45.66</ele></rtept><rtept lat="49.156834" lon="2.49664"><ele>45.74</ele></rtept><rtept lat="49.156773" lon="2.496412"><ele>45.77</ele></rtept><rtept lat="49.156612" lon="2.494913"><ele>46.23</ele></rtept><rtept lat="49.156666" lon="2.492915"><ele>44.68</ele></rtept><rtept lat="49.156597" lon="2.492364"><ele>44.46</ele></rtept><rtept lat="49.1564" lon="2.491673"><ele>44.56</ele></rtept><rtept lat="49.156136" lon="2.490991"><ele>44.88</ele></rtept><rtept lat="49.15613" lon="2.490368"><ele>45.25</ele></rtept><rtept lat="49.156124" lon="2.489861"><ele>45.56</ele></rtept><rtept lat="49.156208" lon="2.489162"><ele>45.76</ele></rtept><rtept lat="49.15634" lon="2.488561"><ele>45.5</ele></rtept><rtept lat="49.15704" lon="2.487293"><ele>44.45</ele></rtept><rtept lat="49.15719" lon="2.486935"><ele>44.42</ele></rtept><rtept lat="49.157375" lon="2.486037"><ele>44.79</ele></rtept><rtept lat="49.157104" lon="2.485296"><ele>44.91</ele></rtept><rtept lat="49.156384" lon="2.484416"><ele>45.6</ele></rtept><rtept lat="49.15589" lon="2.483715"><ele>45.74</ele></rtept><rtept lat="49.155598" lon="2.482978"><ele>46.21</ele></rtept><rtept lat="49.155373" lon="2.482277"><ele>46.22</ele></rtept><rtept lat="49.15528" lon="2.481282"><ele>45.34</ele></rtept><rtept lat="49.155228" lon="2.479682"><ele>43.95</ele></rtept><rtept lat="49.155163" lon="2.479468"><ele>44.0</ele></rtept><rtept lat="49.155216" lon="2.479635"><ele>44.03</ele></rtept><rtept lat="49.155136" lon="2.479641"><ele>44.55</ele></rtept><rtept lat="49.155037" lon="2.479454"><ele>46.86</ele></rtept><rtept lat="49.15497" lon="2.479423"><ele>48.75</ele></rtept><rtept lat="49.154877" lon="2.479749"><ele>55.7</ele></rtept><rtept lat="49.15467" lon="2.479802"><ele>60.94</ele></rtept><rtept lat="49.15423" lon="2.479509"><ele>67.46</ele></rtept><rtept lat="49.15409" lon="2.479474"><ele>69.08</ele></rtept><rtept lat="49.153675" lon="2.479629"><ele>73.66</ele></rtept><rtept lat="49.15365" lon="2.479787"><ele>74.53</ele></rtept><rtept lat="49.1536" lon="2.479838"><ele>74.93</ele></rtept><rtept lat="49.15348" lon="2.479601"><ele>75.24</ele></rtept><rtept lat="49.152695" lon="2.480741"><ele>75.52</ele></rtept><rtept lat="49.148647" lon="2.486616"><ele>77.0</ele></rtept><rtept lat="49.147335" lon="2.49154"><ele>74.25</ele></rtept><rtept lat="49.14724" lon="2.491782"><ele>74.0</ele></rtept><rtept lat="49.142082" lon="2.487133"><ele>83.7</ele></rtept><rtept lat="49.141735" lon="2.487481"><ele>83.46</ele></rtept><rtept lat="49.141617" lon="2.487746"><ele>83.42</ele></rtept><rtept lat="49.140194" lon="2.489144"><ele>84.01</ele></rtept><rtept lat="49.13973" lon="2.489496"><ele>84.68</ele></rtept><rtept lat="49.139664" lon="2.489244"><ele>85.28</ele></rtept><rtept lat="49.139484" lon="2.488777"><ele>85.0</ele></rtept><rtept lat="49.139393" lon="2.488761"><ele>85.0</ele></rtept><rtept lat="49.13934" lon="2.488671"><ele>85.0</ele></rtept><rtept lat="49.139297" lon="2.488671"><ele>85.03</ele></rtept><rtept lat="49.138893" lon="2.488971"><ele>86.0</ele></rtept><rtept lat="49.138767" lon="2.488632"><ele>86.0</ele></rtept><rtept lat="49.13831" lon="2.489048"><ele>86.76</ele></rtept><rtept lat="49.13808" lon="2.489136"><ele>86.98</ele></rtept><rtept lat="49.137985" lon="2.489222"><ele>87.12</ele></rtept><rtept lat="49.137897" lon="2.489428"><ele>87.29</ele></rtept></rte></gpx>